{
  "type": "FeatureCollection",
  "features": [
    {
      "type": "Feature",
      "geometry": {
        "type": "Polygon",
        "coordinates": [
          [
            [
              5.557300000000001,
              64.44898
            ],
            [
              8.757299999999999,
              64.44898
            ],
            [
              8.757299999999999,
              66.94897999999999
            ],
            [
              5.557300000000001,
              66.94897999999999
            ],
            [
              5.557300000000001,
              64.44898
            ]
          ]
        ]
      },
      "properties": {
        "equipment_id": "B5-105_E3",
        "model_code": "E3",
        "room_id": "B5-105",
        "building_id": "B5",
        "floor": 1
      }
    },
    {
      "type": "Feature",
      "geometry": {
        "type": "Polygon",
        "coordinates": [
          [
            [
              3.3172800000000002,
              54.08498
            ],
            [
              5.107279999999999,
              54.08498
            ],
            [
              5.107279999999999,
              56.848980000000005
            ],
            [
              3.3172800000000002,
              56.848980000000005
            ],
            [
              3.3172800000000002,
              54.08498
            ]
          ]
        ]
      },
      "properties": {
        "equipment_id": "B5-105_E8",
        "model_code": "E8",
        "room_id": "B5-105",
        "building_id": "B5",
        "floor": 1
      }
    },
    {
      "type": "Feature",
      "geometry": {
        "type": "Polygon",
        "coordinates": [
          [
            [
              6.73929,
              61.52398
            ],
            [
              8.00729,
              61.52398
            ],
            [
              8.00729,
              62.63398
            ],
            [
              6.73929,
              62.63398
            ],
            [
              6.73929,
              61.52398
            ]
          ]
        ]
      },
      "properties": {
        "equipment_id": "B5-105_E16",
        "model_code": "E16",
        "room_id": "B5-105",
        "building_id": "B5",
        "floor": 1
      }
    },
    {
      "type": "Feature",
      "geometry": {
        "type": "Polygon",
        "coordinates": [
          [
            [
              13.148290000000001,
              56.54898
            ],
            [
              20.29229,
              56.54898
            ],
            [
              20.29229,
              63.098980000000005
            ],
            [
              13.148290000000001,
              63.098980000000005
            ],
            [
              13.148290000000001,
              56.54898
            ]
          ]
        ]
      },
      "properties": {
        "equipment_id": "B5-105_E5",
        "model_code": "E5",
        "room_id": "B5-105",
        "building_id": "B5",
        "floor": 1
      }
    },
    {
      "type": "Feature",
      "geometry": {
        "type": "Polygon",
        "coordinates": [
          [
            [
              3.00729,
              59.12398
            ],
            [
              5.47729,
              59.12398
            ],
            [
              5.47729,
              62.13398
            ],
            [
              3.00729,
              62.13398
            ],
            [
              3.00729,
              59.12398
            ]
          ]
        ]
      },
      "properties": {
        "equipment_id": "B5-105_E14",
        "model_code": "E14",
        "room_id": "B5-105",
        "building_id": "B5",
        "floor": 1
      }
    },
    {
      "type": "Feature",
      "geometry": {
        "type": "Polygon",
        "coordinates": [
          [
            [
              12.016290000000001,
              47.18498
            ],
            [
              20.29229,
              47.18498
            ],
            [
              20.29229,
              53.948980000000006
            ],
            [
              12.016290000000001,
              53.948980000000006
            ],
            [
              12.016290000000001,
              47.18498
            ]
          ]
        ]
      },
      "properties": {
        "equipment_id": "B5-105_E18",
        "model_code": "E18",
        "room_id": "B5-105",
        "building_id": "B5",
        "floor": 1
      }
    },
    {
      "type": "Feature",
      "geometry": {
        "type": "Polygon",
        "coordinates": [
          [
            [
              3.11761,
              48.73398
            ],
            [
              5.41761,
              48.73398
            ],
            [
              5.41761,
              52.23398
            ],
            [
              3.11761,
              52.23398
            ],
            [
              3.11761,
              48.73398
            ]
          ]
        ]
      },
      "properties": {
        "equipment_id": "B5-105_E38",
        "model_code": "E38",
        "room_id": "B5-105",
        "building_id": "B5",
        "floor": 1
      }
    },
    {
      "type": "Feature",
      "geometry": {
        "type": "Polygon",
        "coordinates": [
          [
            [
              2.5176100000000003,
              39.933980000000005
            ],
            [
              4.91761,
              39.933980000000005
            ],
            [
              4.91761,
              42.23398
            ],
            [
              2.5176100000000003,
              42.23398
            ],
            [
              2.5176100000000003,
              39.933980000000005
            ]
          ]
        ]
      },
      "properties": {
        "equipment_id": "B5-105_E29",
        "model_code": "E29",
        "room_id": "B5-105",
        "building_id": "B5",
        "floor": 1
      }
    },
    {
      "type": "Feature",
      "geometry": {
        "type": "Polygon",
        "coordinates": [
          [
            [
              6.57761,
              39.763980000000004
            ],
            [
              8.91761,
              39.763980000000004
            ],
            [
              8.91761,
              42.38398
            ],
            [
              6.57761,
              42.38398
            ],
            [
              6.57761,
              39.763980000000004
            ]
          ]
        ]
      },
      "properties": {
        "equipment_id": "B5-105_E30",
        "model_code": "E30",
        "room_id": "B5-105",
        "building_id": "B5",
        "floor": 1
      }
    },
    {
      "type": "Feature",
      "geometry": {
        "type": "Polygon",
        "coordinates": [
          [
            [
              3.30728,
              35.23398
            ],
            [
              6.95728,
              35.23398
            ],
            [
              6.95728,
              37.363980000000005
            ],
            [
              3.30728,
              37.363980000000005
            ],
            [
              3.30728,
              35.23398
            ]
          ]
        ]
      },
      "properties": {
        "equipment_id": "B5-105_E34",
        "model_code": "E34",
        "room_id": "B5-105",
        "building_id": "B5",
        "floor": 1
      }
    },
    {
      "type": "Feature",
      "geometry": {
        "type": "Polygon",
        "coordinates": [
          [
            [
              3.30728,
              30.99398
            ],
            [
              5.9772799999999995,
              30.99398
            ],
            [
              5.9772799999999995,
              33.03398
            ],
            [
              3.30728,
              33.03398
            ],
            [
              3.30728,
              30.99398
            ]
          ]
        ]
      },
      "properties": {
        "equipment_id": "B5-105_E35",
        "model_code": "E35",
        "room_id": "B5-105",
        "building_id": "B5",
        "floor": 1
      }
    },
    {
      "type": "Feature",
      "geometry": {
        "type": "Polygon",
        "coordinates": [
          [
            [
              18.31729,
              29.863979999999998
            ],
            [
              20.41729,
              29.863979999999998
            ],
            [
              20.41729,
              30.863979999999998
            ],
            [
              18.31729,
              30.863979999999998
            ],
            [
              18.31729,
              29.863979999999998
            ]
          ]
        ]
      },
      "properties": {
        "equipment_id": "B5-105_E27",
        "model_code": "E27",
        "room_id": "B5-105",
        "building_id": "B5",
        "floor": 1
      }
    },
    {
      "type": "Feature",
      "geometry": {
        "type": "Polygon",
        "coordinates": [
          [
            [
              15.18229,
              29.82648
            ],
            [
              17.61729,
              29.82648
            ],
            [
              17.61729,
              31.70148
            ],
            [
              15.18229,
              31.70148
            ],
            [
              15.18229,
              29.82648
            ]
          ]
        ]
      },
      "properties": {
        "equipment_id": "B5-105_E28",
        "model_code": "E28",
        "room_id": "B5-105",
        "building_id": "B5",
        "floor": 1
      }
    },
    {
      "type": "Feature",
      "geometry": {
        "type": "Polygon",
        "coordinates": [
          [
            [
              17.09729,
              33.31398
            ],
            [
              18.97229,
              33.31398
            ],
            [
              18.97229,
              35.74898
            ],
            [
              17.09729,
              35.74898
            ],
            [
              17.09729,
              33.31398
            ]
          ]
        ]
      },
      "properties": {
        "equipment_id": "B5-105_E24",
        "model_code": "E24",
        "room_id": "B5-105",
        "building_id": "B5",
        "floor": 1
      }
    },
    {
      "type": "Feature",
      "geometry": {
        "type": "Polygon",
        "coordinates": [
          [
            [
              15.19729,
              33.31398
            ],
            [
              16.59729,
              33.31398
            ],
            [
              16.59729,
              35.013980000000004
            ],
            [
              15.19729,
              35.013980000000004
            ],
            [
              15.19729,
              33.31398
            ]
          ]
        ]
      },
      "properties": {
        "equipment_id": "B5-105_E25",
        "model_code": "E25",
        "room_id": "B5-105",
        "building_id": "B5",
        "floor": 1
      }
    },
    {
      "type": "Feature",
      "geometry": {
        "type": "Polygon",
        "coordinates": [
          [
            [
              14.88329,
              36.29898
            ],
            [
              19.07729,
              36.29898
            ],
            [
              19.07729,
              37.49898
            ],
            [
              14.88329,
              37.49898
            ],
            [
              14.88329,
              36.29898
            ]
          ]
        ]
      },
      "properties": {
        "equipment_id": "B5-105_E21",
        "model_code": "E21",
        "room_id": "B5-105",
        "building_id": "B5",
        "floor": 1
      }
    },
    {
      "type": "Feature",
      "geometry": {
        "type": "Polygon",
        "coordinates": [
          [
            [
              13.87729,
              39.79898
            ],
            [
              16.07729,
              39.79898
            ],
            [
              16.07729,
              42.35898
            ],
            [
              13.87729,
              42.35898
            ],
            [
              13.87729,
              39.79898
            ]
          ]
        ]
      },
      "properties": {
        "equipment_id": "B5-105_E20",
        "model_code": "E20",
        "room_id": "B5-105",
        "building_id": "B5",
        "floor": 1
      }
    }
  ]
}
