{"type": "FeatureCollection", "features": [{"type": "Feature", "geometry": {"type": "Polygon", "coordinates": [[[-22.5834, 75.4509], [-22.5834, 69.6059], [-21.745, 69.6059], [-21.5834, 69.6059], [-18.1584, 69.6059], [-18.1584, 74.5059], [-18.7684, 74.5059], [-18.7684, 75.3209], [-18.7684, 75.4509], [-22.5834, 75.4509]]]}, "properties": {"room_id": "B1-103", "building_id": "B1", "floor": 1}}, {"type": "Feature", "geometry": {"type": "Polygon", "coordinates": [[[-17.9384, 75.3209], [-17.9384, 74.5134], [-17.9384, 69.6059], [-16.3384, 69.6059], [-16.3384, 72.1559], [-16.3384, 72.4534], [-16.3384, 75.4509], [-16.3734, 75.4509], [-17.3834, 75.4509], [-17.9384, 75.4509], [-17.9384, 75.3209]]]}, "properties": {"room_id": "B1-112", "building_id": "B1", "floor": 1}}, {"type": "Feature", "geometry": {"type": "Polygon", "coordinates": [[[-9.8784, 73.8659], [-9.8784, 73.8559], [-8.8284, 73.8559], [-8.8284, 75.4409], [-16.1084, 75.4409], [-16.1084, 72.5159], [-13.3184, 72.5159], [-13.3184, 73.9759], [-13.1784, 73.9759], [-13.1784, 73.2659], [-10.4884, 73.2659], [-10.4884, 73.8659], [-9.8784, 73.8659]]]}, "properties": {"room_id": "1.WC1", "building_id": "B1", "floor": 1}}, {"type": "Feature", "geometry": {"type": "Polygon", "coordinates": [[[-10.4884, 73.1259], [-13.1784, 73.1259], [-13.1784, 72.2259], [-10.4884, 72.2259], [-10.4884, 73.1259]]]}, "properties": {"room_id": "1.JC", "building_id": "B1", "floor": 1}}, {"type": "Feature", "geometry": {"type": "Polygon", "coordinates": [[[-8.8684, 72.0859], [-8.8684, 72.0959], [-9.8684, 72.0959], [-9.8684, 72.0859], [-10.3484, 72.0859], [-10.3484, 69.9059], [-8.6484, 69.9059], [-8.6484, 72.0859], [-8.8684, 72.0859]]]}, "properties": {"room_id": "1.WC3", "building_id": "B1", "floor": 1}}, {"type": "Feature", "geometry": {"type": "Polygon", "coordinates": [[[-6.3884, 73.8559], [-5.3884, 73.8559], [-5.3884, 73.8659], [-5.2584, 73.8659], [-5.2584, 72.5159], [-1.8184, 72.5159], [-1.8184, 74.4959], [-2.0284, 74.4959], [-2.0284, 75.4409], [-3.5084, 75.4409], [-3.5084, 75.0409], [-3.6484, 75.0409], [-3.6484, 75.4409], [-5.2584, 75.4409], [-5.2584, 75.0409], [-5.3984, 75.0409], [-5.3984, 75.4409], [-6.3884, 75.4409], [-6.3884, 73.8559]]]}, "properties": {"room_id": "1.WC2", "building_id": "B1", "floor": 1}}, {"type": "Feature", "geometry": {"type": "Polygon", "coordinates": [[[-6.4134, 69.5909], [-5.9034, 69.5909], [-4.7084, 69.5909], [-3.5084, 69.5909], [-2.3084, 69.5909], [-1.7934, 69.5909], [-1.7934, 72.0109], [-1.795, 72.0109], [-5.2818, 72.0109], [-5.3734, 72.0109], [-5.39, 72.0109], [-6.4134, 72.0109], [-6.4134, 69.5909]]]}, "properties": {"room_id": "EV-01", "building_id": "B1", "floor": 1}}, {"type": "Feature", "geometry": {"type": "Polygon", "coordinates": [[[-21.4234, 69.2859], [-21.4234, 64.5859], [-10.5084, 64.5859], [-10.5084, 69.2859], [-16.1318, 69.2859], [-16.2359, 69.2859], [-18.0484, 69.2859], [-21.4234, 69.2859], [-21.4234, 64.5859], [-12.6734, 64.5859], [-10.5084, 64.5859], [-10.5084, 69.2859], [-16.1318, 69.2859], [-16.2359, 69.2859], [-18.0484, 69.2859], [-21.4234, 69.2859]], [[-18.8684, 68.7359], [-17.8384, 68.7359], [-17.8384, 67.7059], [-18.8684, 67.7059], [-18.8684, 68.7359], [-17.8384, 68.7359], [-17.8384, 67.7059], [-18.8684, 67.7059], [-18.8684, 68.7359]]]}, "properties": {"room_id": "B1-104", "building_id": "B1", "floor": 1}}, {"type": "Feature", "geometry": {"type": "Polygon", "coordinates": [[[-28.1734, 61.9359], [-27.9884, 61.9359], [-27.9884, 61.1059], [-28.1734, 61.1059], [-28.1734, 55.2359], [-27.9884, 55.2359], [-27.9884, 54.4059], [-28.2904, 54.4059], [-28.2904, 51.7559], [-28.0409, 51.7559], [-28.0034, 51.7559], [-27.9868, 51.7559], [-8.3084, 51.7559], [-8.3084, 54.4059], [-8.8184, 54.4059], [-8.8184, 55.2359], [-8.3084, 55.2359], [-8.3084, 61.1059], [-8.8184, 61.1059], [-8.8184, 61.9359], [-8.3084, 61.9359], [-8.3084, 62.7559], [-10.5084, 62.7559], [-10.5084, 64.2659], [-21.5834, 64.2659], [-28.1734, 64.2659], [-28.1734, 61.9359]], [[-18.8684, 55.3359], [-17.8384, 55.3359], [-17.8384, 54.3059], [-18.8684, 54.3059], [-18.8684, 55.3359]], [[-18.8684, 62.0359], [-17.8384, 62.0359], [-17.8384, 61.0059], [-18.8684, 61.0059], [-18.8684, 62.0359]]]}, "properties": {"room_id": "B1-105", "building_id": "B1", "floor": 1}}, {"type": "Feature", "geometry": {"type": "Polygon", "coordinates": [[[-27.9884, 48.3159], [-27.9884, 47.7134], [-27.9884, 41.8284], [-27.9884, 41.0134], [-27.9884, 35.0284], [-27.9884, 34.4259], [-18.8684, 34.4259], [-18.8684, 35.1359], [-17.8384, 35.1359], [-17.8384, 34.8259], [-14.5559, 34.8259], [-14.4518, 34.8259], [-9.2833, 34.8259], [-9.2833, 34.9834], [-9.2983, 34.9834], [-9.2983, 37.6559], [-8.3084, 37.6559], [-8.3084, 41.0059], [-8.8184, 41.0059], [-8.8184, 41.8359], [-8.3084, 41.8359], [-8.3084, 47.7059], [-8.8184, 47.7059], [-8.8184, 48.3159], [-17.8384, 48.3159], [-17.8384, 47.6059], [-18.8684, 47.6059], [-18.8684, 48.3159], [-27.9884, 48.3159]], [[-18.8684, 41.9359], [-17.8384, 41.9359], [-17.8384, 40.9059], [-18.8684, 40.9059], [-18.8684, 41.9359]]]}, "properties": {"room_id": "B1-106", "building_id": "B1", "floor": 1}}, {"type": "Feature", "geometry": {"type": "Polygon", "coordinates": [[[-6.1034, 63.5859], [-6.1034, 63.4254], [-6.1034, 63.0164], [-6.1034, 62.8499], [9.5966, 62.8499], [9.5966, 63.0164], [9.5966, 63.4254], [9.5966, 63.5859], [9.9066, 63.5859], [9.9066, 63.8759], [9.8916, 63.8759], [9.8916, 66.5543], [9.8916, 66.5559], [9.4915, 66.5559], [9.2891, 66.5559], [7.5966, 66.5559], [2.897, 66.5559], [0.5966, 66.5559], [-1.5884, 66.5559], [-4.1034, 66.5559], [-5.8034, 66.5559], [-6.3984, 66.5559], [-6.3984, 63.8759], [-6.4134, 63.8759], [-6.4134, 63.5859], [-6.1034, 63.5859]]]}, "properties": {"room_id": "ST-01", "building_id": "B1", "floor": 1}}, {"type": "Feature", "geometry": {"type": "Polygon", "coordinates": [[[-0.9808, 74.5059], [-1.5884, 74.5059], [-1.5884, 72.4534], [-1.5884, 72.3993], [-1.5884, 72.2025], [-1.5884, 72.2009], [-1.5884, 72.1059], [-1.5884, 69.4884], [-1.5884, 69.3809], [-1.5884, 67.0859], [0.5966, 67.0859], [2.897, 67.0859], [7.5966, 67.0859], [7.5966, 66.7759], [9.2816, 66.7759], [9.2816, 67.0859], [10.1116, 67.0859], [10.1116, 66.6559], [11.4816, 66.6559], [11.4816, 67.0859], [12.3116, 67.0859], [12.3116, 66.6575], [12.9908, 67.8498], [12.8826, 68.1471], [12.5669, 68.0322], [12.454, 68.3423], [12.6513, 68.4141], [11.9584, 70.3179], [11.9553, 70.3264], [11.7581, 70.2546], [11.6452, 70.5647], [11.9609, 70.6795], [11.2081, 72.7476], [10.2939, 73.2989], [4.6902, 72.3109], [0.4503, 71.5632], [-0.6266, 72.4973], [-0.9808, 74.5059]]]}, "properties": {"room_id": "1.LB1", "building_id": "B1", "floor": 1}}, {"type": "Feature", "geometry": {"type": "Polygon", "coordinates": [[[3.952, 31.5801], [4.0646, 31.6451], [4.0896, 31.6018], [4.1661, 31.4693], [4.7046, 30.5366], [4.9046, 30.1902], [4.792, 30.1252], [5.5087, 28.8839], [5.64, 28.729], [5.6429, 28.7264], [6.7013, 28.5839], [10.1882, 30.597], [10.1867, 30.5997], [10.2294, 30.626], [10.2339, 30.6289], [10.5197, 31.8427], [10.357, 32.1245], [10.2445, 32.0595], [9.6595, 33.0728], [9.772, 33.1378], [9.5633, 33.4993], [9.185, 33.8568], [9.1835, 33.8576], [7.5252, 34.6888], [6.7923, 34.6287], [5.6056, 33.9435], [5.5036, 33.8846], [4.1256, 33.089], [3.7485, 31.9327], [3.952, 31.5801]]]}, "properties": {"room_id": "B1-111", "building_id": "B1", "floor": 1}}, {"type": "Feature", "geometry": {"type": "Polygon", "coordinates": [[[-6.3884, 32.9059], [-5.2884, 32.9059], [-5.2884, 32.9159], [-4.7884, 32.9159], [-4.7884, 31.4459], [1.2666, 31.4459], [1.2666, 34.8059], [-1.1784, 34.8059], [-1.1784, 34.1959], [-2.0284, 34.1959], [-2.0284, 34.8059], [-4.7884, 34.8059], [-4.7884, 34.1959], [-4.9284, 34.1959], [-4.9284, 34.8059], [-6.3884, 34.8059], [-6.3884, 32.9059]]]}, "properties": {"room_id": "1.WC5", "building_id": "B1", "floor": 1}}, {"type": "Feature", "geometry": {"type": "Polygon", "coordinates": [[[-5.2884, 29.4459], [-5.2884, 29.4559], [-6.3884, 29.4559], [-6.3884, 27.5009], [-4.9284, 27.5009], [-4.9284, 28.1009], [-4.7884, 28.1009], [-4.7884, 27.5009], [-2.0284, 27.5009], [-2.0284, 28.4459], [-1.1784, 28.4459], [-1.1784, 27.5009], [1.2666, 27.5009], [1.2666, 30.9159], [-4.7884, 30.9159], [-4.7884, 29.4459], [-5.2884, 29.4459]]]}, "properties": {"room_id": "1.WC4", "building_id": "B1", "floor": 1}}, {"type": "Feature", "geometry": {"type": "Polygon", "coordinates": [[[-8.8184, 28.4359], [-8.6384, 28.4359], [-8.6384, 31.0859], [-8.7334, 31.0859], [-13.7384, 31.0859], [-13.7384, 30.7909], [-13.7384, 28.3184], [-13.7384, 28.3109], [-13.7384, 27.8259], [-13.6954, 27.8259], [-8.9114, 27.8259], [-8.8184, 27.8259], [-8.8184, 28.4359]]]}, "properties": {"room_id": "ST-02", "building_id": "B1", "floor": 1}}, {"type": "Feature", "geometry": {"type": "Polygon", "coordinates": [[[-17.9534, 28.4209], [-17.9534, 27.6209], [-17.9534, 27.4859], [-14.6534, 27.4859], [-14.6534, 31.1959], [-14.6534, 31.9109], [-15.7534, 31.9109], [-17.7534, 31.9109], [-17.9534, 31.9109], [-17.9534, 28.4209]]]}, "properties": {"room_id": "EV-02", "building_id": "B1", "floor": 1}}, {"type": "Feature", "geometry": {"type": "Polygon", "coordinates": [[[-17.8384, 34.1059], [-18.1384, 34.1059], [-18.1384, 32.1259], [-17.7534, 32.1259], [-17.7534, 32.1159], [-15.7534, 32.1159], [-15.7534, 32.1259], [-14.6584, 32.1259], [-14.6584, 34.5059], [-17.8384, 34.5059], [-17.8384, 34.1059]]]}, "properties": {"room_id": "107", "building_id": "B1", "floor": 1}}, {"type": "Feature", "geometry": {"type": "Polygon", "coordinates": [[[-22.8034, 69.3859], [-22.8034, 75.7769], [-22.6934, 75.7769], [-17.3834, 75.7769], [-17.3834, 75.6709], [-16.3734, 75.6709], [-16.3734, 75.7769], [-7.9534, 75.7769], [-7.9534, 75.6709], [-6.9434, 75.6709], [-6.9434, 75.7769], [-1.111, 75.7769], [-1.111, 76.1709], [-29.6534, 76.1709], [-29.6534, 34.2059], [-28.8184, 34.2059], [-28.8184, 35.0359], [-28.3244, 35.0359], [-28.3244, 41.0059], [-28.8184, 41.0059], [-28.8184, 41.8359], [-28.3244, 41.8359], [-28.3244, 47.7059], [-28.8184, 47.7059], [-28.8184, 48.6359], [-28.0034, 48.6359], [-27.9868, 48.6359], [-18.8609, 48.6359], [-17.8459, 48.6359], [-8.82, 48.6359], [-8.8034, 48.6359], [-7.9884, 48.6359], [-7.9884, 47.7134], [-7.9884, 41.8284], [-7.9884, 41.0134], [-7.9884, 37.3359], [-8.9783, 37.3359], [-8.9783, 35.0359], [-8.8034, 35.0359], [-7.9884, 35.0359], [-7.9884, 34.2059], [-8.4184, 34.2059], [-8.4184, 31.3009], [-8.4184, 31.0934], [-8.4184, 28.4359], [-7.9884, 28.4359], [-7.9884, 27.6209], [-7.9884, 27.1649], [-8.0409, 27.1649], [-18.7159, 27.1649], [-18.7684, 27.1649], [-18.7684, 26.7709], [19.7466, 26.7709], [19.7466, 76.1709], [4.6816, 76.1709], [4.6816, 75.3359], [5.5116, 75.3359], [5.5116, 74.5059], [4.6816, 74.5059], [4.6816, 72.4109], [10.2804, 73.3981], [11.3014, 72.7838], [12.0051, 70.8505], [12.1708, 70.3952], [12.0712, 70.3589], [12.7667, 68.4481], [12.7672, 68.4466], [12.8668, 68.4829], [13.0264, 68.0445], [13.0848, 67.884], [12.3116, 66.5559], [11.4891, 66.5559], [10.1116, 66.5559], [10.1116, 63.8759], [10.1116, 63.5784], [10.1116, 62.7499], [9.5966, 62.7499], [-6.1034, 62.7499], [-6.6034, 62.7499], [-6.6034, 62.8559], [-6.6109, 62.8559], [-7.9884, 62.8559], [-7.9884, 61.9284], [-7.9884, 61.1134], [-7.9884, 55.2284], [-7.9884, 54.4134], [-7.9884, 51.4359], [-27.9884, 51.4359], [-27.9884, 51.0359], [-28.8184, 51.0359], [-28.8184, 51.6034], [-28.8184, 54.2604], [-28.8184, 54.4134], [-28.8184, 55.2359], [-28.3244, 55.2359], [-28.3244, 61.1059], [-28.8184, 61.1059], [-28.8184, 61.9359], [-28.3244, 61.9359], [-28.3244, 64.2659], [-28.8184, 64.2659], [-28.8184, 64.5859], [-28.3244, 64.5859], [-28.1734, 64.5859], [-21.7434, 64.5859], [-21.7434, 69.3859], [-22.8034, 69.3859]], [[-28.8184, 68.6359], [-27.9884, 68.6359], [-27.9884, 67.8059], [-28.8184, 67.8059], [-28.8184, 68.6359]], [[-28.8184, 75.3359], [-27.9884, 75.3359], [-27.9884, 74.5059], [-28.8184, 74.5059], [-28.8184, 75.3359]], [[-6.6184, 35.1819], [-6.5084, 35.1819], [1.6026, 35.1819], [1.6026, 27.1649], [-6.5084, 27.1649], [-6.6184, 27.1649], [-6.6184, 29.6759], [-6.2404, 29.6759], [-5.2884, 29.6759], [-5.0184, 29.6759], [-5.0184, 30.9784], [-5.0184, 31.3293], [-5.0184, 31.3834], [-5.0184, 32.6859], [-5.2884, 32.6859], [-6.2404, 32.6859], [-6.6184, 32.6859], [-6.6184, 35.1819]], [[4.6816, 28.4359], [5.5006, 28.4359], [5.5714, 28.6563], [5.4238, 28.831], [4.6554, 30.1618], [4.8546, 30.2768], [4.7046, 30.5366], [4.1146, 31.5585], [3.9154, 31.4435], [3.659, 31.8876], [4.0752, 33.1754], [5.4536, 33.9712], [5.4021, 34.2059], [4.6816, 34.2059], [4.6816, 35.0359], [5.5116, 35.0359], [5.5116, 34.0047], [6.7423, 34.7152], [7.5654, 34.7804], [9.2283, 33.947], [9.2299, 33.9462], [9.6504, 33.549], [9.8839, 33.1446], [9.6845, 33.0295], [10.2195, 32.1028], [10.4181, 32.2175], [10.6193, 31.8692], [10.5332, 31.8195], [10.6693, 31.5836], [10.7183, 31.5937], [10.2914, 30.5413], [10.2339, 30.6289], [10.2294, 30.626], [10.2882, 30.5393], [10.2381, 30.5104], [6.7497, 28.4964], [5.5116, 28.7178], [5.5116, 27.6059], [4.6816, 27.6059], [4.6816, 28.4359]], [[-5.6334, 61.0209], [9.8916, 61.0209], [9.8916, 36.6409], [-5.6334, 36.6409], [-5.6334, 61.0209]]]}, "properties": {"room_id": "1.TR", "building_id": "B1", "floor": 1}}, {"type": "Feature", "geometry": {"type": "Polygon", "coordinates": [[[-6.6184, 67.0859], [-5.8034, 67.0859], [-4.1034, 67.0859], [-1.5884, 67.0859], [-1.5884, 69.3759], [-2.3084, 69.3759], [-2.3084, 69.3859], [-3.5084, 69.3859], [-3.5084, 69.3759], [-4.7084, 69.3759], [-4.7084, 69.3859], [-5.9034, 69.3859], [-5.9034, 69.3759], [-6.6184, 69.3759], [-6.6184, 67.0859]]]}, "properties": {"room_id": "1.LB2", "building_id": "B1", "floor": 1}}, {"type": "Feature", "geometry": {"type": "Polygon", "coordinates": [[[-7.9884, 74.5059], [-8.4184, 74.5059], [-8.4184, 73.7359], [-8.8034, 73.7359], [-8.9764, 73.7359], [-9.8784, 73.7359], [-10.3584, 73.7359], [-10.3584, 72.2159], [-9.8684, 72.2159], [-8.8684, 72.2159], [-8.4184, 72.2159], [-8.4184, 69.7909], [-8.4184, 69.7893], [-8.4184, 69.3859], [-10.1884, 69.3859], [-10.1884, 69.2843], [-10.1884, 64.4259], [-10.1884, 63.0759], [-8.1484, 63.0759], [-7.9868, 63.0759], [-6.6184, 63.0759], [-6.6184, 63.5784], [-6.6184, 63.8759], [-6.6184, 66.5634], [-6.6184, 66.5709], [-6.6184, 67.0784], [-6.6184, 67.2314], [-6.6184, 69.3809], [-6.6184, 69.4884], [-6.6184, 72.0093], [-6.6184, 72.2159], [-6.4118, 72.2159], [-5.3884, 72.2159], [-5.3884, 72.3993], [-5.3884, 72.4534], [-5.3884, 73.7359], [-6.2404, 73.7359], [-6.6184, 73.7359], [-6.6184, 75.4509], [-6.9434, 75.4509], [-7.9534, 75.4509], [-7.9884, 75.4509], [-7.9884, 75.3209], [-7.9884, 74.5059]], [[-8.8184, 67.0859], [-7.9884, 67.0859], [-7.9884, 66.5559], [-8.8184, 66.5559], [-8.8184, 67.0859]]]}, "properties": {"room_id": "1.CR1", "building_id": "B1", "floor": 1}}, {"type": "Feature", "geometry": {"type": "Polygon", "coordinates": [[[-18.3584, 34.1059], [-18.8609, 34.1059], [-27.9868, 34.1059], [-28.0034, 34.1059], [-28.8034, 34.1059], [-28.8109, 34.2059], [-28.9639, 34.2059], [-29.6534, 34.2059], [-29.6534, 26.7709], [-18.7684, 26.7709], [-18.7684, 27.2649], [-18.7684, 27.6209], [-18.7684, 28.4359], [-18.3584, 28.4359], [-18.3584, 32.0634], [-18.3584, 32.1009], [-18.3584, 32.1275], [-18.3584, 34.1059]], [[-28.8184, 28.4359], [-27.9884, 28.4359], [-27.9884, 27.6059], [-28.8184, 27.6059], [-28.8184, 28.4359]]]}, "properties": {"room_id": "108", "building_id": "B1", "floor": 1}}, {"type": "Feature", "geometry": {"type": "Polygon", "coordinates": [[[4.6816, 74.5134], [4.6816, 75.3284], [4.6816, 75.4814], [4.6816, 76.1709], [-1.111, 76.1709], [-1.111, 75.8799], [-1.111, 75.5322], [-1.0617, 75.5409], [-0.8868, 74.5487], [-0.5283, 72.5154], [0.4441, 71.6637], [4.6816, 72.4109], [4.6816, 74.3604], [4.6816, 74.5134]]]}, "properties": {"room_id": "1.P", "building_id": "B1", "floor": 1}}, {"type": "Feature", "geometry": {"type": "Polygon", "coordinates": [[[9.4916, 60.6209], [-5.2334, 60.6209], [-5.2334, 37.0409], [9.4916, 37.0409], [9.4916, 60.6209]]]}, "properties": {"room_id": "1.CY", "building_id": "B1", "floor": 1}}, {"type": "Feature", "geometry": {"type": "Polygon", "coordinates": [[[-17.8384, 55.3359], [-17.8384, 54.3059], [-17.8384, 53.9859], [-10.6384, 53.9859], [-10.6384, 61.0059], [-12.6734, 61.0059], [-17.8384, 61.0059], [-17.8384, 55.3359]]]}, "properties": {"room_id": "B1-105A", "building_id": "B1", "floor": 1}}, {"type": "Feature", "geometry": {"type": "Polygon", "coordinates": [[[-28.1734, 61.9359], [-27.9884, 61.9359], [-27.9884, 61.1059], [-28.1734, 61.1059], [-28.1734, 55.2359], [-27.9884, 55.2359], [-27.9884, 54.4059], [-28.2904, 54.4059], [-28.2904, 51.7559], [-28.0409, 51.7559], [-28.0034, 51.7559], [-27.9868, 51.7559], [-21.8334, 51.7559], [-21.8334, 53.8209], [-21.8334, 61.0059], [-23.7182, 61.0059], [-23.7182, 62.6735], [-28.1734, 62.6735], [-28.1734, 61.9359]]]}, "properties": {"room_id": "B1-105B", "building_id": "B1", "floor": 1}}, {"type": "Feature", "geometry": {"type": "Polygon", "coordinates": [[[-27.9884, 75.3209], [-27.9884, 74.5059], [-28.8034, 74.5059], [-28.9334, 74.5059], [-28.9334, 68.6359], [-28.8034, 68.6359], [-27.9884, 68.6359], [-27.9884, 68.0259], [-18.7684, 68.0259], [-18.7684, 68.6359], [-18.1584, 68.6359], [-18.1584, 69.4959], [-18.1584, 69.5034], [-18.1584, 74.5059], [-18.7684, 74.5059], [-18.7684, 75.3209], [-18.7684, 75.4509], [-27.9884, 75.4509], [-27.9884, 75.3209]]]}, "properties": {"room_id": "B1-232", "building_id": "B1", "floor": 2}}, {"type": "Feature", "geometry": {"type": "Polygon", "coordinates": [[[-15.5484, 67.0859], [-10.2184, 67.0859], [-10.2184, 69.3859], [-10.4184, 69.3859], [-16.1318, 69.3859], [-16.2359, 69.3859], [-17.8234, 69.3859], [-17.8384, 69.3859], [-17.8384, 68.6284], [-17.8384, 68.6209], [-17.8384, 67.8584], [-17.8384, 67.6604], [-17.8384, 65.5059], [-17.8384, 65.4209], [-17.8384, 64.8709], [-17.7354, 64.8709], [-15.5484, 64.8709], [-15.5484, 67.0859]]]}, "properties": {"room_id": "2.CR9", "building_id": "B1", "floor": 2}}, {"type": "Feature", "geometry": {"type": "Polygon", "coordinates": [[[-8.8109, 66.9759], [-8.8109, 67.0859], [-7.9959, 67.0859], [-7.8429, 67.0859], [-6.7639, 67.0859], [-6.6109, 67.0859], [-5.7959, 67.0859], [-5.5559, 67.0859], [-4.1034, 67.0859], [0.5966, 67.0859], [2.8966, 67.0859], [7.5966, 67.0859], [9.2891, 67.0859], [10.1116, 67.0859], [10.1116, 66.5634], [10.1116, 66.2809], [10.1116, 63.5784], [10.1116, 63.0759], [13.1088, 63.0759], [14.4616, 63.0759], [14.4616, 64.8709], [14.4616, 69.3859], [8.4166, 69.3859], [-1.5884, 69.3859], [-1.5884, 69.3759], [-2.3034, 69.3759], [-2.3034, 69.3859], [-3.5034, 69.3859], [-3.5034, 69.3759], [-4.7035, 69.3759], [-4.7035, 69.3859], [-5.9034, 69.3859], [-5.9034, 69.3759], [-6.6184, 69.3759], [-6.6184, 69.3859], [-8.3679, 69.3859], [-8.5209, 69.3859], [-10.2184, 69.3859], [-10.2184, 66.9759], [-8.8109, 66.9759]], [[11.4816, 67.0859], [12.3116, 67.0859], [12.3116, 66.5559], [11.4816, 66.5559], [11.4816, 67.0859]]]}, "properties": {"room_id": "2.CR1", "building_id": "B1", "floor": 2}}, {"type": "Feature", "geometry": {"type": "Polygon", "coordinates": [[[-9.8784, 73.8659], [-9.8784, 73.8559], [-8.8284, 73.8559], [-8.8284, 75.4409], [-16.1084, 75.4409], [-16.1084, 72.5159], [-13.3184, 72.5159], [-13.3184, 73.9759], [-13.1784, 73.9759], [-13.1784, 73.2659], [-10.4884, 73.2659], [-10.4884, 73.8659], [-9.8784, 73.8659]]]}, "properties": {"room_id": "2.WC1", "building_id": "B1", "floor": 2}}, {"type": "Feature", "geometry": {"type": "Polygon", "coordinates": [[[-10.4884, 73.1259], [-13.1784, 73.1259], [-13.1784, 72.2259], [-10.4884, 72.2259], [-10.4884, 73.1259]]]}, "properties": {"room_id": "2.JC1", "building_id": "B1", "floor": 2}}, {"type": "Feature", "geometry": {"type": "Polygon", "coordinates": [[[-8.8684, 72.0859], [-8.8684, 72.0959], [-9.8684, 72.0959], [-9.8684, 72.0859], [-10.3484, 72.0859], [-10.3484, 69.9059], [-8.6484, 69.9059], [-8.6484, 72.0859], [-8.8684, 72.0859]]]}, "properties": {"room_id": "2.WC3", "building_id": "B1", "floor": 2}}, {"type": "Feature", "geometry": {"type": "Polygon", "coordinates": [[[-6.3884, 73.8559], [-5.3884, 73.8559], [-5.3884, 73.8659], [-5.2584, 73.8659], [-5.2584, 72.5159], [-1.8184, 72.5159], [-1.8184, 74.4959], [-2.0284, 74.4959], [-2.0284, 75.4409], [-3.5084, 75.4409], [-3.5084, 75.0409], [-3.6484, 75.0409], [-3.6484, 75.4409], [-5.2584, 75.4409], [-5.2584, 75.0409], [-5.3984, 75.0409], [-5.3984, 75.4409], [-6.3884, 75.4409], [-6.3884, 73.8559]]]}, "properties": {"room_id": "2.WC2", "building_id": "B1", "floor": 2}}, {"type": "Feature", "geometry": {"type": "Polygon", "coordinates": [[[-17.9384, 75.3209], [-17.9384, 74.5134], [-17.9384, 69.6059], [-17.8234, 69.6059], [-16.3384, 69.6059], [-16.3384, 72.1559], [-16.3384, 72.4534], [-16.3384, 75.4509], [-17.9384, 75.4509], [-17.9384, 75.3209]]]}, "properties": {"room_id": "B1-234", "building_id": "B1", "floor": 2}}, {"type": "Feature", "geometry": {"type": "Polygon", "coordinates": [[[-28.8034, 61.9359], [-27.9884, 61.9359], [-27.9884, 61.1059], [-28.8034, 61.1059], [-28.9334, 61.1059], [-28.9334, 55.2359], [-28.8034, 55.2359], [-27.9884, 55.2359], [-27.9884, 54.4059], [-28.8034, 54.4059], [-28.9334, 54.4059], [-28.9334, 51.6009], [-19.4332, 51.6009], [-19.4332, 52.4493], [-19.4332, 52.5525], [-19.4332, 53.9993], [-19.4332, 54.1025], [-19.4332, 58.4643], [-19.4332, 58.5675], [-19.4332, 59.8293], [-19.4332, 59.9325], [-19.4332, 61.9343], [-19.4332, 62.0375], [-19.4332, 63.6843], [-19.4332, 63.7875], [-19.4332, 64.6509], [-20.9568, 64.6509], [-21.08, 64.6509], [-28.9334, 64.6509], [-28.9334, 61.9359], [-28.8034, 61.9359]]]}, "properties": {"room_id": "B1-228", "building_id": "B1", "floor": 2}}, {"type": "Feature", "geometry": {"type": "Polygon", "coordinates": [[[-28.8034, 48.5359], [-27.9884, 48.5359], [-27.9884, 48.2309], [-19.4332, 48.2309], [-19.4332, 49.1993], [-19.4332, 49.3025], [-19.4332, 50.7493], [-19.4332, 50.8525], [-19.4332, 51.3809], [-28.9334, 51.3809], [-28.9334, 48.5359], [-28.8034, 48.5359]]]}, "properties": {"room_id": "B1-226", "building_id": "B1", "floor": 2}}, {"type": "Feature", "geometry": {"type": "Polygon", "coordinates": [[[-27.9884, 47.7059], [-28.8034, 47.7059], [-28.9334, 47.7059], [-28.9334, 41.8359], [-28.8034, 41.8359], [-27.9884, 41.8359], [-27.9884, 41.0059], [-28.8034, 41.0059], [-28.9334, 41.0059], [-28.9334, 35.0359], [-28.8034, 35.0359], [-27.9884, 35.0359], [-27.9884, 34.8309], [-19.4332, 34.8309], [-19.4332, 35.5443], [-19.4332, 35.6475], [-19.4332, 37.2943], [-19.4332, 37.3975], [-19.4332, 41.7343], [-19.4332, 41.8375], [-19.4332, 43.0993], [-19.4332, 43.2025], [-19.4332, 45.4693], [-19.4332, 45.5725], [-19.4332, 47.0193], [-19.4332, 47.1225], [-19.4332, 48.0109], [-27.9884, 48.0109], [-27.9884, 47.7059]]]}, "properties": {"room_id": "B1-224", "building_id": "B1", "floor": 2}}, {"type": "Feature", "geometry": {"type": "Polygon", "coordinates": [[[-27.9884, 34.2059], [-28.8034, 34.2059], [-28.9334, 34.2059], [-28.9334, 28.4359], [-28.8034, 28.4359], [-27.9884, 28.4359], [-27.9884, 27.6209], [-27.9884, 27.4909], [-19.4332, 27.4909], [-19.4332, 32.0143], [-19.4332, 32.1275], [-19.4332, 33.7943], [-19.4332, 33.8975], [-19.4332, 34.6109], [-27.9884, 34.6109], [-27.9884, 34.2059]]]}, "properties": {"room_id": "B1-222", "building_id": "B1", "floor": 2}}, {"type": "Feature", "geometry": {"type": "Polygon", "coordinates": [[[-8.8184, 41.8359], [-8.6384, 41.8359], [-8.6384, 46.8109], [-15.3284, 46.8109], [-15.3284, 37.2959], [-15.3284, 37.1959], [-10.5284, 37.1959], [-8.6384, 37.1959], [-8.6384, 41.0059], [-8.8184, 41.0059], [-8.8184, 41.8359]]]}, "properties": {"room_id": "B1-223", "building_id": "B1", "floor": 2}}, {"type": "Feature", "geometry": {"type": "Polygon", "coordinates": [[[-8.8184, 55.2359], [-8.6384, 55.2359], [-8.6384, 56.6909], [-15.3284, 56.6909], [-15.3284, 47.0309], [-8.6384, 47.0309], [-8.6384, 47.7059], [-8.8184, 47.7059], [-8.8184, 48.5359], [-8.6384, 48.5359], [-8.6384, 54.4059], [-8.8184, 54.4059], [-8.8184, 55.2359]]]}, "properties": {"room_id": "B1-225", "building_id": "B1", "floor": 2}}, {"type": "Feature", "geometry": {"type": "Polygon", "coordinates": [[[-8.8184, 61.9359], [-8.6384, 61.9359], [-8.6384, 62.9609], [-10.2184, 62.9609], [-15.1368, 62.9609], [-15.1534, 62.9609], [-15.3284, 62.9609], [-15.3284, 56.9109], [-8.6384, 56.9109], [-8.6384, 61.1059], [-8.8184, 61.1059], [-8.8184, 61.9359]]]}, "properties": {"room_id": "B1-227", "building_id": "B1", "floor": 2}}, {"type": "Feature", "geometry": {"type": "Polygon", "coordinates": [[[-10.2184, 66.8659], [-15.3284, 66.8659], [-15.3284, 64.8709], [-15.3284, 63.8809], [-15.1384, 63.8809], [-15.1384, 63.1809], [-10.2184, 63.1809], [-10.2184, 66.8659]]]}, "properties": {"room_id": "B1-229", "building_id": "B1", "floor": 2}}, {"type": "Feature", "geometry": {"type": "Polygon", "coordinates": [[[-6.4134, 72.0109], [-6.4134, 69.5909], [-5.9034, 69.5909], [-4.7035, 69.5909], [-3.5034, 69.5909], [-2.3034, 69.5909], [-1.7934, 69.5909], [-1.7934, 72.0109], [-1.795, 72.0109], [-5.2818, 72.0109], [-5.3309, 72.0109], [-5.39, 72.0109], [-6.4134, 72.0109]]]}, "properties": {"room_id": "EV-01", "building_id": "B1", "floor": 2}}, {"type": "Feature", "geometry": {"type": "Polygon", "coordinates": [[[-1.1884, 74.5059], [-1.5884, 74.5059], [-1.5884, 72.4534], [-1.5884, 72.3993], [-1.5884, 72.2025], [-1.5884, 72.2009], [-1.5884, 72.1059], [-1.5884, 69.6059], [8.3066, 69.6059], [8.3066, 75.4509], [5.5116, 75.4509], [5.5116, 75.3209], [5.5116, 74.5059], [4.6816, 74.5059], [4.6816, 75.3209], [4.6816, 75.4509], [-1.1884, 75.4509], [-1.1884, 75.3209], [-1.1884, 74.5059]]]}, "properties": {"room_id": "B1-203", "building_id": "B1", "floor": 2}}, {"type": "Feature", "geometry": {"type": "Polygon", "coordinates": [[[18.0816, 74.5059], [18.0816, 75.3209], [18.0816, 75.4509], [12.3116, 75.4509], [12.3116, 75.3209], [12.3116, 74.5059], [11.4816, 74.5059], [11.4816, 75.3209], [11.4816, 75.4509], [8.5266, 75.4509], [8.5266, 69.6059], [14.5716, 69.6059], [19.0266, 69.6059], [19.0266, 74.5059], [18.8966, 74.5059], [18.0816, 74.5059]]]}, "properties": {"room_id": "B1-204", "building_id": "B1", "floor": 2}}, {"type": "Feature", "geometry": {"type": "Polygon", "coordinates": [[[18.0816, 68.6359], [18.8966, 68.6359], [19.0266, 68.6359], [19.0266, 69.3859], [14.6816, 69.3859], [14.6816, 64.9809], [19.0266, 64.9809], [19.0266, 67.8059], [18.8966, 67.8059], [18.0816, 67.8059], [18.0816, 68.6359]]]}, "properties": {"room_id": "B1-205", "building_id": "B1", "floor": 2}}, {"type": "Feature", "geometry": {"type": "Polygon", "coordinates": [[[18.0816, 61.9359], [18.8966, 61.9359], [19.0266, 61.9359], [19.0266, 64.7609], [14.6816, 64.7609], [14.6816, 62.9659], [14.6816, 61.6309], [18.0816, 61.6309], [18.0816, 61.9359]]]}, "properties": {"room_id": "B1-206", "building_id": "B1", "floor": 2}}, {"type": "Feature", "geometry": {"type": "Polygon", "coordinates": [[[18.0816, 61.1059], [18.0816, 61.4109], [14.6816, 61.4109], [14.6816, 58.2809], [19.0266, 58.2809], [19.0266, 61.1059], [18.8966, 61.1059], [18.0816, 61.1059]]]}, "properties": {"room_id": "B1-207", "building_id": "B1", "floor": 2}}, {"type": "Feature", "geometry": {"type": "Polygon", "coordinates": [[[18.0816, 55.2359], [18.8966, 55.2359], [19.0266, 55.2359], [19.0266, 58.0609], [14.6816, 58.0609], [14.6816, 54.9309], [18.0816, 54.9309], [18.0816, 55.2359]]]}, "properties": {"room_id": "B1-208", "building_id": "B1", "floor": 2}}, {"type": "Feature", "geometry": {"type": "Polygon", "coordinates": [[[18.0816, 54.4059], [18.0816, 54.7109], [14.6816, 54.7109], [14.6816, 51.5809], [19.0266, 51.5809], [19.0266, 54.4059], [18.8966, 54.4059], [18.0816, 54.4059]]]}, "properties": {"room_id": "B1-209", "building_id": "B1", "floor": 2}}, {"type": "Feature", "geometry": {"type": "Polygon", "coordinates": [[[18.0816, 48.5359], [18.8966, 48.5359], [19.0266, 48.5359], [19.0266, 51.3609], [14.6816, 51.3609], [14.6816, 48.2309], [18.0816, 48.2309], [18.0816, 48.5359]]]}, "properties": {"room_id": "B1-210", "building_id": "B1", "floor": 2}}, {"type": "Feature", "geometry": {"type": "Polygon", "coordinates": [[[18.0816, 47.7059], [18.0816, 48.0109], [14.6816, 48.0109], [14.6816, 44.8809], [19.0266, 44.8809], [19.0266, 47.7059], [18.8966, 47.7059], [18.0816, 47.7059]]]}, "properties": {"room_id": "B1-211", "building_id": "B1", "floor": 2}}, {"type": "Feature", "geometry": {"type": "Polygon", "coordinates": [[[18.0816, 41.8359], [18.8966, 41.8359], [19.0266, 41.8359], [19.0266, 44.6609], [14.6816, 44.6609], [14.6816, 41.5309], [18.0816, 41.5309], [18.0816, 41.8359]]]}, "properties": {"room_id": "B1-212", "building_id": "B1", "floor": 2}}, {"type": "Feature", "geometry": {"type": "Polygon", "coordinates": [[[18.0816, 41.0059], [18.0816, 41.3109], [14.6816, 41.3109], [14.6816, 38.1809], [19.0266, 38.1809], [19.0266, 41.0059], [18.8966, 41.0059], [18.0816, 41.0059]]]}, "properties": {"room_id": "B1-213", "building_id": "B1", "floor": 2}}, {"type": "Feature", "geometry": {"type": "Polygon", "coordinates": [[[18.0816, 35.0359], [18.8966, 35.0359], [19.0266, 35.0359], [19.0266, 37.9609], [14.6816, 37.9609], [14.6816, 36.4359], [14.6816, 34.4259], [18.0816, 34.4259], [18.0816, 35.0359]]]}, "properties": {"room_id": "B1-214", "building_id": "B1", "floor": 2}}, {"type": "Feature", "geometry": {"type": "Polygon", "coordinates": [[[12.3116, 41.8284], [12.3116, 41.0134], [12.3116, 40.8604], [12.3116, 36.4359], [14.4616, 36.4359], [14.4616, 38.0709], [14.4616, 41.4209], [14.4616, 44.7709], [14.4616, 48.1209], [14.4616, 51.4709], [14.4616, 54.8209], [14.4616, 58.1709], [14.4616, 61.5209], [14.4616, 62.8559], [13.1088, 62.8559], [13.1088, 61.9359], [12.3116, 61.9359], [12.3116, 61.1134], [12.3116, 60.9604], [12.3116, 55.3814], [12.3116, 55.2284], [12.3116, 54.4134], [12.3116, 54.2604], [12.3116, 48.6814], [12.3116, 48.5284], [12.3116, 47.7134], [12.3116, 47.5604], [12.3116, 41.9814], [12.3116, 41.8284]]]}, "properties": {"room_id": "2.CR2", "building_id": "B1", "floor": 2}}, {"type": "Feature", "geometry": {"type": "Polygon", "coordinates": [[[-6.3884, 32.9059], [-5.2884, 32.9059], [-5.2884, 32.9159], [-4.7884, 32.9159], [-4.7884, 31.4459], [1.2666, 31.4459], [1.2666, 34.1959], [-2.0284, 34.1959], [-2.0284, 34.8059], [-4.7884, 34.8059], [-4.7884, 34.1959], [-4.9284, 34.1959], [-4.9284, 34.8059], [-6.3884, 34.8059], [-6.3884, 32.9059]]]}, "properties": {"room_id": "2.WC5", "building_id": "B1", "floor": 2}}, {"type": "Feature", "geometry": {"type": "Polygon", "coordinates": [[[-5.2884, 29.4459], [-5.2884, 29.4559], [-6.3884, 29.4559], [-6.3884, 27.5009], [-4.9284, 27.5009], [-4.9284, 28.1009], [-4.7884, 28.1009], [-4.7884, 27.5009], [-2.0284, 27.5009], [-2.0284, 28.4459], [-1.1784, 28.4459], [-1.1784, 27.5009], [1.2666, 27.5009], [1.2666, 30.9159], [-4.7884, 30.9159], [-4.7884, 29.4459], [-5.2884, 29.4459]]]}, "properties": {"room_id": "2.WC4", "building_id": "B1", "floor": 2}}, {"type": "Feature", "geometry": {"type": "Polygon", "coordinates": [[[-8.8184, 28.4359], [-8.6384, 28.4359], [-8.6384, 31.0859], [-8.7334, 31.0859], [-13.7384, 31.0859], [-13.7384, 30.7909], [-13.7384, 28.3109], [-13.7384, 27.8259], [-13.7309, 27.8259], [-10.3809, 27.8259], [-8.9114, 27.8259], [-8.8184, 27.8259], [-8.8184, 28.4359]]]}, "properties": {"room_id": "ST-02", "building_id": "B1", "floor": 2}}, {"type": "Feature", "geometry": {"type": "Polygon", "coordinates": [[[-17.9534, 28.4209], [-17.9534, 27.6209], [-17.9534, 27.4859], [-14.6534, 27.4859], [-14.6534, 31.1959], [-14.6534, 31.9109], [-15.7534, 31.9109], [-17.7534, 31.9109], [-17.9534, 31.9109], [-17.9534, 28.4209]]]}, "properties": {"room_id": "EV-02", "building_id": "B1", "floor": 2}}, {"type": "Feature", "geometry": {"type": "Polygon", "coordinates": [[[4.6816, 28.4359], [5.5116, 28.4359], [5.5116, 27.6209], [5.5116, 27.4909], [11.4816, 27.4909], [11.4816, 27.6209], [11.4816, 28.4359], [12.3116, 28.4359], [12.3116, 27.6209], [12.3116, 27.4909], [18.0816, 27.4909], [18.0816, 27.6209], [18.0816, 28.4359], [18.8966, 28.4359], [19.0266, 28.4359], [19.0266, 34.0459], [18.8966, 34.0459], [18.0816, 34.0459], [14.5716, 34.0459], [12.2966, 34.0459], [11.4966, 34.0459], [5.4966, 34.0459], [4.6966, 34.0459], [1.4966, 34.0459], [1.4966, 31.3164], [1.4966, 31.2304], [1.4966, 30.9784], [1.4966, 27.4909], [4.6816, 27.4909], [4.6816, 27.6209], [4.6816, 28.4359]]]}, "properties": {"room_id": "B1-219", "building_id": "B1", "floor": 2}}, {"type": "Feature", "geometry": {"type": "Polygon", "coordinates": [[[-6.3984, 63.5859], [-6.0884, 63.5859], [-6.0884, 62.8559], [9.5816, 62.8559], [9.5816, 63.5859], [9.8916, 63.5859], [9.8916, 66.2809], [9.9066, 66.2809], [9.9066, 66.5559], [9.2966, 66.5559], [9.2891, 66.5559], [7.5966, 66.5559], [2.8966, 66.5559], [0.5966, 66.5559], [-4.1034, 66.5559], [-4.1034, 66.8659], [-5.5034, 66.8659], [-5.5034, 66.5559], [-5.7959, 66.5559], [-6.4134, 66.5559], [-6.4134, 66.2809], [-6.3984, 66.2809], [-6.3984, 63.5859]]]}, "properties": {"room_id": "ST-01", "building_id": "B1", "floor": 2}}, {"type": "Feature", "geometry": {"type": "Polygon", "coordinates": [[[-17.8384, 45.5709], [-17.8384, 43.1509], [-17.8384, 41.9814], [-17.8384, 41.4209], [-17.8384, 40.8604], [-17.8384, 37.2959], [-15.5484, 37.2959], [-15.5484, 46.9209], [-15.5484, 56.8009], [-15.5484, 63.0634], [-15.5484, 63.8284], [-15.5484, 64.8709], [-17.8384, 64.8709], [-17.8384, 63.6859], [-19.2132, 63.6859], [-19.2132, 62.0359], [-18.9139, 62.0359], [-17.8384, 62.0359], [-17.8384, 60.9604], [-17.8384, 59.8809], [-17.8384, 58.5159], [-17.8384, 55.3814], [-17.8384, 54.8209], [-17.8384, 54.2604], [-17.8384, 54.0009], [-19.2132, 54.0009], [-19.2132, 52.5509], [-17.8384, 52.5509], [-17.8384, 50.7509], [-19.2132, 50.7509], [-19.2132, 49.3009], [-17.8384, 49.3009], [-17.8384, 48.6814], [-17.8384, 48.1209], [-17.8384, 47.5604], [-17.8384, 47.0209], [-19.2132, 47.0209], [-19.2132, 45.5709], [-17.8384, 45.5709]]]}, "properties": {"room_id": "2.CR8", "building_id": "B1", "floor": 2}}, {"type": "Feature", "geometry": {"type": "Polygon", "coordinates": [[[-17.8384, 33.7959], [-19.2132, 33.7959], [-19.2132, 32.1259], [-17.7534, 32.1259], [-17.7534, 32.1159], [-15.7534, 32.1159], [-15.7534, 32.1259], [-14.6584, 32.1259], [-14.6584, 34.7259], [-10.6384, 34.7259], [-10.6384, 36.9759], [-15.5484, 36.9759], [-15.5484, 37.2959], [-17.7354, 37.2959], [-17.8884, 37.2959], [-19.2132, 37.2959], [-19.2132, 35.6459], [-17.8384, 35.6459], [-17.8384, 35.1814], [-17.8384, 34.0604], [-17.8384, 33.7959]]]}, "properties": {"room_id": "2.CR7", "building_id": "B1", "floor": 2}}, {"type": "Feature", "geometry": {"type": "Polygon", "coordinates": [[[-7.9884, 74.5059], [-8.4184, 74.5059], [-8.4184, 73.7359], [-8.8034, 73.7359], [-8.9764, 73.7359], [-9.8784, 73.7359], [-10.3584, 73.7359], [-10.3584, 72.2159], [-9.8684, 72.2159], [-8.8684, 72.2159], [-8.4184, 72.2159], [-8.4184, 69.7909], [-8.4184, 69.7893], [-8.4184, 69.3859], [-6.7562, 69.3859], [-6.6184, 69.3859], [-6.6184, 72.2159], [-5.3884, 72.2159], [-5.3884, 72.3993], [-5.3884, 72.4534], [-5.3884, 73.7359], [-6.2404, 73.7359], [-6.6184, 73.7359], [-6.6184, 75.4509], [-7.9884, 75.4509], [-7.9884, 75.3209], [-7.9884, 74.5059]]]}, "properties": {"room_id": "2.CR6", "building_id": "B1", "floor": 2}}, {"type": "Feature", "geometry": {"type": "Polygon", "coordinates": [[[-8.4184, 61.9359], [-7.9884, 61.9359], [-7.9884, 61.1059], [-8.4184, 61.1059], [-8.4184, 56.8009], [-8.4184, 55.2359], [-7.9884, 55.2359], [-7.9884, 54.4059], [-8.4184, 54.4059], [-8.4184, 48.5359], [-7.9884, 48.5359], [-7.9884, 47.7059], [-8.4184, 47.7059], [-8.4184, 46.9209], [-8.4184, 41.8359], [-7.9959, 41.8359], [-6.6184, 41.8359], [-6.6184, 62.8634], [-6.6184, 63.5784], [-6.6184, 66.2809], [-6.6184, 66.5543], [-6.6184, 66.5559], [-6.6184, 67.0859], [-7.9884, 67.0859], [-7.9884, 66.5559], [-8.8184, 66.5559], [-8.8184, 66.9759], [-10.2184, 66.9759], [-10.2184, 63.1809], [-8.4184, 63.1809], [-8.4184, 61.9359]]]}, "properties": {"room_id": "2.CR5", "building_id": "B1", "floor": 2}}, {"type": "Feature", "geometry": {"type": "Polygon", "coordinates": [[[-7.9884, 34.2059], [-8.4184, 34.2059], [-8.4184, 31.3009], [-8.4184, 31.0934], [-8.4184, 28.4359], [-7.9884, 28.4359], [-7.9884, 27.6209], [-7.9884, 27.4909], [-6.6184, 27.4909], [-6.6184, 29.6759], [-6.2404, 29.6759], [-5.2884, 29.6759], [-5.0184, 29.6759], [-5.0184, 30.9784], [-5.0184, 31.3293], [-5.0184, 31.3834], [-5.0184, 32.6859], [-5.2884, 32.6859], [-6.2404, 32.6859], [-6.6184, 32.6859], [-6.6184, 35.0359], [-7.9884, 35.0359], [-7.9884, 34.2059]]]}, "properties": {"room_id": "2.CR4", "building_id": "B1", "floor": 2}}, {"type": "Feature", "geometry": {"type": "Polygon", "coordinates": [[[4.6966, 34.4259], [4.6966, 34.4109], [4.6816, 34.4109], [4.6816, 35.0359], [5.5116, 35.0359], [5.5116, 34.4109], [5.4966, 34.4109], [5.4966, 34.4259], [11.4966, 34.4259], [11.4966, 34.4109], [11.4816, 34.4109], [11.4816, 35.0359], [12.3116, 35.0359], [12.3116, 34.4109], [12.2966, 34.4109], [12.2966, 34.4259], [14.4616, 34.4259], [14.4616, 36.4359], [12.4493, 36.4359], [10.0016, 36.4359], [10.0016, 36.4209], [-6.6184, 36.4209], [-6.6184, 41.6159], [-7.9884, 41.6159], [-7.9884, 41.0059], [-8.4184, 41.0059], [-8.4184, 36.9759], [-10.4184, 36.9759], [-10.4184, 34.7259], [-8.8184, 34.7259], [-8.8184, 35.0359], [-7.9959, 35.0359], [-7.8429, 35.0359], [-6.6614, 35.0359], [-6.5084, 35.0359], [-2.0109, 35.0359], [-1.1884, 35.0359], [-1.1884, 34.4259], [1.3866, 34.4259], [4.6966, 34.4259]]]}, "properties": {"room_id": "2.CR3", "building_id": "B1", "floor": 2}}, {"type": "Feature", "geometry": {"type": "Polygon", "coordinates": [[[11.4891, 61.9359], [12.3041, 61.9359], [12.4571, 61.9359], [13.1088, 61.9359], [13.1088, 62.8559], [10.1116, 62.8559], [10.1116, 61.9359], [11.3361, 61.9359], [11.4891, 61.9359]]]}, "properties": {"room_id": "B1-233", "building_id": "B1", "floor": 2}}, {"type": "Feature", "geometry": {"type": "Polygon", "coordinates": [[[11.4816, 48.5359], [12.3116, 48.5359], [12.3116, 54.4059], [11.4816, 54.4059], [11.4816, 54.8209], [10.1116, 54.8209], [10.1116, 48.1209], [11.4816, 48.1209], [11.4816, 48.5359]]]}, "properties": {"room_id": "B1-216", "building_id": "B1", "floor": 2}}, {"type": "Feature", "geometry": {"type": "Polygon", "coordinates": [[[11.4816, 55.2359], [12.3116, 55.2359], [12.3116, 61.1059], [11.4816, 61.1059], [11.4816, 61.9359], [10.1116, 61.9359], [10.1116, 54.8209], [11.4816, 54.8209], [11.4816, 55.2359]]]}, "properties": {"room_id": "B1-215", "building_id": "B1", "floor": 2}}, {"type": "Feature", "geometry": {"type": "Polygon", "coordinates": [[[11.4816, 41.8359], [12.3116, 41.8359], [12.3116, 47.7059], [11.4816, 47.7059], [11.4816, 48.1209], [10.1116, 48.1209], [10.1116, 41.4209], [11.4816, 41.4209], [11.4816, 41.8359]]]}, "properties": {"room_id": "B1-217", "building_id": "B1", "floor": 2}}, {"type": "Feature", "geometry": {"type": "Polygon", "coordinates": [[[11.4816, 41.0059], [11.4816, 41.4209], [10.1116, 41.4209], [10.1116, 36.5559], [12.3116, 36.5559], [12.3116, 36.5737], [12.3116, 41.0059], [11.4816, 41.0059]]]}, "properties": {"room_id": "B1-218", "building_id": "B1", "floor": 2}}, {"type": "Feature", "geometry": {"type": "Polygon", "coordinates": [[[-27.9959, 67.8059], [-28.8034, 67.8059], [-28.9334, 67.8059], [-28.9334, 64.8709], [-21.0784, 64.8709], [-21.0784, 65.4209], [-20.9584, 65.4209], [-20.9584, 64.8709], [-19.3232, 64.8709], [-19.2132, 64.8709], [-19.1702, 64.8709], [-17.9584, 64.8709], [-17.9584, 65.4209], [-17.8384, 65.5059], [-17.8384, 67.8059], [-18.7609, 67.8059], [-27.9959, 67.8059]]]}, "properties": {"room_id": "B1-230", "building_id": "B1", "floor": 2}}, {"type": "Feature", "geometry": {"type": "Polygon", "coordinates": [[[-27.9884, 75.3209], [-27.9884, 74.5059], [-28.8034, 74.5059], [-28.9334, 74.5059], [-28.9334, 68.6359], [-28.8034, 68.6359], [-27.9884, 68.6359], [-27.9884, 68.0259], [-18.7684, 68.0259], [-18.7684, 68.6359], [-18.1584, 68.6359], [-18.1584, 69.4009], [-18.1584, 69.5034], [-18.1584, 74.5059], [-18.7684, 74.5059], [-18.7684, 75.3209], [-18.7684, 75.4509], [-27.9884, 75.4509], [-27.9884, 75.3209]]]}, "properties": {"room_id": "B1-323", "building_id": "B1", "floor": 3}}, {"type": "Feature", "geometry": {"type": "Polygon", "coordinates": [[[-28.8034, 61.9359], [-27.9884, 61.9359], [-27.9884, 61.1059], [-28.8034, 61.1059], [-28.9334, 61.1059], [-28.9334, 55.2359], [-28.8034, 55.2359], [-27.9884, 55.2359], [-27.9884, 54.4059], [-28.8034, 54.4059], [-28.9334, 54.4059], [-28.9334, 51.6009], [-19.4332, 51.6009], [-19.4332, 52.4493], [-19.4332, 52.5525], [-19.4332, 53.9993], [-19.4332, 54.1025], [-19.4332, 57.3309], [-19.2132, 57.3309], [-19.2132, 54.1009], [-17.9384, 54.1009], [-17.9384, 54.4059], [-18.7684, 54.4059], [-18.7684, 55.2359], [-17.9384, 55.2359], [-17.9384, 58.4659], [-19.2132, 58.4659], [-19.2132, 58.5659], [-17.9584, 58.5659], [-17.9584, 59.8309], [-19.2132, 59.8309], [-19.2132, 58.9609], [-19.4332, 58.9609], [-19.4332, 59.8293], [-19.4332, 59.9325], [-19.4332, 61.9343], [-19.4332, 62.0375], [-19.4332, 63.7343], [-19.4332, 63.8375], [-19.4332, 64.6509], [-20.9568, 64.6509], [-21.08, 64.6509], [-28.9334, 64.6509], [-28.9334, 61.9359], [-28.8034, 61.9359]]]}, "properties": {"room_id": "B1-318", "building_id": "B1", "floor": 3}}, {"type": "Feature", "geometry": {"type": "Polygon", "coordinates": [[[-28.8034, 48.5359], [-27.9884, 48.5359], [-27.9884, 48.2309], [-19.4332, 48.2309], [-19.4332, 49.1993], [-19.4332, 49.3025], [-19.4332, 50.7493], [-19.4332, 50.8525], [-19.4332, 51.3809], [-28.9334, 51.3809], [-28.9334, 48.5359], [-28.8034, 48.5359]]]}, "properties": {"room_id": "B1-316", "building_id": "B1", "floor": 3}}, {"type": "Feature", "geometry": {"type": "Polygon", "coordinates": [[[-27.9884, 47.7059], [-28.8034, 47.7059], [-28.9334, 47.7059], [-28.9334, 41.8359], [-28.8034, 41.8359], [-27.9884, 41.8359], [-27.9884, 41.0059], [-28.8034, 41.0059], [-28.9334, 41.0059], [-28.9334, 35.0359], [-28.8034, 35.0359], [-27.9884, 35.0359], [-27.9884, 34.8309], [-19.4332, 34.8309], [-19.4332, 35.4943], [-19.4332, 35.5975], [-19.4332, 37.2943], [-19.4332, 37.3975], [-19.4332, 40.5959], [-19.2132, 40.5959], [-19.2132, 37.3959], [-17.9384, 37.3959], [-17.9384, 37.4337], [-17.9384, 41.0059], [-18.7684, 41.0059], [-18.7684, 41.8359], [-17.9384, 41.8359], [-17.9384, 45.4709], [-19.2132, 45.4709], [-19.2132, 42.2459], [-19.4332, 42.2459], [-19.4332, 45.4693], [-19.4332, 45.5725], [-19.4332, 47.0193], [-19.4332, 47.1225], [-19.4332, 48.0109], [-27.9884, 48.0109], [-27.9884, 47.7059]]]}, "properties": {"room_id": "B1-314", "building_id": "B1", "floor": 3}}, {"type": "Feature", "geometry": {"type": "Polygon", "coordinates": [[[-27.9884, 34.2059], [-28.8034, 34.2059], [-28.9334, 34.2059], [-28.9334, 28.4359], [-28.8034, 28.4359], [-27.9884, 28.4359], [-27.9884, 27.6209], [-27.9884, 27.4909], [-19.4332, 27.4909], [-19.4332, 32.0143], [-19.4332, 32.1275], [-19.4332, 33.8143], [-19.4332, 33.9175], [-19.4332, 34.6109], [-27.9884, 34.6109], [-27.9884, 34.2059]]]}, "properties": {"room_id": "B1-312", "building_id": "B1", "floor": 3}}, {"type": "Feature", "geometry": {"type": "Polygon", "coordinates": [[[-27.9959, 67.8059], [-28.8034, 67.8059], [-28.9334, 67.8059], [-28.9334, 64.8709], [-21.0784, 64.8709], [-21.0784, 65.4209], [-20.9584, 65.4209], [-20.9584, 64.8709], [-19.3232, 64.8709], [-19.2132, 64.8709], [-19.1702, 64.8709], [-17.9584, 64.8709], [-17.9584, 65.4209], [-17.8384, 65.5059], [-17.8384, 67.8059], [-18.7609, 67.8059], [-27.9959, 67.8059]]]}, "properties": {"room_id": "322", "building_id": "B1", "floor": 3}}, {"type": "Feature", "geometry": {"type": "Polygon", "coordinates": [[[-9.8784, 73.8659], [-9.8784, 73.8559], [-8.8284, 73.8559], [-8.8284, 75.4409], [-16.1084, 75.4409], [-16.1084, 72.5159], [-13.3184, 72.5159], [-13.3184, 73.9759], [-13.1784, 73.9759], [-13.1784, 73.2659], [-10.4884, 73.2659], [-10.4884, 73.8659], [-9.8784, 73.8659]]]}, "properties": {"room_id": "3.WC1", "building_id": "B1", "floor": 3}}, {"type": "Feature", "geometry": {"type": "Polygon", "coordinates": [[[-17.9384, 75.3209], [-17.9384, 74.5134], [-17.9384, 69.6059], [-17.8384, 69.6059], [-17.8368, 69.6059], [-16.3384, 69.6059], [-16.3384, 72.1559], [-16.3384, 72.4534], [-16.3384, 75.4509], [-17.9384, 75.4509], [-17.9384, 75.3209]]]}, "properties": {"room_id": "B1-320", "building_id": "B1", "floor": 3}}, {"type": "Feature", "geometry": {"type": "Polygon", "coordinates": [[[-6.3884, 73.8559], [-5.3884, 73.8559], [-5.3884, 73.8659], [-5.2584, 73.8659], [-5.2584, 72.5159], [-1.8184, 72.5159], [-1.8184, 74.4959], [-2.0284, 74.4959], [-2.0284, 75.4409], [-3.5084, 75.4409], [-3.5084, 75.0409], [-3.6484, 75.0409], [-3.6484, 75.4409], [-5.2584, 75.4409], [-5.2584, 75.0409], [-5.3984, 75.0409], [-5.3984, 75.4409], [-6.3884, 75.4409], [-6.3884, 73.8559]]]}, "properties": {"room_id": "3.WC2", "building_id": "B1", "floor": 3}}, {"type": "Feature", "geometry": {"type": "Polygon", "coordinates": [[[-1.1884, 74.5059], [-1.5884, 74.5059], [-1.5884, 72.4534], [-1.5884, 72.3993], [-1.5884, 72.2025], [-1.5884, 72.2009], [-1.5884, 72.1059], [-1.5884, 69.6059], [8.3066, 69.6059], [8.3066, 75.4509], [5.5116, 75.4509], [5.5116, 75.3209], [5.5116, 74.5059], [4.6816, 74.5059], [4.6816, 75.3209], [4.6816, 75.4509], [-1.1884, 75.4509], [-1.1884, 75.3209], [-1.1884, 74.5059]]]}, "properties": {"room_id": "B1-303", "building_id": "B1", "floor": 3}}, {"type": "Feature", "geometry": {"type": "Polygon", "coordinates": [[[18.0816, 74.5059], [18.0816, 75.3209], [18.0816, 75.4509], [12.3116, 75.4509], [12.3116, 75.3209], [12.3116, 74.5059], [11.4816, 74.5059], [11.4816, 75.3209], [11.4816, 75.4509], [8.5266, 75.4509], [8.5266, 69.6059], [14.5716, 69.6059], [19.0266, 69.6059], [19.0266, 74.5059], [18.8966, 74.5059], [18.0816, 74.5059]]]}, "properties": {"room_id": "B1-304", "building_id": "B1", "floor": 3}}, {"type": "Feature", "geometry": {"type": "Polygon", "coordinates": [[[18.0816, 55.2359], [18.8966, 55.2359], [19.0266, 55.2359], [19.0266, 61.1059], [18.8966, 61.1059], [18.0816, 61.1059], [18.0816, 61.9359], [18.8966, 61.9359], [19.0266, 61.9359], [19.0266, 67.8059], [18.8966, 67.8059], [18.0816, 67.8059], [18.0816, 68.6359], [18.8966, 68.6359], [19.0266, 68.6359], [19.0266, 69.3859], [14.6816, 69.3859], [14.6816, 62.9659], [14.6816, 54.9309], [15.4716, 54.9309], [18.0816, 54.9309], [18.0816, 55.2359]]]}, "properties": {"room_id": "B1-305", "building_id": "B1", "floor": 3}}, {"type": "Feature", "geometry": {"type": "Polygon", "coordinates": [[[18.0816, 41.8359], [18.8966, 41.8359], [19.0266, 41.8359], [19.0266, 47.7059], [18.8966, 47.7059], [18.0816, 47.7059], [18.0816, 48.5359], [18.8966, 48.5359], [19.0266, 48.5359], [19.0266, 54.4059], [18.8966, 54.4059], [18.0816, 54.4059], [18.0816, 54.7109], [15.5816, 54.7109], [15.5816, 52.4909], [14.6816, 52.4909], [14.6816, 43.7509], [15.5816, 43.7509], [15.5816, 41.5309], [18.0816, 41.5309], [18.0816, 41.8359]]]}, "properties": {"room_id": "B1-306", "building_id": "B1", "floor": 3}}, {"type": "Feature", "geometry": {"type": "Polygon", "coordinates": [[[18.0816, 41.0059], [18.0816, 41.3109], [15.4716, 41.3109], [14.6816, 41.3109], [14.6816, 36.6559], [19.0266, 36.6559], [19.0266, 41.0059], [18.8966, 41.0059], [18.0816, 41.0059]]]}, "properties": {"room_id": "B1-308", "building_id": "B1", "floor": 3}}, {"type": "Feature", "geometry": {"type": "Polygon", "coordinates": [[[18.0816, 28.4359], [18.8966, 28.4359], [19.0266, 28.4359], [19.0266, 34.2059], [18.8966, 34.2059], [18.0816, 34.2059], [18.0816, 35.0359], [18.8966, 35.0359], [19.0266, 35.0359], [19.0266, 36.4359], [14.6816, 36.4359], [14.6816, 34.4275], [14.6816, 34.2359], [14.6816, 27.4909], [18.0816, 27.4909], [18.0816, 27.6209], [18.0816, 28.4359]]]}, "properties": {"room_id": "B1-310", "building_id": "B1", "floor": 3}}, {"type": "Feature", "geometry": {"type": "Polygon", "coordinates": [[[4.6816, 28.4359], [5.5116, 28.4359], [5.5116, 27.6209], [5.5116, 27.4909], [11.4816, 27.4909], [11.4816, 27.6209], [11.4816, 28.4359], [12.3116, 28.4359], [12.3116, 27.6209], [12.3116, 27.4909], [14.3016, 27.4909], [14.3016, 34.0459], [12.3041, 34.0459], [12.2966, 34.0459], [11.4966, 34.0459], [5.5041, 34.0459], [4.6891, 34.0459], [1.4966, 34.0459], [1.4966, 31.3539], [1.4966, 31.3293], [1.4966, 30.9784], [1.4966, 27.4909], [4.6816, 27.4909], [4.6816, 27.6209], [4.6816, 28.4359]]]}, "properties": {"room_id": "B1-309", "building_id": "B1", "floor": 3}}, {"type": "Feature", "geometry": {"type": "Polygon", "coordinates": [[[-6.3884, 32.9059], [-5.2884, 32.9059], [-5.2884, 32.9159], [-4.7884, 32.9159], [-4.7884, 31.4459], [1.2666, 31.4459], [1.2666, 34.1959], [-2.0284, 34.1959], [-2.0284, 34.8059], [-4.7884, 34.8059], [-4.7884, 34.1959], [-4.9284, 34.1959], [-4.9284, 34.8059], [-6.3884, 34.8059], [-6.3884, 32.9059]]]}, "properties": {"room_id": "3.WC5", "building_id": "B1", "floor": 3}}, {"type": "Feature", "geometry": {"type": "Polygon", "coordinates": [[[-5.2884, 29.4459], [-5.2884, 29.4559], [-6.3884, 29.4559], [-6.3884, 27.5009], [-4.9284, 27.5009], [-4.9284, 28.1009], [-4.7884, 28.1009], [-4.7884, 27.5009], [-2.0284, 27.5009], [-2.0284, 28.4459], [-1.1784, 28.4459], [-1.1784, 27.5009], [1.2666, 27.5009], [1.2666, 30.9159], [-4.7884, 30.9159], [-4.7884, 29.4459], [-5.2884, 29.4459]]]}, "properties": {"room_id": "3.WC4", "building_id": "B1", "floor": 3}}, {"type": "Feature", "geometry": {"type": "Polygon", "coordinates": [[[-8.8184, 28.4359], [-8.6384, 28.4359], [-8.6384, 31.0859], [-8.7334, 31.0859], [-13.7384, 31.0859], [-13.7384, 30.7909], [-13.7384, 28.3109], [-13.7384, 27.8259], [-8.9114, 27.8259], [-8.8184, 27.8259], [-8.8184, 28.4359]]]}, "properties": {"room_id": "ST-02", "building_id": "B1", "floor": 3}}, {"type": "Feature", "geometry": {"type": "Polygon", "coordinates": [[[-17.9534, 28.4209], [-17.9534, 27.6209], [-17.9534, 27.4859], [-14.6534, 27.4859], [-14.6534, 31.1959], [-14.6534, 31.9109], [-15.7534, 31.9109], [-17.7534, 31.9109], [-17.9534, 31.9109], [-17.9534, 28.4209]]]}, "properties": {"room_id": "EV-02", "building_id": "B1", "floor": 3}}, {"type": "Feature", "geometry": {"type": "Polygon", "coordinates": [[[-6.4134, 72.0109], [-6.4134, 69.5909], [-5.9034, 69.5909], [-4.7034, 69.5909], [-3.5034, 69.5909], [-2.3034, 69.5909], [-1.7934, 69.5909], [-1.7934, 72.0109], [-1.795, 72.0109], [-5.2818, 72.0109], [-5.3309, 72.0109], [-5.39, 72.0109], [-6.4134, 72.0109]]]}, "properties": {"room_id": "EV-01", "building_id": "B1", "floor": 3}}, {"type": "Feature", "geometry": {"type": "Polygon", "coordinates": [[[-10.4884, 73.1259], [-13.1784, 73.1259], [-13.1784, 72.2259], [-10.4884, 72.2259], [-10.4884, 73.1259]]]}, "properties": {"room_id": "3.JC1", "building_id": "B1", "floor": 3}}, {"type": "Feature", "geometry": {"type": "Polygon", "coordinates": [[[-8.8684, 72.0859], [-8.8684, 72.0959], [-9.8684, 72.0959], [-9.8684, 72.0859], [-10.3484, 72.0859], [-10.3484, 69.9059], [-8.6484, 69.9059], [-8.6484, 72.0859], [-8.8684, 72.0859]]]}, "properties": {"room_id": "3.WC3", "building_id": "B1", "floor": 3}}, {"type": "Feature", "geometry": {"type": "Polygon", "coordinates": [[[-10.2184, 66.8659], [-10.4084, 66.8659], [-15.3284, 66.8659], [-15.3284, 64.8709], [-15.3284, 63.8809], [-15.1384, 63.8809], [-15.1384, 63.1809], [-10.2184, 63.1809], [-10.2184, 66.8659]]]}, "properties": {"room_id": "B1-319", "building_id": "B1", "floor": 3}}, {"type": "Feature", "geometry": {"type": "Polygon", "coordinates": [[[-8.8184, 61.9359], [-8.6384, 61.9359], [-8.6384, 62.9609], [-10.2184, 62.9609], [-15.1368, 62.9609], [-15.1534, 62.9609], [-15.3284, 62.9609], [-15.3284, 56.9109], [-8.6384, 56.9109], [-8.6384, 61.1059], [-8.8184, 61.1059], [-8.8184, 61.9359]]]}, "properties": {"room_id": "B1-317", "building_id": "B1", "floor": 3}}, {"type": "Feature", "geometry": {"type": "Polygon", "coordinates": [[[-8.8184, 55.2359], [-8.6384, 55.2359], [-8.6384, 56.6909], [-15.3284, 56.6909], [-15.3284, 47.0309], [-8.6384, 47.0309], [-8.6384, 47.7059], [-8.8184, 47.7059], [-8.8184, 48.5359], [-8.6384, 48.5359], [-8.6384, 54.4059], [-8.8184, 54.4059], [-8.8184, 55.2359]]]}, "properties": {"room_id": "B1-315", "building_id": "B1", "floor": 3}}, {"type": "Feature", "geometry": {"type": "Polygon", "coordinates": [[[-8.8184, 41.8359], [-8.6384, 41.8359], [-8.6384, 46.8109], [-15.3284, 46.8109], [-15.3284, 37.2959], [-15.3284, 37.1959], [-10.5284, 37.1959], [-8.6384, 37.1959], [-8.6384, 41.0059], [-8.8184, 41.0059], [-8.8184, 41.8359]]]}, "properties": {"room_id": "B1-313", "building_id": "B1", "floor": 3}}, {"type": "Feature", "geometry": {"type": "Polygon", "coordinates": [[[-6.1034, 63.5859], [-6.1034, 63.4254], [-6.1034, 63.0164], [-6.1034, 62.8559], [9.5966, 62.8559], [9.5966, 63.0164], [9.5966, 63.4254], [9.5966, 63.5859], [9.9066, 63.5859], [9.9066, 63.8759], [9.8916, 63.8759], [9.8916, 66.5559], [9.2816, 66.5559], [9.2816, 66.8659], [7.8966, 66.8659], [7.8966, 66.5559], [7.5966, 66.5559], [2.8966, 66.5559], [0.5966, 66.5559], [-4.1034, 66.5559], [-5.8034, 66.5559], [-6.3984, 66.5559], [-6.3984, 63.8759], [-6.4134, 63.8759], [-6.4134, 63.5859], [-6.1034, 63.5859]]]}, "properties": {"room_id": "ST-01", "building_id": "B1", "floor": 3}}, {"type": "Feature", "geometry": {"type": "Polygon", "coordinates": [[[-19.2132, 63.7359], [-19.2132, 62.0359], [-18.9139, 62.0359], [-17.8384, 62.0359], [-17.8384, 60.9604], [-17.8384, 59.8809], [-17.8384, 58.5159], [-17.8384, 55.3814], [-17.8384, 54.2604], [-17.8384, 54.0009], [-19.2132, 54.0009], [-19.2132, 52.5509], [-17.8384, 52.5509], [-17.8384, 50.7509], [-19.2132, 50.7509], [-19.2132, 49.3009], [-17.8384, 49.3009], [-17.8384, 48.6814], [-17.8384, 47.5604], [-17.8384, 47.0209], [-19.2132, 47.0209], [-19.2132, 45.5709], [-17.8384, 45.5709], [-17.8384, 41.9814], [-17.8384, 40.8604], [-17.8384, 37.2959], [-15.5484, 37.2959], [-15.5484, 46.9209], [-15.5484, 56.8009], [-15.5484, 63.0634], [-15.5484, 63.8284], [-15.5484, 64.8709], [-17.8384, 64.8709], [-17.8384, 63.7359], [-19.2132, 63.7359]]]}, "properties": {"room_id": "3.CR8", "building_id": "B1", "floor": 3}}, {"type": "Feature", "geometry": {"type": "Polygon", "coordinates": [[[-14.6584, 32.1259], [-14.6584, 34.7259], [-10.6384, 34.7259], [-10.6384, 36.9759], [-15.5484, 36.9759], [-15.5484, 37.2959], [-17.7354, 37.2959], [-17.8884, 37.2959], [-19.2132, 37.2959], [-19.2132, 35.5959], [-17.8384, 35.5959], [-17.8384, 35.1814], [-17.8384, 34.0604], [-17.8384, 33.8159], [-19.2132, 33.8159], [-19.2132, 32.1259], [-17.7534, 32.1259], [-17.7534, 32.1159], [-15.7534, 32.1159], [-15.7534, 32.1259], [-14.6584, 32.1259]]]}, "properties": {"room_id": "3.CR7", "building_id": "B1", "floor": 3}}, {"type": "Feature", "geometry": {"type": "Polygon", "coordinates": [[[-7.9884, 74.5059], [-8.4184, 74.5059], [-8.4184, 73.7359], [-8.8034, 73.7359], [-8.9764, 73.7359], [-9.8784, 73.7359], [-10.3584, 73.7359], [-10.3584, 72.2159], [-9.8684, 72.2159], [-8.8684, 72.2159], [-8.4184, 72.2159], [-8.4184, 69.7909], [-8.4184, 69.7893], [-8.4184, 69.3859], [-6.6184, 69.3859], [-6.6184, 72.2159], [-5.3884, 72.2159], [-5.3884, 72.3993], [-5.3884, 72.4534], [-5.3884, 73.7359], [-6.2404, 73.7359], [-6.6184, 73.7359], [-6.6184, 75.4509], [-7.9884, 75.4509], [-7.9884, 75.3209], [-7.9884, 74.5059]]]}, "properties": {"room_id": "3.CR6", "building_id": "B1", "floor": 3}}, {"type": "Feature", "geometry": {"type": "Polygon", "coordinates": [[[-6.6184, 62.8634], [-6.6184, 63.5784], [-6.6184, 63.8759], [-6.6184, 66.5634], [-6.6184, 67.0859], [-7.9884, 67.0859], [-7.9884, 66.5559], [-8.8184, 66.5559], [-8.8184, 67.0859], [-10.2184, 67.0859], [-10.2184, 66.8229], [-10.2184, 63.1809], [-8.4184, 63.1809], [-8.4184, 61.9359], [-7.9884, 61.9359], [-7.9884, 61.1059], [-8.4184, 61.1059], [-8.4184, 56.8009], [-8.4184, 55.2359], [-7.9884, 55.2359], [-7.9884, 54.4059], [-8.4184, 54.4059], [-8.4184, 48.5359], [-7.9884, 48.5359], [-7.9884, 47.7059], [-8.4184, 47.7059], [-8.4184, 46.9209], [-8.4184, 41.8359], [-7.9959, 41.8359], [-6.6184, 41.8359], [-6.6184, 62.8634]]]}, "properties": {"room_id": "3.CR5", "building_id": "B1", "floor": 3}}, {"type": "Feature", "geometry": {"type": "Polygon", "coordinates": [[[12.3116, 41.8284], [12.3116, 41.0134], [12.3116, 40.8604], [12.3116, 36.4359], [14.4616, 36.4359], [14.4616, 41.5309], [15.3616, 41.5309], [15.3616, 43.5309], [14.4616, 43.5309], [14.4616, 52.7109], [15.3616, 52.7109], [15.3616, 54.7109], [14.4616, 54.7109], [14.4616, 62.8559], [12.3116, 62.8559], [12.3116, 62.0814], [12.3116, 61.9284], [12.3116, 61.1134], [12.3116, 60.9604], [12.3116, 55.3814], [12.3116, 55.2284], [12.3116, 54.4134], [12.3116, 54.2604], [12.3116, 48.6814], [12.3116, 48.5284], [12.3116, 47.7134], [12.3116, 47.5604], [12.3116, 41.9814], [12.3116, 41.8284]]]}, "properties": {"room_id": "3.CR2", "building_id": "B1", "floor": 3}}, {"type": "Feature", "geometry": {"type": "Polygon", "coordinates": [[[-17.8384, 65.5059], [-17.8384, 65.4209], [-17.8384, 64.8709], [-17.7354, 64.8709], [-15.5484, 64.8709], [-15.5484, 67.0859], [-10.4084, 67.0859], [-10.3284, 67.0859], [-10.2184, 67.0859], [-10.2184, 69.3859], [-10.4184, 69.3859], [-16.1318, 69.3859], [-16.2359, 69.3859], [-17.8384, 69.3859], [-17.8384, 68.6284], [-17.8384, 68.6209], [-17.8384, 67.8584], [-17.8384, 67.6604], [-17.8384, 65.5059]]]}, "properties": {"room_id": "3.CR9", "building_id": "B1", "floor": 3}}, {"type": "Feature", "geometry": {"type": "Polygon", "coordinates": [[[-7.9884, 34.2059], [-8.4184, 34.2059], [-8.4184, 31.3009], [-8.4184, 31.0934], [-8.4184, 28.4359], [-7.9884, 28.4359], [-7.9884, 27.6209], [-7.9884, 27.4909], [-6.6184, 27.4909], [-6.6184, 29.6759], [-6.2404, 29.6759], [-5.2884, 29.6759], [-5.0184, 29.6759], [-5.0184, 30.9784], [-5.0184, 31.3293], [-5.0184, 31.3834], [-5.0184, 32.6859], [-5.2884, 32.6859], [-6.2404, 32.6859], [-6.6184, 32.6859], [-6.6184, 35.0359], [-7.9884, 35.0359], [-7.9884, 34.2059]]]}, "properties": {"room_id": "3.CR4", "building_id": "B1", "floor": 3}}, {"type": "Feature", "geometry": {"type": "Polygon", "coordinates": [[[-8.8109, 67.0859], [-7.9959, 67.0859], [-7.8429, 67.0859], [-6.7639, 67.0859], [-6.6109, 67.0859], [-5.8034, 67.0859], [-4.1034, 67.0859], [0.5966, 67.0859], [2.8966, 67.0859], [7.5966, 67.0859], [7.8441, 67.0859], [9.2891, 67.0859], [10.1116, 67.0859], [10.1116, 66.5634], [10.1116, 66.5559], [10.1116, 66.5543], [10.1116, 63.8759], [10.1116, 63.5784], [10.1116, 63.0759], [10.1132, 63.0759], [12.3116, 63.0759], [14.4616, 63.0759], [14.4616, 69.3859], [8.4166, 69.3859], [-1.5884, 69.3859], [-1.5884, 69.3759], [-2.3034, 69.3759], [-2.3034, 69.3859], [-3.5034, 69.3859], [-3.5034, 69.3759], [-4.7034, 69.3759], [-4.7034, 69.3859], [-5.9034, 69.3859], [-5.9034, 69.3759], [-6.6184, 69.3759], [-6.6184, 69.3859], [-6.6689, 69.3859], [-8.3679, 69.3859], [-8.5209, 69.3859], [-10.2184, 69.3859], [-10.2184, 67.0859], [-8.9639, 67.0859], [-8.8109, 67.0859]], [[11.4816, 67.0859], [12.3116, 67.0859], [12.3116, 66.5559], [11.4816, 66.5559], [11.4816, 67.0859]]]}, "properties": {"room_id": "3.CR1", "building_id": "B1", "floor": 3}}, {"type": "Feature", "geometry": {"type": "Polygon", "coordinates": [[[11.4816, 41.8359], [12.3116, 41.8359], [12.3116, 47.7059], [11.4816, 47.7059], [11.4816, 48.5359], [12.3116, 48.5359], [12.3116, 54.4059], [11.4816, 54.4059], [11.4816, 55.2359], [12.3116, 55.2359], [12.3116, 61.1059], [11.4816, 61.1059], [11.4816, 61.9359], [12.3116, 61.9359], [12.3116, 62.8559], [10.1116, 62.8559], [10.1116, 36.5559], [12.3116, 36.5559], [12.3116, 36.5737], [12.3116, 41.0059], [11.4816, 41.0059], [11.4816, 41.8359]]]}, "properties": {"room_id": "B1-307", "building_id": "B1", "floor": 3}}, {"type": "Feature", "geometry": {"type": "Polygon", "coordinates": [[[-28.9334, 74.5059], [-28.9334, 68.6359], [-28.8034, 68.6359], [-27.9884, 68.6359], [-27.9884, 68.0259], [-18.7684, 68.0259], [-18.7684, 68.6359], [-18.1584, 68.6359], [-18.1584, 69.4009], [-18.1584, 69.5034], [-18.1584, 74.5059], [-18.7684, 74.5059], [-18.7684, 75.3209], [-18.7684, 75.4509], [-27.9884, 75.4509], [-27.9884, 75.3209], [-27.9884, 74.5059], [-28.8034, 74.5059], [-28.9334, 74.5059]]]}, "properties": {"room_id": "B1-420", "building_id": "B1", "floor": 4}}, {"type": "Feature", "geometry": {"type": "Polygon", "coordinates": [[[-21.08, 64.6509], [-28.9334, 64.6509], [-28.9334, 61.9359], [-28.8034, 61.9359], [-27.9884, 61.9359], [-27.9884, 61.1059], [-28.8034, 61.1059], [-28.9334, 61.1059], [-28.9334, 55.2359], [-28.8034, 55.2359], [-27.9884, 55.2359], [-27.9884, 54.4059], [-28.8034, 54.4059], [-28.9334, 54.4059], [-28.9334, 51.6009], [-19.4332, 51.6009], [-19.4332, 52.4493], [-19.4332, 52.5525], [-19.4332, 54.2337], [-19.4332, 54.3369], [-19.4332, 58.4643], [-19.4332, 58.5675], [-19.4332, 59.8293], [-19.4332, 59.9325], [-19.4332, 61.9343], [-19.4332, 62.0375], [-19.4332, 63.7343], [-19.4332, 63.8375], [-19.4332, 64.6509], [-20.9568, 64.6509], [-21.08, 64.6509]]]}, "properties": {"room_id": "B1-416", "building_id": "B1", "floor": 4}}, {"type": "Feature", "geometry": {"type": "Polygon", "coordinates": [[[-19.4332, 50.8525], [-19.4332, 51.3809], [-28.9334, 51.3809], [-28.9334, 48.5359], [-28.8034, 48.5359], [-27.9884, 48.5359], [-27.9884, 48.2309], [-19.4332, 48.2309], [-19.4332, 49.1993], [-19.4332, 49.3025], [-19.4332, 50.7493], [-19.4332, 50.8525]]]}, "properties": {"room_id": "B1-414", "building_id": "B1", "floor": 4}}, {"type": "Feature", "geometry": {"type": "Polygon", "coordinates": [[[-19.4332, 47.1225], [-19.4332, 48.0109], [-27.9884, 48.0109], [-27.9884, 47.7059], [-28.8034, 47.7059], [-28.9334, 47.7059], [-28.9334, 41.8359], [-28.8034, 41.8359], [-27.9884, 41.8359], [-27.9884, 41.0059], [-28.8034, 41.0059], [-28.9334, 41.0059], [-28.9334, 35.0359], [-28.8034, 35.0359], [-27.9884, 35.0359], [-27.9884, 34.8309], [-19.4332, 34.8309], [-19.4332, 35.5443], [-19.4332, 35.6475], [-19.4332, 37.3443], [-19.4332, 37.4475], [-19.4332, 41.7343], [-19.4332, 41.8375], [-19.4332, 43.0993], [-19.4332, 43.2025], [-19.4332, 45.4693], [-19.4332, 45.5725], [-19.4332, 47.0193], [-19.4332, 47.1225]]]}, "properties": {"room_id": "B1-412", "building_id": "B1", "floor": 4}}, {"type": "Feature", "geometry": {"type": "Polygon", "coordinates": [[[-19.4332, 33.9175], [-19.4332, 34.6109], [-27.9884, 34.6109], [-27.9884, 34.2059], [-28.8034, 34.2059], [-28.9334, 34.2059], [-28.9334, 28.4359], [-28.8034, 28.4359], [-27.9884, 28.4359], [-27.9884, 27.6209], [-27.9884, 27.4909], [-19.4332, 27.4909], [-19.4332, 32.0143], [-19.4332, 32.1275], [-19.4332, 33.8143], [-19.4332, 33.9175]]]}, "properties": {"room_id": "B1-410", "building_id": "B1", "floor": 4}}, {"type": "Feature", "geometry": {"type": "Polygon", "coordinates": [[[-6.6184, 62.8634], [-6.6184, 62.9609], [-10.2184, 62.9609], [-15.1534, 62.9609], [-15.3284, 62.9609], [-15.3284, 53.3609], [-6.6184, 53.3609], [-6.6184, 62.8634]], [[-8.8184, 55.2359], [-7.9884, 55.2359], [-7.9884, 54.4059], [-8.8184, 54.4059], [-8.8184, 55.2359]], [[-8.8184, 61.9359], [-7.9884, 61.9359], [-7.9884, 61.1059], [-8.8184, 61.1059], [-8.8184, 61.9359]]]}, "properties": {"room_id": "B1-419", "building_id": "B1", "floor": 4}}, {"type": "Feature", "geometry": {"type": "Polygon", "coordinates": [[[-6.6184, 49.8409], [-6.6184, 53.1409], [-15.3284, 53.1409], [-15.3284, 49.8409], [-6.6184, 49.8409]]]}, "properties": {"room_id": "B1-417", "building_id": "B1", "floor": 4}}, {"type": "Feature", "geometry": {"type": "Polygon", "coordinates": [[[-6.6184, 40.121], [-6.6184, 49.6209], [-15.3284, 49.6209], [-15.3284, 40.121], [-6.6184, 40.121]], [[-8.8184, 41.8359], [-7.9884, 41.8359], [-7.9884, 41.0059], [-8.8184, 41.0059], [-8.8184, 41.8359]], [[-8.8184, 48.5359], [-7.9884, 48.5359], [-7.9884, 47.7059], [-8.8184, 47.7059], [-8.8184, 48.5359]]]}, "properties": {"room_id": "B1-415", "building_id": "B1", "floor": 4}}, {"type": "Feature", "geometry": {"type": "Polygon", "coordinates": [[[-6.6184, 37.1959], [-6.6184, 39.901], [-15.3284, 39.901], [-15.3284, 37.1959], [-10.64, 37.1959], [-10.4168, 37.1959], [-6.6184, 37.1959]]]}, "properties": {"room_id": "B1-413", "building_id": "B1", "floor": 4}}, {"type": "Feature", "geometry": {"type": "Polygon", "coordinates": [[[-17.9534, 28.4209], [-17.9534, 27.6209], [-17.9534, 27.4859], [-14.6534, 27.4859], [-14.6534, 31.1959], [-14.6534, 31.9109], [-15.7534, 31.9109], [-17.7534, 31.9109], [-17.9534, 31.9109], [-17.9534, 28.4209]]]}, "properties": {"room_id": "EV-02", "building_id": "B1", "floor": 4}}, {"type": "Feature", "geometry": {"type": "Polygon", "coordinates": [[[-8.7334, 31.0859], [-13.7384, 31.0859], [-13.7384, 30.7909], [-13.7384, 28.3109], [-13.7384, 27.8259], [-8.9114, 27.8259], [-8.8184, 27.8259], [-8.8184, 28.4359], [-8.6384, 28.4359], [-8.6384, 31.0859], [-8.7334, 31.0859]]]}, "properties": {"room_id": "ST-02", "building_id": "B1", "floor": 4}}, {"type": "Feature", "geometry": {"type": "Polygon", "coordinates": [[[-28.9334, 64.8709], [-21.0784, 64.8709], [-21.0784, 65.4209], [-20.9584, 65.4209], [-20.9584, 64.8709], [-19.3232, 64.8709], [-19.2132, 64.8709], [-19.1702, 64.8709], [-17.9584, 64.8709], [-17.9584, 65.4209], [-17.8384, 65.5059], [-17.8384, 67.8059], [-18.7609, 67.8059], [-27.9959, 67.8059], [-28.8034, 67.8059], [-28.9334, 67.8059], [-28.9334, 64.8709]]]}, "properties": {"room_id": "B1-418", "building_id": "B1", "floor": 4}}, {"type": "Feature", "geometry": {"type": "Polygon", "coordinates": [[[-16.3384, 72.4534], [-16.3384, 75.4509], [-17.9384, 75.4509], [-17.9384, 75.3209], [-17.9384, 74.5134], [-17.9384, 69.6059], [-17.8384, 69.6059], [-17.8368, 69.6059], [-16.3384, 69.6059], [-16.3384, 72.1559], [-16.3384, 72.4534]]]}, "properties": {"room_id": "B1-422", "building_id": "B1", "floor": 4}}, {"type": "Feature", "geometry": {"type": "Polygon", "coordinates": [[[11.4891, 67.0859], [12.3041, 67.0859], [12.4571, 67.0859], [13.7116, 67.0859], [15.0966, 67.0859], [15.0966, 69.3859], [11.7966, 69.3859], [8.4466, 69.3859], [5.0966, 69.3859], [1.7466, 69.3859], [-1.5884, 69.3859], [-1.5884, 69.3759], [-2.3034, 69.3759], [-2.3034, 69.3859], [-3.5034, 69.3859], [-3.5034, 69.3759], [-4.7034, 69.3759], [-4.7034, 69.3859], [-5.9034, 69.3859], [-5.9034, 69.3759], [-6.6184, 69.3759], [-6.6184, 67.0859], [-5.8034, 67.0859], [-5.7959, 67.0859], [-5.5559, 67.0859], [-4.1034, 67.0859], [-0.1926, 67.0859], [0.5966, 67.0859], [2.8966, 67.0859], [7.5966, 67.0859], [9.2966, 67.0859], [10.1041, 67.0859], [10.2571, 67.0859], [11.3361, 67.0859], [11.4891, 67.0859]]]}, "properties": {"room_id": "4.CR1", "building_id": "B1", "floor": 4}}, {"type": "Feature", "geometry": {"type": "Polygon", "coordinates": [[[-1.5884, 72.2009], [-1.5884, 72.1059], [-1.5884, 69.6059], [1.6366, 69.6059], [1.6366, 75.4509], [-1.1884, 75.4509], [-1.1884, 75.3209], [-1.1884, 74.5059], [-1.5884, 74.5059], [-1.5884, 72.4534], [-1.5884, 72.3993], [-1.5884, 72.2025], [-1.5884, 72.2009]]]}, "properties": {"room_id": "B1-403", "building_id": "B1", "floor": 4}}, {"type": "Feature", "geometry": {"type": "Polygon", "coordinates": [[[-6.3884, 73.8559], [-5.3884, 73.8559], [-5.3884, 73.8659], [-5.2584, 73.8659], [-5.2584, 72.5159], [-1.8184, 72.5159], [-1.8184, 74.4959], [-2.0284, 74.4959], [-2.0284, 75.4409], [-3.5084, 75.4409], [-3.5084, 75.0409], [-3.6484, 75.0409], [-3.6484, 75.4409], [-5.2584, 75.4409], [-5.2584, 75.0409], [-5.3984, 75.0409], [-5.3984, 75.4409], [-6.3884, 75.4409], [-6.3884, 73.8559]]]}, "properties": {"room_id": "4.WC2", "building_id": "B1", "floor": 4}}, {"type": "Feature", "geometry": {"type": "Polygon", "coordinates": [[[-9.8784, 73.8659], [-9.8784, 73.8559], [-8.8284, 73.8559], [-8.8284, 75.4409], [-16.1084, 75.4409], [-16.1084, 72.5159], [-13.3184, 72.5159], [-13.3184, 73.9759], [-13.1784, 73.9759], [-13.1784, 73.2659], [-10.4884, 73.2659], [-10.4884, 73.8659], [-9.8784, 73.8659]]]}, "properties": {"room_id": "4.WC1", "building_id": "B1", "floor": 4}}, {"type": "Feature", "geometry": {"type": "Polygon", "coordinates": [[[-8.8684, 72.0859], [-8.8684, 72.0959], [-9.8684, 72.0959], [-9.8684, 72.0859], [-10.3484, 72.0859], [-10.3484, 69.9059], [-8.6484, 69.9059], [-8.6484, 72.0859], [-8.8684, 72.0859]]]}, "properties": {"room_id": "4.WC3", "building_id": "B1", "floor": 4}}, {"type": "Feature", "geometry": {"type": "Polygon", "coordinates": [[[-10.4884, 73.1259], [-13.1784, 73.1259], [-13.1784, 72.2259], [-10.4884, 72.2259], [-10.4884, 73.1259]]]}, "properties": {"room_id": "4.JC1", "building_id": "B1", "floor": 4}}, {"type": "Feature", "geometry": {"type": "Polygon", "coordinates": [[[-10.2184, 66.8659], [-15.3284, 66.8659], [-15.3284, 64.8709], [-15.3284, 63.8809], [-15.1384, 63.8809], [-15.1384, 63.1809], [-10.2184, 63.1809], [-10.2184, 66.8659]]]}, "properties": {"room_id": "B1-421", "building_id": "B1", "floor": 4}}, {"type": "Feature", "geometry": {"type": "Polygon", "coordinates": [[[-8.4184, 31.0934], [-8.4184, 28.4359], [-7.9884, 28.4359], [-7.9884, 27.6209], [-7.9884, 27.4909], [-6.6184, 27.4909], [-6.6184, 27.9609], [-6.6184, 36.9759], [-10.4184, 36.9759], [-10.4184, 34.7259], [-8.8184, 34.7259], [-8.8184, 35.0359], [-7.9884, 35.0359], [-7.9884, 34.2059], [-8.4184, 34.2059], [-8.4184, 31.3009], [-8.4184, 31.0934]]]}, "properties": {"room_id": "4.CR4", "building_id": "B1", "floor": 4}}, {"type": "Feature", "geometry": {"type": "Polygon", "coordinates": [[[-6.4134, 72.0109], [-6.4134, 69.5909], [-5.9034, 69.5909], [-4.7034, 69.5909], [-3.5034, 69.5909], [-2.3034, 69.5909], [-1.7934, 69.5909], [-1.7934, 72.0109], [-1.795, 72.0109], [-5.2818, 72.0109], [-5.3309, 72.0109], [-5.39, 72.0109], [-6.4134, 72.0109]]]}, "properties": {"room_id": "EV-01", "building_id": "B1", "floor": 4}}, {"type": "Feature", "geometry": {"type": "Polygon", "coordinates": [[[4.6816, 75.4509], [1.8566, 75.4509], [1.8566, 69.6059], [4.9866, 69.6059], [4.9866, 74.5059], [4.6816, 74.5059], [4.6816, 75.3209], [4.6816, 75.4509]]]}, "properties": {"room_id": "B1-404", "building_id": "B1", "floor": 4}}, {"type": "Feature", "geometry": {"type": "Polygon", "coordinates": [[[8.3366, 75.4509], [5.5116, 75.4509], [5.5116, 75.3209], [5.5116, 74.5059], [5.2066, 74.5059], [5.2066, 69.6059], [8.3366, 69.6059], [8.3366, 75.4509]]]}, "properties": {"room_id": "B1-405", "building_id": "B1", "floor": 4}}, {"type": "Feature", "geometry": {"type": "Polygon", "coordinates": [[[11.4816, 75.4509], [8.5566, 75.4509], [8.5566, 69.6059], [11.6866, 69.6059], [11.6866, 74.5059], [11.4816, 74.5059], [11.4816, 75.3209], [11.4816, 75.4509]]]}, "properties": {"room_id": "B1-406", "building_id": "B1", "floor": 4}}, {"type": "Feature", "geometry": {"type": "Polygon", "coordinates": [[[12.3116, 74.5059], [11.9066, 74.5059], [11.9066, 69.6059], [15.0966, 69.6059], [15.0966, 75.4509], [12.3116, 75.4509], [12.3116, 75.3209], [12.3116, 74.5059]]]}, "properties": {"room_id": "B1-407", "building_id": "B1", "floor": 4}}, {"type": "Feature", "geometry": {"type": "Polygon", "coordinates": [[[20.2766, 67.0859], [20.2766, 75.4509], [18.9116, 75.4509], [18.9116, 75.3209], [18.9116, 74.5059], [18.0816, 74.5059], [18.0816, 75.3209], [18.0816, 75.4509], [15.3166, 75.4509], [15.3166, 69.4959], [15.3166, 67.0859], [18.0891, 67.0859], [18.8966, 67.0859], [18.9041, 67.0859], [20.2766, 67.0859]]]}, "properties": {"room_id": "B1-408", "building_id": "B1", "floor": 4}}, {"type": "Feature", "geometry": {"type": "Polygon", "coordinates": [[[-6.1034, 63.5859], [-6.1034, 63.4254], [-6.1034, 63.0164], [-6.1034, 62.8559], [-5.8985, 62.8559], [9.5966, 62.8559], [9.5966, 63.0164], [9.5966, 63.5859], [9.9066, 63.5859], [9.9066, 63.8759], [9.8916, 63.8759], [9.8916, 66.5559], [9.2966, 66.5559], [7.5966, 66.5559], [2.8966, 66.5559], [0.5966, 66.5559], [-0.1926, 66.5559], [-4.1034, 66.5559], [-4.1034, 66.8659], [-5.5034, 66.8659], [-5.5034, 66.5559], [-5.7959, 66.5559], [-5.8034, 66.5559], [-6.3984, 66.5559], [-6.3984, 63.8759], [-6.4134, 63.8759], [-6.4134, 63.5859], [-6.1034, 63.5859]]]}, "properties": {"room_id": "ST-01", "building_id": "B1", "floor": 4}}, {"type": "Feature", "geometry": {"type": "Polygon", "coordinates": [[[-14.6584, 32.1259], [-14.6584, 34.7259], [-10.6384, 34.7259], [-10.6384, 36.9759], [-15.5484, 36.9759], [-15.5484, 40.011], [-15.5484, 49.7309], [-15.5484, 53.2509], [-15.5484, 63.0634], [-15.5484, 63.8284], [-15.5484, 64.8709], [-17.8384, 64.8709], [-17.8384, 63.7359], [-19.2132, 63.7359], [-19.2132, 62.0359], [-18.9139, 62.0359], [-17.8384, 62.0359], [-17.8384, 60.9604], [-17.8384, 59.8809], [-17.8384, 58.5159], [-17.8384, 55.3814], [-17.8384, 54.2353], [-18.9139, 54.2353], [-19.2132, 54.2353], [-19.2132, 52.5509], [-17.8384, 52.5509], [-17.8384, 50.7509], [-19.2132, 50.7509], [-19.2132, 49.3009], [-17.8384, 49.3009], [-17.8384, 48.6814], [-17.8384, 47.5604], [-17.8384, 47.0209], [-19.2132, 47.0209], [-19.2132, 45.5709], [-17.8384, 45.5709], [-17.8384, 43.1509], [-17.8384, 41.9814], [-17.8384, 40.8604], [-17.8384, 37.3459], [-19.2132, 37.3459], [-19.2132, 35.6459], [-17.8384, 35.6459], [-17.8384, 35.1814], [-17.8384, 34.0604], [-17.8384, 33.8159], [-19.2132, 33.8159], [-19.2132, 32.1259], [-17.7534, 32.1259], [-17.7534, 32.1159], [-15.7534, 32.1159], [-15.7534, 32.1259], [-14.6584, 32.1259]]]}, "properties": {"room_id": "4.CR3", "building_id": "B1", "floor": 4}}, {"type": "Feature", "geometry": {"type": "Polygon", "coordinates": [[[10.1116, 63.5784], [10.1116, 63.0759], [20.2766, 63.0759], [20.2766, 66.8659], [18.9116, 66.8659], [18.9116, 66.2559], [18.0816, 66.2559], [18.0816, 66.8659], [15.2066, 66.8659], [13.7116, 66.8659], [13.7116, 67.0859], [12.3116, 67.0859], [12.3116, 66.5559], [11.4816, 66.5559], [11.4816, 67.0859], [10.1116, 67.0859], [10.1116, 66.5634], [10.1116, 66.5559], [10.1116, 66.5543], [10.1116, 63.8759], [10.1116, 63.5784]]]}, "properties": {"room_id": "4.LB1", "building_id": "B1", "floor": 4}}, {"type": "Feature", "geometry": {"type": "Polygon", "coordinates": [[[-6.6184, 63.1809], [-6.6184, 63.5784], [-6.6184, 63.8759], [-6.6184, 66.5543], [-6.6184, 66.5559], [-6.6184, 66.5634], [-6.6184, 67.0784], [-6.6184, 67.2314], [-6.6184, 69.3809], [-6.6184, 69.4884], [-6.6184, 72.2159], [-5.3884, 72.2159], [-5.3884, 72.3993], [-5.3884, 72.4534], [-5.3884, 73.7359], [-6.2404, 73.7359], [-6.6184, 73.7359], [-6.6184, 75.4509], [-7.9884, 75.4509], [-7.9884, 75.3209], [-7.9884, 74.5059], [-8.4184, 74.5059], [-8.4184, 73.7359], [-8.8034, 73.7359], [-8.9764, 73.7359], [-9.8784, 73.7359], [-10.3584, 73.7359], [-10.3584, 72.2159], [-9.8684, 72.2159], [-8.8684, 72.2159], [-8.4184, 72.2159], [-8.4184, 69.7909], [-8.4184, 69.7893], [-8.4184, 69.3859], [-10.2184, 69.3859], [-10.2184, 67.1289], [-10.2184, 67.0859], [-10.2184, 66.8659], [-10.2184, 66.8229], [-10.2184, 63.1809], [-6.6184, 63.1809]], [[-8.8184, 67.0859], [-7.9884, 67.0859], [-7.9884, 66.5559], [-8.8184, 66.5559], [-8.8184, 67.0859]]]}, "properties": {"room_id": "4.CR2", "building_id": "B1", "floor": 4}}, {"type": "Feature", "geometry": {"type": "Polygon", "coordinates": [[[-16.1318, 69.3859], [-16.2359, 69.3859], [-17.8384, 69.3859], [-17.8384, 68.6284], [-17.8384, 68.6209], [-17.8384, 67.8584], [-17.8384, 67.6604], [-17.8384, 65.5059], [-17.8384, 65.4209], [-17.8384, 64.8709], [-17.7354, 64.8709], [-15.5484, 64.8709], [-15.5484, 67.0859], [-10.2184, 67.0859], [-10.2184, 69.3859], [-10.4184, 69.3859], [-16.1318, 69.3859]]]}, "properties": {"room_id": "4.CR5", "building_id": "B1", "floor": 4}}, {"type": "Feature", "geometry": {"type": "Polygon", "coordinates": [[[-27.9884, 75.3209], [-27.9884, 74.5059], [-28.8034, 74.5059], [-28.9334, 74.5059], [-28.9334, 69.6059], [-24.4734, 69.6059], [-18.1584, 69.6059], [-18.1584, 74.5059], [-18.7684, 74.5059], [-18.7684, 75.3209], [-18.7684, 75.4509], [-27.9884, 75.4509], [-27.9884, 75.3209]]]}, "properties": {"room_id": "B1-533", "building_id": "B1", "floor": 5}}, {"type": "Feature", "geometry": {"type": "Polygon", "coordinates": [[[-28.8034, 68.6359], [-27.9884, 68.6359], [-27.9884, 67.8059], [-28.8034, 67.8059], [-28.9334, 67.8059], [-28.9334, 64.9809], [-24.5834, 64.9809], [-24.5834, 66.4059], [-24.5834, 69.3859], [-28.9334, 69.3859], [-28.9334, 68.6359], [-28.8034, 68.6359]]]}, "properties": {"room_id": "B1-532", "building_id": "B1", "floor": 5}}, {"type": "Feature", "geometry": {"type": "Polygon", "coordinates": [[[-28.8034, 61.9359], [-27.9884, 61.9359], [-27.9884, 61.6309], [-24.5834, 61.6309], [-24.5834, 64.7609], [-28.9334, 64.7609], [-28.9334, 61.9359], [-28.8034, 61.9359]]]}, "properties": {"room_id": "B1-531", "building_id": "B1", "floor": 5}}, {"type": "Feature", "geometry": {"type": "Polygon", "coordinates": [[[-27.9884, 61.4109], [-27.9884, 61.1059], [-28.8034, 61.1059], [-28.9334, 61.1059], [-28.9334, 58.2809], [-24.5834, 58.2809], [-24.5834, 61.4109], [-27.9884, 61.4109]]]}, "properties": {"room_id": "B1-525", "building_id": "B1", "floor": 5}}, {"type": "Feature", "geometry": {"type": "Polygon", "coordinates": [[[-28.8034, 55.2359], [-27.9884, 55.2359], [-27.9884, 54.9309], [-24.5834, 54.9309], [-24.5834, 58.0609], [-28.9334, 58.0609], [-28.9334, 55.2359], [-28.8034, 55.2359]]]}, "properties": {"room_id": "B1-524", "building_id": "B1", "floor": 5}}, {"type": "Feature", "geometry": {"type": "Polygon", "coordinates": [[[-27.9884, 54.4059], [-28.8034, 54.4059], [-28.9334, 54.4059], [-28.9334, 51.5809], [-24.5834, 51.5809], [-24.5834, 54.7109], [-27.9884, 54.7109], [-27.9884, 54.4059]]]}, "properties": {"room_id": "B1-523", "building_id": "B1", "floor": 5}}, {"type": "Feature", "geometry": {"type": "Polygon", "coordinates": [[[-28.8034, 48.5359], [-27.9884, 48.5359], [-27.9884, 48.2309], [-24.5834, 48.2309], [-24.5834, 51.3609], [-28.9334, 51.3609], [-28.9334, 48.5359], [-28.8034, 48.5359]]]}, "properties": {"room_id": "B1-522", "building_id": "B1", "floor": 5}}, {"type": "Feature", "geometry": {"type": "Polygon", "coordinates": [[[-27.9884, 47.7059], [-28.8034, 47.7059], [-28.9334, 47.7059], [-28.9334, 44.8809], [-24.5834, 44.8809], [-24.5834, 48.0109], [-27.9884, 48.0109], [-27.9884, 47.7059]]]}, "properties": {"room_id": "B1-521", "building_id": "B1", "floor": 5}}, {"type": "Feature", "geometry": {"type": "Polygon", "coordinates": [[[-28.8034, 41.8359], [-27.9884, 41.8359], [-27.9884, 41.5309], [-24.5834, 41.5309], [-24.5834, 44.6609], [-28.9334, 44.6609], [-28.9334, 41.8359], [-28.8034, 41.8359]]]}, "properties": {"room_id": "B1-520", "building_id": "B1", "floor": 5}}, {"type": "Feature", "geometry": {"type": "Polygon", "coordinates": [[[-27.9884, 41.0059], [-28.8034, 41.0059], [-28.9334, 41.0059], [-28.9334, 38.1809], [-24.5834, 38.1809], [-24.5834, 39.0359], [-24.5834, 41.3109], [-27.9884, 41.3109], [-27.9884, 41.0059]]]}, "properties": {"room_id": "B1-516", "building_id": "B1", "floor": 5}}, {"type": "Feature", "geometry": {"type": "Polygon", "coordinates": [[[-28.8034, 35.0359], [-27.9884, 35.0359], [-27.9884, 34.8309], [-24.5834, 34.8309], [-24.5834, 37.9609], [-28.9334, 37.9609], [-28.9334, 35.0359], [-28.8034, 35.0359]]]}, "properties": {"room_id": "B1-515", "building_id": "B1", "floor": 5}}, {"type": "Feature", "geometry": {"type": "Polygon", "coordinates": [[[-27.9884, 34.2059], [-28.8034, 34.2059], [-28.9334, 34.2059], [-28.9334, 31.4809], [-24.5834, 31.4809], [-24.5834, 34.6109], [-27.9884, 34.6109], [-27.9884, 34.2059]]]}, "properties": {"room_id": "B1-514", "building_id": "B1", "floor": 5}}, {"type": "Feature", "geometry": {"type": "Polygon", "coordinates": [[[-28.8034, 28.4359], [-27.9884, 28.4359], [-27.9884, 27.6209], [-27.9884, 27.4909], [-24.5834, 27.4909], [-24.5834, 31.2609], [-28.9334, 31.2609], [-28.9334, 28.4359], [-28.8034, 28.4359]]]}, "properties": {"room_id": "B1-513", "building_id": "B1", "floor": 5}}, {"type": "Feature", "geometry": {"type": "Polygon", "coordinates": [[[-18.7684, 34.2059], [-18.7684, 34.4609], [-22.3434, 34.4609], [-22.3434, 31.4609], [-18.3584, 31.4609], [-18.3584, 32.1009], [-18.3584, 34.2059], [-18.7684, 34.2059]]]}, "properties": {"room_id": "B1-510", "building_id": "B1", "floor": 5}}, {"type": "Feature", "geometry": {"type": "Polygon", "coordinates": [[[-18.7684, 28.4359], [-18.3584, 28.4359], [-18.3584, 31.2409], [-22.3434, 31.2409], [-22.3434, 27.4909], [-18.7684, 27.4909], [-18.7684, 27.6209], [-18.7684, 28.4359]]]}, "properties": {"room_id": "B1-512", "building_id": "B1", "floor": 5}}, {"type": "Feature", "geometry": {"type": "Polygon", "coordinates": [[[-17.9534, 28.4209], [-17.9534, 27.6209], [-17.9534, 27.4859], [-14.6534, 27.4859], [-14.6534, 31.1959], [-14.6534, 31.9109], [-15.7534, 31.9109], [-17.7534, 31.9109], [-17.9534, 31.9109], [-17.9534, 28.4209]]]}, "properties": {"room_id": "EV-02", "building_id": "B1", "floor": 5}}, {"type": "Feature", "geometry": {"type": "Polygon", "coordinates": [[[-17.9384, 75.3209], [-17.9384, 74.5134], [-17.9384, 69.6059], [-16.3384, 69.6059], [-16.3384, 72.1559], [-16.3384, 72.4534], [-16.3384, 75.4509], [-17.9384, 75.4509], [-17.9384, 75.3209]]]}, "properties": {"room_id": "B1-534", "building_id": "B1", "floor": 5}}, {"type": "Feature", "geometry": {"type": "Polygon", "coordinates": [[[-9.8784, 73.8659], [-9.8784, 73.8559], [-8.8284, 73.8559], [-8.8284, 75.4409], [-16.1084, 75.4409], [-16.1084, 72.5159], [-13.3184, 72.5159], [-13.3184, 73.9759], [-13.1784, 73.9759], [-13.1784, 73.2659], [-10.4884, 73.2659], [-10.4884, 73.8659], [-9.8784, 73.8659]]]}, "properties": {"room_id": "5.WC1", "building_id": "B1", "floor": 5}}, {"type": "Feature", "geometry": {"type": "Polygon", "coordinates": [[[-10.4884, 73.1259], [-13.1784, 73.1259], [-13.1784, 72.2259], [-10.4884, 72.2259], [-10.4884, 73.1259]]]}, "properties": {"room_id": "5.JC1", "building_id": "B1", "floor": 5}}, {"type": "Feature", "geometry": {"type": "Polygon", "coordinates": [[[-8.8684, 72.0859], [-8.8684, 72.0959], [-9.8684, 72.0959], [-9.8684, 72.0859], [-10.3484, 72.0859], [-10.3484, 69.9059], [-8.6484, 69.9059], [-8.6484, 72.0859], [-8.8684, 72.0859]]]}, "properties": {"room_id": "5.WC3", "building_id": "B1", "floor": 5}}, {"type": "Feature", "geometry": {"type": "Polygon", "coordinates": [[[-6.3884, 73.8559], [-5.3884, 73.8559], [-5.3884, 73.8659], [-5.2584, 73.8659], [-5.2584, 72.5159], [-1.8184, 72.5159], [-1.8184, 74.4959], [-2.0284, 74.4959], [-2.0284, 75.4409], [-3.5084, 75.4409], [-3.5084, 75.0409], [-3.6484, 75.0409], [-3.6484, 75.4409], [-5.2584, 75.4409], [-5.2584, 75.0409], [-5.3984, 75.0409], [-5.3984, 75.4409], [-6.3884, 75.4409], [-6.3884, 73.8559]]]}, "properties": {"room_id": "5.WC2", "building_id": "B1", "floor": 5}}, {"type": "Feature", "geometry": {"type": "Polygon", "coordinates": [[[-6.4134, 72.0109], [-6.4134, 69.5909], [-5.9034, 69.5909], [-4.7034, 69.5909], [-3.5034, 69.5909], [-2.3034, 69.5909], [-1.7934, 69.5909], [-1.7934, 72.0109], [-1.795, 72.0109], [-5.2818, 72.0109], [-5.3309, 72.0109], [-5.39, 72.0109], [-6.4134, 72.0109]]]}, "properties": {"room_id": "EV-01", "building_id": "B1", "floor": 5}}, {"type": "Feature", "geometry": {"type": "Polygon", "coordinates": [[[-1.1884, 74.5059], [-1.5884, 74.5059], [-1.5884, 72.4534], [-1.5884, 72.3993], [-1.5884, 72.2025], [-1.5884, 72.2009], [-1.5884, 72.1059], [-1.5884, 69.6059], [1.6366, 69.6059], [1.6366, 75.4509], [-1.1884, 75.4509], [-1.1884, 75.3209], [-1.1884, 74.5059]]]}, "properties": {"room_id": "B1-503", "building_id": "B1", "floor": 5}}, {"type": "Feature", "geometry": {"type": "Polygon", "coordinates": [[[4.6816, 74.5059], [4.6816, 75.3209], [4.6816, 75.4509], [1.8566, 75.4509], [1.8566, 69.6059], [4.9866, 69.6059], [4.9866, 74.5059], [4.6816, 74.5059]]]}, "properties": {"room_id": "B1-504", "building_id": "B1", "floor": 5}}, {"type": "Feature", "geometry": {"type": "Polygon", "coordinates": [[[5.5116, 74.5059], [5.2066, 74.5059], [5.2066, 69.6059], [8.3366, 69.6059], [8.3366, 75.4509], [5.5116, 75.4509], [5.5116, 75.3209], [5.5116, 74.5059]]]}, "properties": {"room_id": "B1-505", "building_id": "B1", "floor": 5}}, {"type": "Feature", "geometry": {"type": "Polygon", "coordinates": [[[11.4816, 74.5059], [11.4816, 75.3209], [11.4816, 75.4509], [10.0016, 75.4509], [8.5566, 75.4509], [8.5566, 69.6059], [11.6866, 69.6059], [11.6866, 74.5059], [11.4816, 74.5059]]]}, "properties": {"room_id": "B1-506", "building_id": "B1", "floor": 5}}, {"type": "Feature", "geometry": {"type": "Polygon", "coordinates": [[[12.3116, 74.5059], [11.9066, 74.5059], [11.9066, 69.6059], [15.0966, 69.6059], [15.0966, 75.4509], [12.3116, 75.4509], [12.3116, 75.3209], [12.3116, 74.5059]]]}, "properties": {"room_id": "B1-507", "building_id": "B1", "floor": 5}}, {"type": "Feature", "geometry": {"type": "Polygon", "coordinates": [[[18.0891, 67.0859], [18.9041, 67.0859], [20.2766, 67.0859], [20.2766, 72.5109], [20.2766, 75.4509], [18.9116, 75.4509], [18.9116, 74.5059], [18.0816, 74.5059], [18.0816, 75.3209], [18.0816, 75.4509], [15.3166, 75.4509], [15.3166, 69.4959], [15.3166, 67.0859], [18.0891, 67.0859]]]}, "properties": {"room_id": "B1-508", "building_id": "B1", "floor": 5}}, {"type": "Feature", "geometry": {"type": "Polygon", "coordinates": [[[-22.3434, 66.1859], [-22.3434, 63.1809], [-15.745, 63.1809], [-15.7434, 63.1809], [-15.7434, 63.4184], [-15.7434, 66.1859], [-22.3434, 66.1859]]]}, "properties": {"room_id": "B1-530", "building_id": "B1", "floor": 5}}, {"type": "Feature", "geometry": {"type": "Polygon", "coordinates": [[[-15.5234, 66.1859], [-15.5234, 63.4709], [-15.1384, 63.4709], [-15.1384, 63.1809], [-10.2184, 63.1809], [-10.2184, 66.1859], [-15.5234, 66.1859]]]}, "properties": {"room_id": "B1-529", "building_id": "B1", "floor": 5}}, {"type": "Feature", "geometry": {"type": "Polygon", "coordinates": [[[-8.8184, 61.9359], [-8.6384, 61.9359], [-8.6384, 62.9609], [-10.2184, 62.9609], [-15.1909, 62.9609], [-15.5234, 62.9609], [-15.5234, 62.9593], [-15.5234, 52.8159], [-10.3284, 52.8159], [-8.6384, 52.8159], [-8.6384, 54.4059], [-8.8184, 54.4059], [-8.8184, 55.2359], [-8.6384, 55.2359], [-8.6384, 61.1059], [-8.8184, 61.1059], [-8.8184, 61.9359]]]}, "properties": {"room_id": "B1-528", "building_id": "B1", "floor": 5}}, {"type": "Feature", "geometry": {"type": "Polygon", "coordinates": [[[-22.3434, 62.9609], [-22.3434, 52.8159], [-15.7434, 52.8159], [-15.7434, 62.9609], [-22.3434, 62.9609]], [[-18.7684, 55.2359], [-17.9384, 55.2359], [-17.9384, 54.4059], [-18.7684, 54.4059], [-18.7684, 55.2359]], [[-18.7684, 61.9359], [-17.9384, 61.9359], [-17.9384, 61.1059], [-18.7684, 61.1059], [-18.7684, 61.9359]]]}, "properties": {"room_id": "B1-527", "building_id": "B1", "floor": 5}}, {"type": "Feature", "geometry": {"type": "Polygon", "coordinates": [[[-18.7684, 48.5359], [-17.9684, 48.5359], [-17.9684, 50.0759], [-22.3434, 50.0759], [-22.3434, 46.9459], [-17.9684, 46.9459], [-17.9684, 47.7059], [-18.7684, 47.7059], [-18.7684, 48.5359]]]}, "properties": {"room_id": "B1-519", "building_id": "B1", "floor": 5}}, {"type": "Feature", "geometry": {"type": "Polygon", "coordinates": [[[-8.8184, 48.5359], [-8.6384, 48.5359], [-8.6384, 50.0759], [-10.3284, 50.0759], [-17.7484, 50.0759], [-17.7484, 48.5284], [-17.7484, 47.7134], [-17.7484, 46.9459], [-8.6384, 46.9459], [-8.6384, 47.7059], [-8.8184, 47.7059], [-8.8184, 48.5359]]]}, "properties": {"room_id": "B1-518", "building_id": "B1", "floor": 5}}, {"type": "Feature", "geometry": {"type": "Polygon", "coordinates": [[[-8.8184, 41.8359], [-8.6384, 41.8359], [-8.6384, 46.7259], [-17.8584, 46.7259], [-22.3434, 46.7259], [-22.3434, 39.0359], [-22.3434, 37.9459], [-8.6384, 37.9459], [-8.6384, 41.0059], [-8.8184, 41.0059], [-8.8184, 41.8359]], [[-18.7684, 41.8359], [-17.9384, 41.8359], [-17.9384, 41.0059], [-18.7684, 41.0059], [-18.7684, 41.8359]]]}, "properties": {"room_id": "B1-517", "building_id": "B1", "floor": 5}}, {"type": "Feature", "geometry": {"type": "Polygon", "coordinates": [[[-8.8184, 28.4359], [-8.6384, 28.4359], [-8.6384, 31.0859], [-8.7334, 31.0859], [-13.7384, 31.0859], [-13.7384, 30.7909], [-13.7384, 28.3109], [-13.7384, 27.8259], [-8.9114, 27.8259], [-8.8184, 27.8259], [-8.8184, 28.4359]]]}, "properties": {"room_id": "ST-02", "building_id": "B1", "floor": 5}}, {"type": "Feature", "geometry": {"type": "Polygon", "coordinates": [[[10.1116, 63.5784], [10.1116, 63.0759], [20.2766, 63.0759], [20.2766, 66.8659], [18.9116, 66.8659], [18.9116, 66.2559], [18.0816, 66.2559], [18.0816, 66.8659], [15.2066, 66.8659], [13.7116, 66.8659], [13.7116, 67.0859], [12.3116, 67.0859], [12.3116, 66.5559], [11.4816, 66.5559], [11.4816, 67.0859], [10.1116, 67.0859], [10.1116, 66.5634], [10.1116, 66.5559], [10.1116, 66.5543], [10.1116, 63.8759], [10.1116, 63.5784]]]}, "properties": {"room_id": "5.LB1", "building_id": "B1", "floor": 5}}, {"type": "Feature", "geometry": {"type": "Polygon", "coordinates": [[[-6.1034, 63.5859], [-6.1034, 63.4254], [-6.1034, 63.0164], [-6.1034, 62.8559], [-5.8985, 62.8559], [9.5966, 62.8559], [9.5966, 63.0164], [9.5966, 63.5859], [9.9066, 63.5859], [9.9066, 63.8759], [9.8916, 63.8759], [9.8916, 66.5559], [9.2816, 66.5559], [9.2816, 66.8659], [7.8966, 66.8659], [7.8966, 66.5559], [7.5966, 66.5559], [2.8966, 66.5559], [0.5966, 66.5559], [-4.1034, 66.5559], [-5.7959, 66.5559], [-5.8034, 66.5559], [-6.3984, 66.5559], [-6.3984, 63.8759], [-6.4134, 63.8759], [-6.4134, 63.5859], [-6.1034, 63.5859]]]}, "properties": {"room_id": "ST-01", "building_id": "B1", "floor": 5}}, {"type": "Feature", "geometry": {"type": "Polygon", "coordinates": [[[-7.9884, 74.5059], [-8.4184, 74.5059], [-8.4184, 73.7359], [-8.8034, 73.7359], [-8.9764, 73.7359], [-9.8784, 73.7359], [-10.3584, 73.7359], [-10.3584, 72.2159], [-9.8684, 72.2159], [-8.8684, 72.2159], [-8.4184, 72.2159], [-8.4184, 69.7909], [-8.4184, 69.7893], [-8.4184, 69.3859], [-6.6184, 69.3859], [-6.6184, 72.2159], [-5.3884, 72.2159], [-5.3884, 72.3993], [-5.3884, 72.4534], [-5.3884, 73.7359], [-6.2404, 73.7359], [-6.6184, 73.7359], [-6.6184, 75.4509], [-7.9884, 75.4509], [-7.9884, 75.3209], [-7.9884, 74.5059]]]}, "properties": {"room_id": "5.CR2", "building_id": "B1", "floor": 5}}, {"type": "Feature", "geometry": {"type": "Polygon", "coordinates": [[[-4.1034, 67.0859], [0.5966, 67.0859], [2.8966, 67.0859], [7.5966, 67.0859], [7.8441, 67.0859], [9.2891, 67.0859], [10.1041, 67.0859], [10.2571, 67.0859], [11.3361, 67.0859], [11.4891, 67.0859], [12.3041, 67.0859], [12.4571, 67.0859], [13.7116, 67.0859], [15.0966, 67.0859], [15.0966, 69.3859], [11.7966, 69.3859], [8.4466, 69.3859], [5.0966, 69.3859], [1.7466, 69.3859], [-1.5884, 69.3859], [-1.5884, 69.3759], [-2.3034, 69.3759], [-2.3034, 69.3859], [-3.5034, 69.3859], [-3.5034, 69.3759], [-4.7034, 69.3759], [-4.7034, 69.3859], [-5.9034, 69.3859], [-5.9034, 69.3759], [-6.6184, 69.3759], [-6.6184, 69.3859], [-6.6689, 69.3859], [-8.3679, 69.3859], [-8.5209, 69.3859], [-10.2184, 69.3859], [-10.2184, 67.0859], [-8.9639, 67.0859], [-8.8109, 67.0859], [-7.9959, 67.0859], [-7.8429, 67.0859], [-6.7639, 67.0859], [-6.6109, 67.0859], [-5.8034, 67.0859], [-5.7959, 67.0859], [-4.1034, 67.0859]]]}, "properties": {"room_id": "5.CR1", "building_id": "B1", "floor": 5}}, {"type": "Feature", "geometry": {"type": "Polygon", "coordinates": [[[-18.7684, 35.0359], [-17.9384, 35.0359], [-17.9384, 34.2209], [-17.9384, 32.1259], [-17.7534, 32.1259], [-17.7534, 32.1159], [-15.7534, 32.1159], [-15.7534, 32.1259], [-14.6584, 32.1259], [-14.6584, 34.7259], [-8.8184, 34.7259], [-8.8184, 35.0359], [-8.5984, 35.0359], [-8.5984, 37.7259], [-22.5634, 37.7259], [-22.5634, 38.9259], [-24.3634, 38.9259], [-24.3634, 38.0709], [-24.3634, 34.7209], [-24.3634, 31.3709], [-24.3634, 27.4909], [-22.5634, 27.4909], [-22.5634, 31.3509], [-22.5634, 34.6809], [-18.7684, 34.6809], [-18.7684, 35.0359]]]}, "properties": {"room_id": "5.CR4", "building_id": "B1", "floor": 5}}, {"type": "Feature", "geometry": {"type": "Polygon", "coordinates": [[[-24.3634, 66.4059], [-24.3634, 64.8709], [-24.3634, 61.5209], [-24.3634, 58.1709], [-24.3634, 54.8209], [-24.3634, 51.4709], [-24.3634, 48.1209], [-24.3634, 44.7709], [-24.3634, 41.4209], [-24.3634, 39.1459], [-22.5634, 39.1459], [-22.5634, 46.8359], [-22.5634, 50.1859], [-22.5634, 50.3389], [-22.5634, 52.5529], [-22.5634, 52.7059], [-22.5634, 63.0709], [-22.5634, 66.4059], [-24.3634, 66.4059]]]}, "properties": {"room_id": "5.CR5", "building_id": "B1", "floor": 5}}, {"type": "Feature", "geometry": {"type": "Polygon", "coordinates": [[[-16.2359, 69.3859], [-18.0484, 69.3859], [-24.3634, 69.3859], [-24.3634, 66.4059], [-22.6064, 66.4059], [-22.4534, 66.4059], [-15.6334, 66.4059], [-10.2184, 66.4059], [-10.2184, 67.0859], [-10.2184, 69.3859], [-10.4184, 69.3859], [-16.1318, 69.3859], [-16.2359, 69.3859]], [[-18.7684, 68.6359], [-17.9384, 68.6359], [-17.9384, 67.8059], [-18.7684, 67.8059], [-18.7684, 68.6359]]]}, "properties": {"room_id": "5.CR7", "building_id": "B1", "floor": 5}}, {"type": "Feature", "geometry": {"type": "Polygon", "coordinates": [[[-10.4384, 52.5959], [-15.6334, 52.5959], [-22.5634, 52.5959], [-22.5634, 50.2959], [-17.8584, 50.2959], [-10.4384, 50.2959], [-10.4384, 52.5959]]]}, "properties": {"room_id": "5.CR6", "building_id": "B1", "floor": 5}}, {"type": "Feature", "geometry": {"type": "Polygon", "coordinates": [[[-6.6184, 62.8634], [-6.6184, 63.5784], [-6.6184, 63.8759], [-6.6184, 66.5634], [-6.6184, 67.0859], [-7.9884, 67.0859], [-7.9884, 66.5559], [-8.8184, 66.5559], [-8.8184, 67.0859], [-10.2184, 67.0859], [-10.2184, 66.4075], [-10.2184, 66.4059], [-10.2184, 66.1859], [-10.2184, 66.1843], [-10.2184, 63.1809], [-8.4184, 63.1809], [-8.4184, 61.9359], [-7.9884, 61.9359], [-7.9884, 61.1059], [-8.4184, 61.1059], [-8.4184, 55.2359], [-7.9884, 55.2359], [-7.9884, 54.4059], [-8.4184, 54.4059], [-8.4184, 52.5959], [-10.2184, 52.5959], [-10.2184, 50.2959], [-8.4184, 50.2959], [-8.4184, 48.5359], [-7.9884, 48.5359], [-7.9884, 47.7059], [-8.4184, 47.7059], [-8.4184, 46.8359], [-8.4184, 41.8359], [-7.9884, 41.8359], [-7.9884, 41.0059], [-8.4184, 41.0059], [-8.4184, 37.8359], [-8.5984, 37.8359], [-8.5984, 35.0359], [-7.9884, 35.0359], [-7.9884, 34.2059], [-8.4184, 34.2059], [-8.4184, 31.3009], [-8.4184, 31.0934], [-8.4184, 28.4359], [-7.9884, 28.4359], [-7.9884, 27.6209], [-7.9884, 27.4909], [-6.6184, 27.4909], [-6.6184, 27.9609], [-6.6184, 62.8634]]]}, "properties": {"room_id": "5.CR3", "building_id": "B1", "floor": 5}}]}