{"type": "FeatureCollection", "features": [{"type": "Feature", "geometry": {"type": "Polygon", "coordinates": [[[-21.9557, 67.1658], [-21.9557, 60.4358], [-18.6507, 60.4358], [-18.6507, 60.9358], [-18.6507, 60.9508], [-18.6507, 61.2208], [-17.9407, 61.2208], [-17.9407, 66.2208], [-18.5507, 66.2208], [-18.5507, 67.0508], [-17.9407, 67.0508], [-17.9407, 67.1658], [-21.9557, 67.1658]]]}, "properties": {"room_id": "B2-103", "building_id": "B2", "floor": 1}}, {"type": "Feature", "geometry": {"type": "Polygon", "coordinates": [[[-15.8907, 67.1558], [-15.8907, 64.2308], [-13.1007, 64.2308], [-13.1007, 65.6908], [-12.9607, 65.6908], [-12.9607, 64.9808], [-10.2707, 64.9808], [-10.2707, 65.5808], [-8.6107, 65.5808], [-8.6107, 67.1558], [-15.8907, 67.1558]]]}, "properties": {"room_id": "1.WC2", "building_id": "B2", "floor": 1}}, {"type": "Feature", "geometry": {"type": "Polygon", "coordinates": [[[-5.0167, 65.5808], [-5.0167, 64.2308], [-1.6007, 64.2308], [-1.6007, 66.2108], [-1.8107, 66.2108], [-1.8107, 67.1558], [-3.2607, 67.1558], [-3.2607, 66.7058], [-3.4007, 66.7058], [-3.4007, 67.1558], [-5.0167, 67.1558], [-5.0167, 66.7058], [-5.1567, 66.7058], [-5.1567, 67.1558], [-6.2707, 67.1558], [-6.2707, 65.5808], [-5.0167, 65.5808]]]}, "properties": {"room_id": "1.WC1", "building_id": "B2", "floor": 1}}, {"type": "Feature", "geometry": {"type": "Polygon", "coordinates": [[[-20.5356, 36.9858], [-20.5356, 37.2108], [-20.5356, 41.5342], [-20.5356, 41.5358], [-28.2057, 41.5358], [-28.6037, 41.5358], [-28.7007, 41.5358], [-28.7507, 41.5358], [-28.7567, 41.5358], [-29.4357, 41.5358], [-29.4357, 31.8858], [-18.5357, 31.8858], [-18.5357, 32.3298], [-18.5357, 32.7358], [-18.5507, 32.7358], [-18.5507, 33.5508], [-18.5507, 36.9858], [-20.5356, 36.9858]], [[-27.7707, 33.5508], [-27.7707, 32.7208], [-28.6007, 32.7208], [-28.6007, 33.5508], [-27.7707, 33.5508]], [[-27.7707, 40.1508], [-27.7707, 39.3208], [-28.6007, 39.3208], [-28.6007, 40.1508], [-27.7707, 40.1508]]]}, "properties": {"room_id": "B2-105", "building_id": "B2", "floor": 1}}, {"type": "Feature", "geometry": {"type": "Polygon", "coordinates": [[[-13.5207, 36.2008], [-13.5207, 35.8908], [-13.5207, 33.4408], [-13.5207, 32.9408], [-8.6008, 32.9408], [-8.6008, 33.5508], [-8.4207, 33.5508], [-8.4207, 36.2008], [-13.5207, 36.2008]]]}, "properties": {"room_id": "ST-02", "building_id": "B2", "floor": 1}}, {"type": "Feature", "geometry": {"type": "Polygon", "coordinates": [[[-14.4357, 36.3108], [-14.4357, 37.0008], [-15.5257, 37.0008], [-17.5257, 37.0008], [-17.7357, 37.0008], [-17.7357, 33.5508], [-17.7357, 32.7208], [-17.7357, 32.5908], [-14.4357, 32.5908], [-14.4357, 36.3108]]]}, "properties": {"room_id": "EV-02", "building_id": "B2", "floor": 1}}, {"type": "Feature", "geometry": {"type": "Polygon", "coordinates": [[[-7.7708, 58.2858], [-7.7708, 58.2708], [-7.7708, 54.7908], [-7.7278, 54.7908], [-6.7007, 54.7908], [-6.4007, 54.7908], [-6.4007, 55.5908], [-6.1952, 55.5908], [-5.5807, 55.5908], [-5.5807, 54.5858], [9.5093, 54.5858], [9.5093, 55.5908], [10.0738, 55.5908], [10.1093, 55.5908], [10.1093, 58.1632], [10.1093, 58.2708], [9.4993, 58.2708], [9.4993, 58.5808], [8.4593, 58.5808], [8.4593, 58.2708], [7.8143, 58.2708], [3.1143, 58.2708], [0.8143, 58.2708], [-3.8857, 58.2708], [-5.5707, 58.2708], [-5.5857, 58.2708], [-6.3857, 58.2708], [-6.4007, 58.2708], [-6.7209, 58.2708], [-6.7209, 58.5808], [-7.7709, 58.5808], [-7.7709, 58.2858], [-7.7708, 58.2858]]]}, "properties": {"room_id": "ST-01", "building_id": "B2", "floor": 1}}, {"type": "Feature", "geometry": {"type": "Polygon", "coordinates": [[[5.4251, 40.6123], [2.3376, 41.1567], [1.331, 40.421], [0.6397, 36.5001], [1.2256, 35.5483], [1.4988, 35.4489], [1.5117, 35.4844], [1.5399, 35.5618], [1.6339, 35.5276], [1.5586, 35.3208], [3.0581, 34.775], [3.1333, 34.9818], [3.2273, 34.9476], [3.1991, 34.8703], [3.1862, 34.8348], [5.2501, 34.0836], [5.6907, 34.0502], [9.5084, 34.7232], [10.1516, 35.768], [10.0117, 36.5615], [9.296, 37.3121], [8.4301, 37.4648], [8.4476, 37.5646], [7.9975, 37.6439], [7.9974, 37.643], [7.0154, 37.8171], [6.9772, 37.6004], [6.8787, 37.6177], [6.893, 37.6987], [6.8996, 37.7362], [6.0442, 38.9457], [6.1657, 39.6512], [5.4251, 40.6123]], [[5.7293, 40.1508], [5.7293, 39.3208], [4.8993, 39.3208], [4.8993, 40.1508], [5.7293, 40.1508]]]}, "properties": {"room_id": "B2-108", "building_id": "B2", "floor": 1}}, {"type": "Feature", "geometry": {"type": "Polygon", "coordinates": [[[-6.1707, 36.3655], [-4.8007, 36.3655], [-4.8007, 35.7655], [-1.2007, 35.7655], [-1.2007, 38.4452], [-6.1707, 38.4452], [-6.1707, 36.3655]]]}, "properties": {"room_id": "1.WC4", "building_id": "B2", "floor": 1}}, {"type": "Feature", "geometry": {"type": "Polygon", "coordinates": [[[-4.8007, 32.6158], [-2.4007, 32.6158], [-2.4007, 33.5605], [-1.2007, 33.5605], [-1.2007, 35.2355], [-4.8007, 35.2355], [-4.8007, 34.4158], [-6.1707, 34.4158], [-6.1707, 32.6158], [-4.9407, 32.6158], [-4.9407, 33.2158], [-4.8007, 33.2158], [-4.8007, 32.6158]]]}, "properties": {"room_id": "1.WC3", "building_id": "B2", "floor": 1}}, {"type": "Feature", "geometry": {"type": "Polygon", "coordinates": [[[-17.7307, 58.2708], [-28.2057, 58.2708], [-28.2057, 53.7008], [-26.8707, 53.7008], [-26.8707, 52.7708], [-28.2057, 52.7708], [-28.2057, 47.0008], [-26.8707, 47.0008], [-26.8707, 46.0708], [-28.2057, 46.0708], [-28.2057, 41.7558], [-20.4256, 41.7558], [-20.3207, 41.7558], [-20.314, 41.7558], [-7.9908, 41.7558], [-7.9908, 46.0708], [-9.6008, 46.0708], [-9.6008, 47.0008], [-7.9908, 47.0008], [-7.9908, 52.7708], [-9.6008, 52.7708], [-9.6008, 53.7008], [-7.9908, 53.7008], [-7.9908, 54.5278], [-7.9908, 54.5658], [-7.9908, 54.6808], [-7.9908, 58.2708], [-8.5859, 58.2708], [-8.6009, 58.2708], [-17.6191, 58.2708], [-17.6259, 58.2708], [-17.7307, 58.2708]]]}, "properties": {"room_id": "B2-104", "building_id": "B2", "floor": 1}}, {"type": "Feature", "geometry": {"type": "Polygon", "coordinates": [[[-1.5757, 63.7258], [-5.0401, 63.7258], [-5.0417, 63.7258], [-5.1483, 63.7258], [-6.1957, 63.7258], [-6.1957, 61.3058], [-5.6855, 61.3058], [-4.4855, 61.3058], [-3.2855, 61.3058], [-2.0855, 61.3058], [-1.5757, 61.3058], [-1.5757, 63.7258]]]}, "properties": {"room_id": "EV-01", "building_id": "B2", "floor": 1}}, {"type": "Feature", "geometry": {"type": "Polygon", "coordinates": [[[-17.6207, 59.9208], [-17.6207, 58.4908], [-8.6009, 58.4908], [-8.6009, 58.8008], [-7.7859, 58.8008], [-7.7709, 58.8008], [-6.6684, 58.8008], [-6.4007, 58.8008], [-6.3857, 58.8008], [-5.5857, 58.8008], [-5.5707, 58.8008], [-3.8857, 58.8008], [0.8143, 58.8008], [3.1143, 58.8008], [7.8143, 58.8008], [8.4068, 58.8008], [9.4993, 58.8008], [9.5143, 58.8008], [10.3293, 58.8008], [10.3293, 58.2648], [10.3309, 58.2648], [11.6993, 58.2648], [11.6993, 58.8008], [12.5293, 58.8008], [12.5293, 58.2648], [12.7683, 58.2648], [13.5596, 58.8543], [13.5729, 58.9297], [13.2324, 58.9898], [13.2897, 59.3147], [13.4966, 59.2783], [13.8499, 61.2824], [13.6431, 61.3188], [13.7004, 61.6438], [14.0409, 61.5838], [14.0531, 61.6528], [13.2498, 62.4472], [12.1056, 62.649], [0.9951, 64.6081], [0.1423, 65.4926], [-0.0765, 66.7334], [-0.6381, 67.3388], [-0.9171, 67.3918], [-0.9707, 67.3918], [-0.9707, 67.0508], [-0.9707, 67.0358], [-0.9707, 66.2208], [-1.0232, 66.2208], [-1.3707, 66.2208], [-1.3707, 64.1683], [-1.3707, 63.9738], [-1.3707, 63.9158], [-1.3707, 63.7242], [-1.3707, 61.0908], [-2.0855, 61.0908], [-2.0855, 61.1008], [-3.2855, 61.1008], [-3.2855, 61.0908], [-4.4855, 61.0908], [-4.4855, 61.1008], [-5.6855, 61.1008], [-5.6855, 61.0908], [-6.4007, 61.0908], [-6.4007, 63.9308], [-5.1467, 63.9308], [-5.1467, 64.1142], [-5.1467, 64.1683], [-5.1467, 65.4508], [-6.4007, 65.4508], [-6.4007, 67.1658], [-6.5227, 67.1658], [-7.5327, 67.1658], [-7.7707, 67.1658], [-7.7707, 67.0508], [-7.7707, 67.0358], [-7.7707, 66.2208], [-8.2007, 66.2208], [-8.2007, 65.4508], [-8.5482, 65.4508], [-10.1407, 65.4508], [-10.1407, 63.9308], [-8.2007, 63.9308], [-8.2007, 61.5058], [-8.2007, 61.5042], [-8.2007, 61.1008], [-10.2007, 61.1008], [-16.0182, 61.1008], [-17.6207, 61.1008], [-17.6207, 60.9508], [-17.6207, 60.8633], [-17.6207, 59.9558], [-17.6207, 59.9208]]]}, "properties": {"room_id": "1.LB1", "building_id": "B2", "floor": 1}}, {"type": "Feature", "geometry": {"type": "Polygon", "coordinates": [[[-12.9607, 64.8408], [-12.9607, 63.9408], [-10.2707, 63.9408], [-10.2707, 64.8408], [-12.9607, 64.8408]]]}, "properties": {"room_id": "1.JC", "building_id": "B2", "floor": 1}}, {"type": "Feature", "geometry": {"type": "Polygon", "coordinates": [[[-8.4307, 63.8008], [-10.1307, 63.8008], [-10.1307, 61.6208], [-8.4307, 61.6208], [-8.4307, 63.8008]]]}, "properties": {"room_id": "1.WC5", "building_id": "B2", "floor": 1}}, {"type": "Feature", "geometry": {"type": "Polygon", "coordinates": [[[-17.1677, 67.1658], [-17.7207, 67.1658], [-17.7207, 67.0508], [-17.7207, 67.0283], [-17.7207, 66.2358], [-17.7207, 66.2208], [-17.7207, 61.3058], [-17.6732, 61.3058], [-16.1207, 61.3058], [-16.1207, 63.8708], [-16.1207, 64.1683], [-16.1207, 67.1658], [-16.1577, 67.1658], [-17.1677, 67.1658]]]}, "properties": {"room_id": "B2-109", "building_id": "B2", "floor": 1}}, {"type": "Feature", "geometry": {"type": "Polygon", "coordinates": [[[10.1093, 52.7358], [-5.415, 52.7358], [-5.415, 41.7558], [10.1093, 41.7558], [10.1093, 52.7358]]]}, "properties": {"room_id": "1.CY", "building_id": "B2", "floor": 1}}, {"type": "Feature", "geometry": {"type": "Polygon", "coordinates": [[[12.1143, 67.0508], [12.5293, 66.6358], [12.1143, 66.2208], [12.1143, 62.749], [13.269, 62.5454], [14.155, 61.6548], [14.1394, 61.5664], [14.0821, 61.2414], [13.9681, 61.2615], [13.6147, 59.2574], [13.7287, 59.2373], [13.6714, 58.9123], [13.6569, 58.8303], [12.7694, 58.1648], [12.5293, 58.1648], [11.6993, 58.1648], [10.3293, 58.1648], [10.3293, 55.5908], [10.3293, 55.5758], [10.3293, 55.453], [10.3293, 55.3008], [10.3293, 55.2858], [10.3293, 54.6678], [10.3293, 54.4648], [-6.7007, 54.4648], [-6.7007, 54.5708], [-7.7708, 54.5708], [-7.7708, 53.7008], [-7.7708, 52.7708], [-7.7708, 47.0008], [-7.7708, 46.0708], [-7.7708, 41.6458], [-7.7708, 40.1508], [-7.7708, 40.1358], [-7.7708, 39.3208], [-8.2007, 39.3208], [-8.2007, 36.4074], [-8.2007, 36.4058], [-8.2157, 36.4058], [-8.2157, 36.3033], [-8.2007, 36.3033], [-8.2007, 33.5508], [-7.7708, 33.5508], [-7.7708, 32.7358], [-7.7708, 32.7208], [-7.7708, 32.2798], [-7.8233, 32.2798], [-18.5357, 32.2798], [-18.5357, 31.8858], [-0.9007, 31.8858], [-0.9007, 32.2798], [-1.0732, 32.2798], [-6.3857, 32.2798], [-6.4007, 32.2798], [-6.4007, 34.6458], [-4.9307, 34.6458], [-4.9307, 35.298], [-4.9307, 35.3521], [-4.9307, 35.6489], [-4.9307, 35.703], [-4.9307, 36.1355], [-6.4007, 36.1355], [-6.4007, 38.6752], [-0.9707, 38.6752], [-0.9707, 35.6552], [-0.9707, 35.6489], [-0.9707, 35.298], [-0.9707, 33.5358], [-0.9707, 32.7358], [-0.9707, 32.7208], [-0.9707, 32.3798], [-0.9007, 32.3798], [-0.9007, 31.8858], [19.9644, 31.8858], [19.9644, 67.8858], [-8.4957, 67.8858], [-15.9157, 67.8858], [-29.4357, 67.8858], [-29.4357, 41.5358], [-28.8067, 41.5358], [-28.8067, 41.7988], [-28.8067, 46.0708], [-28.8067, 47.0008], [-28.8067, 52.7708], [-28.8067, 53.7008], [-28.8067, 58.2278], [-28.8067, 58.4908], [-28.6037, 58.4908], [-28.2057, 58.4908], [-17.8407, 58.4908], [-17.8407, 58.4924], [-17.8407, 59.9208], [-18.6507, 59.9208], [-18.6507, 60.2158], [-22.1757, 60.2158], [-22.1757, 67.4918], [-22.0657, 67.4918], [-17.1677, 67.4918], [-17.1677, 67.3858], [-16.1577, 67.3858], [-16.1577, 67.4918], [-7.5327, 67.4918], [-7.5327, 67.3858], [-6.5227, 67.3858], [-6.5227, 67.4918], [-1.0232, 67.4918], [-0.9156, 67.4918], [-0.6041, 67.4328], [-0.6211, 67.3858], [12.1143, 67.3858], [12.1143, 67.0508]], [[5.7293, 33.5508], [5.7293, 32.7208], [4.8993, 32.7208], [4.8993, 33.5508], [5.7293, 33.5508]], [[-0.9707, 40.1508], [-0.9707, 39.3208], [-1.8007, 39.3208], [-1.8007, 40.1508], [-0.9707, 40.1508]], [[-27.7707, 60.3508], [-27.7707, 59.5208], [-28.6007, 59.5208], [-28.6007, 60.3508], [-27.7707, 60.3508]], [[-27.7707, 67.0508], [-27.7707, 66.2208], [-28.6007, 66.2208], [-28.6007, 67.0508], [-27.7707, 67.0508]], [[2.353, 41.2555], [5.4425, 40.7107], [6.265, 39.6384], [6.1431, 38.9311], [6.9658, 37.825], [6.9662, 37.8258], [7.0153, 37.8171], [7.9975, 37.6439], [8.3462, 37.5825], [8.5461, 37.5472], [8.5459, 37.5459], [9.3148, 37.4104], [10.1104, 36.578], [10.2499, 35.786], [9.5307, 34.6256], [5.7063, 33.9514], [5.2187, 33.9886], [3.1191, 34.7528], [3.105, 34.7579], [2.9613, 34.8103], [1.6554, 35.2856], [1.6156, 35.3], [1.5116, 35.3379], [1.1914, 35.4544], [0.5407, 36.5147], [1.2326, 40.4384], [2.353, 41.2555]], [[-5.415, 52.7358], [10.1093, 52.7358], [10.1093, 41.7558], [-5.415, 41.7558], [-5.415, 52.7358]]]}, "properties": {"room_id": "1.TR", "building_id": "B2", "floor": 1}}, {"type": "Feature", "geometry": {"type": "Polygon", "coordinates": [[[-7.9908, 41.5358], [-20.3156, 41.5358], [-20.3156, 37.2158], [-18.2952, 37.2158], [-17.9837, 37.2158], [-17.5257, 37.2158], [-17.5257, 37.2058], [-15.5257, 37.2058], [-15.5257, 37.2158], [-14.4507, 37.2158], [-14.4507, 39.7908], [-8.6008, 39.7908], [-8.6008, 40.1508], [-7.9908, 40.1508], [-7.9908, 41.5358]], [[-17.6207, 40.1508], [-17.6207, 39.1208], [-18.6507, 39.1208], [-18.6507, 40.1508], [-17.6207, 40.1508]]]}, "properties": {"room_id": "1.LB2", "building_id": "B2", "floor": 1}}, {"type": "Feature", "geometry": {"type": "Polygon", "coordinates": [[[11.6993, 66.6358], [12.1143, 67.0508], [12.1143, 67.3858], [-0.4947, 67.3858], [0.0212, 66.7554], [0.2408, 65.51], [1.0143, 64.7062], [12.1143, 62.749], [12.1143, 66.2208], [11.6993, 66.6358]], [[5.7293, 67.0508], [5.7293, 66.2208], [4.8993, 66.2208], [4.8993, 67.0508], [5.7293, 67.0508]]]}, "properties": {"room_id": "P", "building_id": "B2", "floor": 1}}, {"type": "Feature", "geometry": {"type": "Polygon", "coordinates": [[[-18.5507, 67.1658], [-27.7707, 67.1658], [-27.7707, 67.0508], [-27.7707, 67.0358], [-27.7707, 66.2208], [-28.5857, 66.2208], [-28.6007, 66.2208], [-28.7157, 66.2208], [-28.7157, 60.3508], [-28.6007, 60.3508], [-28.5857, 60.3508], [-27.7707, 60.3508], [-27.7707, 59.5358], [-27.7707, 59.5208], [-27.7707, 58.5908], [-12.4157, 58.5908], [-12.4157, 61.1008], [-16.0182, 61.1008], [-17.6207, 61.1008], [-17.6207, 60.9358], [-17.6207, 59.9208], [-18.6507, 59.9208], [-18.6507, 60.9508], [-17.9407, 60.9508], [-17.9407, 61.1008], [-17.9407, 61.2033], [-17.9407, 66.2208], [-18.5507, 66.2208], [-18.5507, 67.0358], [-18.5507, 67.0508], [-18.5507, 67.1658]]]}, "properties": {"room_id": "B2-203", "building_id": "B2", "floor": 2}}, {"type": "Feature", "geometry": {"type": "Polygon", "coordinates": [[[-15.8907, 67.1558], [-15.8907, 64.2308], [-13.1007, 64.2308], [-13.1007, 65.6908], [-12.9607, 65.6908], [-12.9607, 64.9808], [-10.2707, 64.9808], [-10.2707, 65.5808], [-8.6107, 65.5808], [-8.6107, 67.1558], [-15.8907, 67.1558]]]}, "properties": {"room_id": "2.WC2", "building_id": "B2", "floor": 2}}, {"type": "Feature", "geometry": {"type": "Polygon", "coordinates": [[[-1.3707, 63.7242], [-1.3707, 61.3208], [10.3143, 61.3208], [12.9443, 61.3208], [12.9443, 63.1758], [12.9443, 66.2208], [12.5293, 66.2208], [12.5143, 66.2208], [11.6993, 66.2208], [11.6993, 67.0358], [11.6993, 67.0508], [11.6993, 67.1658], [5.7293, 67.1658], [5.7293, 67.0508], [5.7293, 67.0358], [5.7293, 66.2208], [4.8993, 66.2208], [4.8993, 67.0358], [4.8993, 67.0508], [4.8993, 67.1658], [-0.9707, 67.1658], [-0.9707, 67.0508], [-0.9707, 66.2733], [-0.9707, 66.2208], [-1.0232, 66.2208], [-1.3707, 66.2208], [-1.3707, 64.1683], [-1.3707, 63.9738], [-1.3707, 63.9158], [-1.3707, 63.7242]]]}, "properties": {"room_id": "B2-204", "building_id": "B2", "floor": 2}}, {"type": "Feature", "geometry": {"type": "Polygon", "coordinates": [[[19.2443, 63.2858], [19.2443, 66.2208], [19.1293, 66.2208], [19.1143, 66.2208], [18.2993, 66.2208], [18.2993, 67.0358], [18.2993, 67.0508], [18.2993, 67.1658], [13.1643, 67.1658], [13.1643, 66.2733], [13.1643, 63.2858], [14.7743, 63.2858], [19.2443, 63.2858]]]}, "properties": {"room_id": "B2-205", "building_id": "B2", "floor": 2}}, {"type": "Feature", "geometry": {"type": "Polygon", "coordinates": [[[19.2443, 60.3508], [19.2443, 63.0658], [14.8843, 63.0658], [14.8843, 60.0458], [18.2993, 60.0458], [18.2993, 60.3508], [19.1143, 60.3508], [19.1293, 60.3508], [19.2443, 60.3508]]]}, "properties": {"room_id": "B2-206", "building_id": "B2", "floor": 2}}, {"type": "Feature", "geometry": {"type": "Polygon", "coordinates": [[[19.2443, 56.6958], [19.2443, 59.5208], [19.1293, 59.5208], [19.1143, 59.5208], [18.2993, 59.5208], [18.2993, 59.8258], [14.8843, 59.8258], [14.8843, 56.6958], [19.2443, 56.6958]]]}, "properties": {"room_id": "B2-207", "building_id": "B2", "floor": 2}}, {"type": "Feature", "geometry": {"type": "Polygon", "coordinates": [[[19.2443, 53.6508], [19.2443, 56.4758], [14.8843, 56.4758], [14.8843, 53.3458], [18.2993, 53.3458], [18.2993, 53.6508], [19.1143, 53.6508], [19.1293, 53.6508], [19.2443, 53.6508]]]}, "properties": {"room_id": "B2-208", "building_id": "B2", "floor": 2}}, {"type": "Feature", "geometry": {"type": "Polygon", "coordinates": [[[19.2443, 49.9958], [19.2443, 52.8208], [19.1293, 52.8208], [19.1143, 52.8208], [18.2993, 52.8208], [18.2993, 53.1258], [14.8843, 53.1258], [14.8843, 49.9958], [19.2443, 49.9958]]]}, "properties": {"room_id": "B2-209", "building_id": "B2", "floor": 2}}, {"type": "Feature", "geometry": {"type": "Polygon", "coordinates": [[[19.2443, 46.9508], [19.2443, 49.7758], [14.8843, 49.7758], [14.8843, 46.6458], [18.2993, 46.6458], [18.2993, 46.9508], [19.1143, 46.9508], [19.1293, 46.9508], [19.2443, 46.9508]]]}, "properties": {"room_id": "B2-210", "building_id": "B2", "floor": 2}}, {"type": "Feature", "geometry": {"type": "Polygon", "coordinates": [[[19.2443, 43.2958], [19.2443, 46.1208], [19.1293, 46.1208], [19.1143, 46.1208], [18.2993, 46.1208], [18.2993, 46.4258], [14.8843, 46.4258], [14.8843, 43.2958], [19.2443, 43.2958]]]}, "properties": {"room_id": "B2-212", "building_id": "B2", "floor": 2}}, {"type": "Feature", "geometry": {"type": "Polygon", "coordinates": [[[19.2443, 40.1508], [19.2443, 43.0758], [14.8843, 43.0758], [14.8843, 42.7774], [14.8843, 42.7318], [14.8843, 42.6658], [14.8843, 39.9458], [18.2993, 39.9458], [18.2993, 40.1508], [19.1143, 40.1508], [19.1293, 40.1508], [19.2443, 40.1508]]]}, "properties": {"room_id": "B2-213", "building_id": "B2", "floor": 2}}, {"type": "Feature", "geometry": {"type": "Polygon", "coordinates": [[[19.2443, 36.8158], [19.2443, 39.3485], [19.1293, 39.3485], [18.3518, 39.3485], [18.3518, 39.3208], [18.2993, 39.3208], [18.2993, 39.7258], [14.8843, 39.7258], [14.8843, 36.8158], [19.2443, 36.8158]]]}, "properties": {"room_id": "B2-214", "building_id": "B2", "floor": 2}}, {"type": "Feature", "geometry": {"type": "Polygon", "coordinates": [[[14.8843, 32.6058], [18.2993, 32.6058], [18.2993, 32.7208], [18.2993, 32.7358], [18.2993, 33.5508], [19.1143, 33.5508], [19.1293, 33.5508], [19.2443, 33.5508], [19.2443, 36.5958], [14.8843, 36.5958], [14.8843, 35.1558], [14.8843, 32.6058]]]}, "properties": {"room_id": "B2-215", "building_id": "B2", "floor": 2}}, {"type": "Feature", "geometry": {"type": "Polygon", "coordinates": [[[12.5293, 32.6058], [14.6643, 32.6058], [14.6643, 35.0458], [11.9193, 35.0458], [11.9193, 33.5508], [12.5293, 33.5508], [12.5293, 32.7358], [12.5293, 32.7208], [12.5293, 32.6058]]]}, "properties": {"room_id": "B2-216", "building_id": "B2", "floor": 2}}, {"type": "Feature", "geometry": {"type": "Polygon", "coordinates": [[[11.6993, 38.4552], [-0.9707, 38.4552], [-0.9707, 35.6552], [-0.9707, 35.6489], [-0.9707, 35.298], [-0.9707, 33.5358], [-0.9707, 32.7358], [-0.9707, 32.7208], [-0.9707, 32.6058], [4.8993, 32.6058], [4.8993, 32.7208], [4.8993, 32.7358], [4.8993, 33.5508], [5.7293, 33.5508], [5.7293, 32.7358], [5.7293, 32.7208], [5.7293, 32.6058], [8.5493, 32.6058], [8.9593, 32.6058], [11.6993, 32.6058], [11.6993, 32.6074], [11.6993, 32.7208], [11.6993, 33.5508], [11.6993, 35.1558], [11.6993, 38.4552]]]}, "properties": {"room_id": "B2-217", "building_id": "B2", "floor": 2}}, {"type": "Feature", "geometry": {"type": "Polygon", "coordinates": [[[13.1643, 63.0658], [13.1643, 61.1008], [10.3143, 61.1008], [10.3143, 58.8008], [10.3143, 58.6983], [10.3293, 58.6983], [10.3293, 58.2858], [10.3293, 58.2708], [10.3293, 55.5908], [10.3293, 55.3008], [10.3293, 55.2858], [10.3293, 54.6948], [12.5644, 54.6948], [12.5644, 53.6508], [12.5644, 52.8208], [12.5644, 46.9508], [12.5644, 46.1208], [12.5644, 42.7758], [14.6643, 42.7758], [14.6643, 43.1858], [14.6643, 46.5358], [14.6643, 49.8858], [14.6643, 53.2358], [14.6643, 56.5858], [14.6643, 59.9358], [14.6643, 63.0658], [13.1643, 63.0658]], [[11.6993, 58.8008], [12.5293, 58.8008], [12.5293, 58.2708], [11.6993, 58.2708], [11.6993, 58.8008]]]}, "properties": {"room_id": "2.CR4", "building_id": "B2", "floor": 2}}, {"type": "Feature", "geometry": {"type": "Polygon", "coordinates": [[[-22.3708, 36.9858], [-22.3708, 32.6058], [-18.5507, 32.6058], [-18.5507, 32.7208], [-18.5507, 32.7358], [-18.5507, 33.5508], [-17.9407, 33.5508], [-17.9407, 36.9858], [-18.7007, 36.9858], [-22.3708, 36.9858]]]}, "properties": {"room_id": "B2-220", "building_id": "B2", "floor": 2}}, {"type": "Feature", "geometry": {"type": "Polygon", "coordinates": [[[-22.5907, 37.0958], [-22.5907, 41.5358], [-28.7157, 41.5358], [-28.7157, 40.1508], [-28.6007, 40.1508], [-28.5857, 40.1508], [-27.7707, 40.1508], [-27.7707, 39.3208], [-28.5857, 39.3208], [-28.6007, 39.3208], [-28.7157, 39.3208], [-28.7157, 33.5508], [-28.6007, 33.5508], [-28.5857, 33.5508], [-27.7707, 33.5508], [-27.7707, 32.7358], [-27.7707, 32.7208], [-27.7707, 32.6058], [-22.5907, 32.6058], [-22.5907, 37.0958]]]}, "properties": {"room_id": "B2-221", "building_id": "B2", "floor": 2}}, {"type": "Feature", "geometry": {"type": "Polygon", "coordinates": [[[-6.1807, 58.2708], [-6.1807, 55.5908], [-5.5807, 55.5908], [-5.5807, 54.5858], [9.5093, 54.5858], [9.5093, 55.5908], [10.1093, 55.5908], [10.1093, 58.2708], [9.5143, 58.2708], [9.4993, 58.2708], [7.8143, 58.2708], [3.1143, 58.2708], [0.8143, 58.2708], [-3.8857, 58.2708], [-5.3532, 58.2708], [-5.5707, 58.2708], [-5.5857, 58.2708], [-6.1807, 58.2708]]]}, "properties": {"room_id": "ST-01", "building_id": "B2", "floor": 2}}, {"type": "Feature", "geometry": {"type": "Polygon", "coordinates": [[[-9.9857, 58.2808], [-9.9857, 54.8058], [-8.3958, 54.8058], [-7.7708, 54.8058], [-7.7708, 54.0306], [-6.4007, 54.0306], [-6.4007, 54.5858], [-6.3857, 54.5858], [-6.3857, 58.2808], [-6.4007, 58.2808], [-7.7709, 58.2808], [-8.6009, 58.2808], [-9.9857, 58.2808]]]}, "properties": {"room_id": "2.CR3", "building_id": "B2", "floor": 2}}, {"type": "Feature", "geometry": {"type": "Polygon", "coordinates": [[[-2.0855, 61.0908], [-2.0855, 61.1008], [-3.2855, 61.1008], [-3.2855, 61.0908], [-4.4855, 61.0908], [-4.4855, 61.1008], [-5.6855, 61.1008], [-5.6855, 61.0908], [-6.4007, 61.0908], [-6.4007, 63.9308], [-5.1467, 63.9308], [-5.1467, 64.1142], [-5.1467, 64.1683], [-5.1467, 65.4508], [-6.4007, 65.4508], [-6.4007, 67.1658], [-7.7707, 67.1658], [-7.7707, 67.0508], [-7.7707, 67.0358], [-7.7707, 66.2208], [-8.2007, 66.2208], [-8.2007, 65.4508], [-8.5482, 65.4508], [-10.1407, 65.4508], [-10.1407, 63.9308], [-8.2007, 63.9308], [-8.2007, 61.5058], [-8.2007, 61.5042], [-8.2007, 61.1008], [-10.2007, 61.1008], [-12.0957, 61.1008], [-12.0957, 58.4908], [-10.0957, 58.4908], [-9.9857, 58.4908], [-9.9857, 58.2808], [-9.9841, 58.2808], [-8.6009, 58.2808], [-8.6009, 58.8008], [-7.7709, 58.8008], [-7.7709, 58.2808], [-6.4007, 58.2808], [-6.4007, 58.8008], [-5.5857, 58.8008], [-5.5707, 58.8008], [-5.3532, 58.8008], [-3.8857, 58.8008], [0.8143, 58.8008], [3.1143, 58.8008], [7.8143, 58.8008], [9.4993, 58.8008], [9.5143, 58.8008], [10.3143, 58.8008], [10.3143, 61.1008], [-1.3707, 61.1008], [-1.3707, 61.0908], [-2.0855, 61.0908]]]}, "properties": {"room_id": "2.CR1", "building_id": "B2", "floor": 2}}, {"type": "Feature", "geometry": {"type": "Polygon", "coordinates": [[[12.2943, 41.7558], [12.2943, 42.7758], [12.5644, 42.7758], [12.5644, 46.1208], [11.6993, 46.1208], [11.6993, 46.9508], [12.5644, 46.9508], [12.5644, 52.8208], [11.6993, 52.8208], [11.6993, 53.6508], [12.5644, 53.6508], [12.5644, 54.5708], [10.3293, 54.5708], [10.3293, 41.7558], [12.2943, 41.7558]]]}, "properties": {"room_id": "B2-211", "building_id": "B2", "floor": 2}}, {"type": "Feature", "geometry": {"type": "Polygon", "coordinates": [[[-5.0167, 65.5808], [-5.0167, 64.2308], [-1.6007, 64.2308], [-1.6007, 66.2108], [-1.8107, 66.2108], [-1.8107, 67.1558], [-3.2607, 67.1558], [-3.2607, 66.7058], [-3.4007, 66.7058], [-3.4007, 67.1558], [-5.0167, 67.1558], [-5.0167, 66.7058], [-5.1567, 66.7058], [-5.1567, 67.1558], [-6.2707, 67.1558], [-6.2707, 65.5808], [-5.0167, 65.5808]]]}, "properties": {"room_id": "2.WC1", "building_id": "B2", "floor": 2}}, {"type": "Feature", "geometry": {"type": "Polygon", "coordinates": [[[-12.9607, 64.8408], [-12.9607, 63.9408], [-10.2707, 63.9408], [-10.2707, 64.8408], [-12.9607, 64.8408]]]}, "properties": {"room_id": "2.JC", "building_id": "B2", "floor": 2}}, {"type": "Feature", "geometry": {"type": "Polygon", "coordinates": [[[-8.4307, 63.8008], [-10.1307, 63.8008], [-10.1307, 61.6208], [-8.4307, 61.6208], [-8.4307, 63.8008]]]}, "properties": {"room_id": "2.WC5", "building_id": "B2", "floor": 2}}, {"type": "Feature", "geometry": {"type": "Polygon", "coordinates": [[[-6.1707, 36.3655], [-4.8007, 36.3655], [-4.8007, 35.7655], [-1.2007, 35.7655], [-1.2007, 38.4452], [-6.1707, 38.4452], [-6.1707, 36.3655]]]}, "properties": {"room_id": "2.WC4", "building_id": "B2", "floor": 2}}, {"type": "Feature", "geometry": {"type": "Polygon", "coordinates": [[[-4.8007, 33.2158], [-4.8007, 32.6158], [-2.4007, 32.6158], [-2.4007, 33.5605], [-1.2007, 33.5605], [-1.2007, 35.2355], [-4.8007, 35.2355], [-4.8007, 34.4158], [-6.1707, 34.4158], [-6.1707, 32.6158], [-4.9407, 32.6158], [-4.9407, 33.2158], [-4.8007, 33.2158]]]}, "properties": {"room_id": "2.WC3", "building_id": "B2", "floor": 2}}, {"type": "Feature", "geometry": {"type": "Polygon", "coordinates": [[[-17.5257, 37.2158], [-17.5257, 37.2058], [-15.5257, 37.2058], [-15.5257, 37.2158], [-14.4507, 37.2158], [-14.4507, 39.7908], [-8.6007, 39.7908], [-8.6007, 40.1508], [-7.7707, 40.1508], [-7.7707, 39.3208], [-8.2007, 39.3208], [-8.2007, 36.4074], [-8.2007, 36.3033], [-8.2007, 33.5508], [-7.7708, 33.5508], [-7.7708, 32.7358], [-7.7708, 32.7208], [-7.7708, 32.6058], [-6.4007, 32.6058], [-6.4007, 34.6458], [-4.9307, 34.6458], [-4.9307, 35.298], [-4.9307, 35.3521], [-4.9307, 35.6489], [-4.9307, 35.703], [-4.9307, 36.1355], [-6.4007, 36.1355], [-6.4007, 38.6752], [-1.0807, 38.6752], [-0.9691, 38.6752], [11.9193, 38.6752], [11.9193, 35.2658], [14.6643, 35.2658], [14.6643, 36.7058], [14.6643, 39.8358], [14.6643, 42.5558], [14.6627, 42.5558], [12.5644, 42.5558], [12.5143, 42.5558], [12.5143, 41.7558], [12.5143, 41.5358], [10.3293, 41.5358], [10.2873, 41.5358], [-6.4007, 41.5358], [-6.4007, 41.7558], [-6.4007, 48.1732], [-6.4007, 53.8106], [-7.7708, 53.8106], [-7.7708, 52.7708], [-8.2858, 52.7708], [-8.2858, 47.0008], [-7.7708, 47.0008], [-7.7708, 46.0708], [-8.2858, 46.0708], [-8.2858, 41.5358], [-22.3708, 41.5358], [-22.3708, 37.2058], [-18.7007, 37.2058], [-18.7007, 37.2158], [-17.5257, 37.2158]], [[12.5293, 40.1508], [12.5293, 39.3208], [11.6993, 39.3208], [11.6993, 40.1508], [12.5293, 40.1508]], [[5.7293, 40.1508], [5.7293, 39.3208], [4.8993, 39.3208], [4.8993, 40.1508], [5.7293, 40.1508]], [[-0.9707, 40.1508], [-0.9707, 39.3208], [-1.8007, 39.3208], [-1.8007, 40.1508], [-0.9707, 40.1508]], [[-17.6207, 40.1508], [-17.6207, 39.1208], [-18.6507, 39.1208], [-18.6507, 40.1508], [-17.6207, 40.1508]]]}, "properties": {"room_id": "2.CR5", "building_id": "B2", "floor": 2}}, {"type": "Feature", "geometry": {"type": "Polygon", "coordinates": [[[-17.7207, 67.1658], [-17.7207, 67.0508], [-17.7207, 67.0358], [-17.7207, 67.0283], [-17.7207, 66.2358], [-17.7207, 66.2208], [-17.7207, 61.3058], [-17.6732, 61.3058], [-16.1207, 61.3058], [-16.1207, 63.8708], [-16.1207, 64.1683], [-16.1207, 67.1658], [-17.7207, 67.1658]]]}, "properties": {"room_id": "222", "building_id": "B2", "floor": 2}}, {"type": "Feature", "geometry": {"type": "Polygon", "coordinates": [[[-13.5207, 36.2008], [-13.5207, 35.8908], [-13.5207, 33.4408], [-13.5207, 32.9408], [-8.6008, 32.9408], [-8.6008, 33.4983], [-8.6008, 33.5508], [-8.4207, 33.5508], [-8.4207, 36.2008], [-13.5207, 36.2008]]]}, "properties": {"room_id": "ST-02", "building_id": "B2", "floor": 2}}, {"type": "Feature", "geometry": {"type": "Polygon", "coordinates": [[[-14.4357, 36.3108], [-14.4357, 37.0008], [-15.5257, 37.0008], [-17.5257, 37.0008], [-17.7357, 37.0008], [-17.7357, 33.5508], [-17.7357, 32.7208], [-17.7357, 32.5908], [-14.4357, 32.5908], [-14.4357, 36.3108]]]}, "properties": {"room_id": "EV-02", "building_id": "B2", "floor": 2}}, {"type": "Feature", "geometry": {"type": "Polygon", "coordinates": [[[-1.5757, 63.7258], [-5.0401, 63.7258], [-5.0417, 63.7258], [-5.1483, 63.7258], [-6.1957, 63.7258], [-6.1957, 61.3058], [-5.6855, 61.3058], [-4.4855, 61.3058], [-3.2855, 61.3058], [-2.0855, 61.3058], [-1.5757, 61.3058], [-1.5757, 63.7258]]]}, "properties": {"room_id": "EV-01", "building_id": "B2", "floor": 2}}, {"type": "Feature", "geometry": {"type": "Polygon", "coordinates": [[[-18.5507, 67.1658], [-27.7707, 67.1658], [-27.7707, 67.0508], [-27.7707, 66.2208], [-28.6007, 66.2208], [-28.7157, 66.2208], [-28.7157, 61.3208], [-18.5982, 61.3208], [-17.9407, 61.3208], [-17.9407, 66.2208], [-18.5507, 66.2208], [-18.5507, 67.0358], [-18.5507, 67.0508], [-18.5507, 67.1658]]]}, "properties": {"room_id": "B2-326", "building_id": "B2", "floor": 3}}, {"type": "Feature", "geometry": {"type": "Polygon", "coordinates": [[[-1.3707, 63.7242], [-1.3707, 61.3208], [1.7453, 61.3208], [1.7453, 67.1658], [-0.9707, 67.1658], [-0.9707, 67.0508], [-0.9707, 66.2208], [-1.3707, 66.2208], [-1.3707, 64.1683], [-1.3707, 63.9738], [-1.3707, 63.9158], [-1.3707, 63.7242]]]}, "properties": {"room_id": "B2-303", "building_id": "B2", "floor": 3}}, {"type": "Feature", "geometry": {"type": "Polygon", "coordinates": [[[12.8443, 61.4208], [12.8443, 63.1758], [12.8443, 66.2208], [12.5293, 66.2208], [12.5143, 66.2208], [11.6993, 66.2208], [11.6993, 67.0358], [11.6993, 67.0508], [11.6993, 67.1658], [5.7293, 67.1658], [5.7293, 67.0508], [5.7293, 66.2208], [4.8993, 66.2208], [4.8993, 67.0508], [4.8993, 67.1658], [2.0653, 67.1658], [2.0653, 61.4208], [12.8443, 61.4208]]]}, "properties": {"room_id": "B2-304", "building_id": "B2", "floor": 3}}, {"type": "Feature", "geometry": {"type": "Polygon", "coordinates": [[[19.2443, 63.2858], [19.2443, 66.2208], [19.1293, 66.2208], [18.2993, 66.2208], [18.2993, 67.0508], [18.2993, 67.1658], [13.1643, 67.1658], [13.1643, 66.2733], [13.1643, 63.2858], [14.7743, 63.2858], [19.2443, 63.2858]]]}, "properties": {"room_id": "B2-307", "building_id": "B2", "floor": 3}}, {"type": "Feature", "geometry": {"type": "Polygon", "coordinates": [[[19.2443, 60.3508], [19.2443, 63.0658], [14.8843, 63.0658], [14.8843, 60.0458], [18.0093, 60.0458], [18.0093, 60.3508], [18.2993, 60.3508], [19.1293, 60.3508], [19.2443, 60.3508]]]}, "properties": {"room_id": "B2-308", "building_id": "B2", "floor": 3}}, {"type": "Feature", "geometry": {"type": "Polygon", "coordinates": [[[19.2443, 56.6958], [19.2443, 59.5208], [19.1293, 59.5208], [18.2993, 59.5208], [18.0093, 59.5208], [18.0093, 59.8258], [14.8843, 59.8258], [14.8843, 56.6958], [19.2443, 56.6958]]]}, "properties": {"room_id": "B2-309", "building_id": "B2", "floor": 3}}, {"type": "Feature", "geometry": {"type": "Polygon", "coordinates": [[[19.2443, 53.6508], [19.2443, 56.4758], [14.8843, 56.4758], [14.8843, 53.7308], [14.8843, 53.5858], [14.8843, 53.5778], [14.8843, 53.3458], [18.2993, 53.3458], [18.2993, 53.6508], [19.1293, 53.6508], [19.2443, 53.6508]]]}, "properties": {"room_id": "B2-310", "building_id": "B2", "floor": 3}}, {"type": "Feature", "geometry": {"type": "Polygon", "coordinates": [[[19.2443, 49.9958], [19.2443, 52.8208], [19.1293, 52.8208], [18.2993, 52.8208], [18.2993, 53.1258], [14.8843, 53.1258], [14.8843, 49.9958], [19.2443, 49.9958]]]}, "properties": {"room_id": "B2-312", "building_id": "B2", "floor": 3}}, {"type": "Feature", "geometry": {"type": "Polygon", "coordinates": [[[19.2443, 46.9508], [19.2443, 49.7758], [14.8843, 49.7758], [14.8843, 46.6458], [18.2993, 46.6458], [18.2993, 46.9508], [19.1293, 46.9508], [19.2443, 46.9508]]]}, "properties": {"room_id": "B2-313", "building_id": "B2", "floor": 3}}, {"type": "Feature", "geometry": {"type": "Polygon", "coordinates": [[[19.2443, 43.2958], [19.2443, 46.1208], [19.1293, 46.1208], [18.2993, 46.1208], [18.2993, 46.4258], [14.8843, 46.4258], [14.8843, 43.2958], [19.2443, 43.2958]]]}, "properties": {"room_id": "B2-314", "building_id": "B2", "floor": 3}}, {"type": "Feature", "geometry": {"type": "Polygon", "coordinates": [[[19.2443, 40.1508], [19.2443, 43.0758], [14.8843, 43.0758], [14.8843, 41.7458], [14.8843, 39.9458], [18.2993, 39.9458], [18.2993, 40.1508], [19.1293, 40.1508], [19.2443, 40.1508]]]}, "properties": {"room_id": "B2-315", "building_id": "B2", "floor": 3}}, {"type": "Feature", "geometry": {"type": "Polygon", "coordinates": [[[19.2443, 35.7358], [19.2443, 39.3708], [19.1293, 39.3708], [19.1293, 39.3208], [18.2993, 39.3208], [18.2993, 39.7258], [14.8843, 39.7258], [14.8843, 35.7358], [19.2443, 35.7358]]]}, "properties": {"room_id": "B2-316", "building_id": "B2", "floor": 3}}, {"type": "Feature", "geometry": {"type": "Polygon", "coordinates": [[[12.8643, 32.6058], [18.2993, 32.6058], [18.2993, 32.7208], [18.2993, 33.5508], [19.1293, 33.5508], [19.2443, 33.5508], [19.2443, 35.5158], [14.7743, 35.5158], [12.8643, 35.5158], [12.8643, 33.4983], [12.8643, 32.6058]]]}, "properties": {"room_id": "B2-317", "building_id": "B2", "floor": 3}}, {"type": "Feature", "geometry": {"type": "Polygon", "coordinates": [[[12.6443, 37.0558], [12.6443, 39.5158], [12.5293, 39.5158], [12.5293, 39.3208], [11.6993, 39.3208], [11.6993, 39.5158], [8.6593, 39.5158], [8.6593, 37.0558], [12.6443, 37.0558]]]}, "properties": {"room_id": "B2-319", "building_id": "B2", "floor": 3}}, {"type": "Feature", "geometry": {"type": "Polygon", "coordinates": [[[12.6443, 35.6258], [12.6443, 36.8358], [8.6593, 36.8358], [8.6593, 32.6058], [8.9593, 32.6058], [11.6993, 32.6058], [11.6993, 32.7208], [11.6993, 33.5508], [12.5293, 33.5508], [12.6443, 33.5508], [12.6443, 35.6258]]]}, "properties": {"room_id": "B2-318", "building_id": "B2", "floor": 3}}, {"type": "Feature", "geometry": {"type": "Polygon", "coordinates": [[[-27.8232, 38.8659], [-28.7157, 38.8659], [-28.7157, 33.5508], [-28.6007, 33.5508], [-27.7707, 33.5508], [-27.7707, 32.7208], [-27.7707, 32.6058], [-22.4808, 32.6058], [-18.5507, 32.6058], [-18.5507, 32.7208], [-18.5507, 33.5358], [-18.5507, 33.5508], [-17.9407, 33.5508], [-17.9407, 37.1033], [-17.9407, 38.8659], [-18.6507, 38.8659], [-27.8232, 38.8659]]]}, "properties": {"room_id": "B2-323", "building_id": "B2", "floor": 3}}, {"type": "Feature", "geometry": {"type": "Polygon", "coordinates": [[[-17.7207, 46.7558], [-10.3182, 46.7558], [-9.6007, 46.7558], [-9.6007, 47.0008], [-8.6007, 47.0008], [-8.6007, 52.7708], [-9.6007, 52.7708], [-9.6007, 53.0158], [-10.3182, 53.0158], [-17.7207, 53.0158], [-17.7207, 52.8208], [-18.1157, 52.8208], [-18.1157, 46.9508], [-17.7207, 46.9508], [-17.7207, 46.7558]]]}, "properties": {"room_id": "B2-324", "building_id": "B2", "floor": 3}}, {"type": "Feature", "geometry": {"type": "Polygon", "coordinates": [[[12.5143, 41.5358], [10.3309, 41.5358], [10.3293, 41.5358], [10.2873, 41.5358], [10.2193, 41.5358], [-5.3855, 41.5358], [-5.3855, 38.6752], [-1.8007, 38.6752], [-1.8007, 39.3208], [-1.8007, 40.1508], [-0.9707, 40.1508], [-0.9707, 39.7358], [4.8993, 39.7358], [4.8993, 40.1508], [5.7293, 40.1508], [5.7293, 39.7358], [8.5493, 39.7358], [11.6993, 39.7358], [11.6993, 40.1508], [12.5293, 40.1508], [12.5293, 39.7358], [12.8643, 39.7358], [12.8643, 36.9458], [12.8643, 35.7358], [14.6643, 35.7358], [14.6643, 39.8358], [14.6643, 41.7458], [14.6643, 43.1858], [14.6643, 46.5358], [14.6643, 49.8858], [14.6643, 53.2358], [14.6643, 53.6208], [12.5293, 53.6208], [12.5293, 52.8733], [12.5143, 52.8733], [12.5143, 52.8208], [12.5143, 46.9508], [12.5143, 46.1208], [12.5143, 41.5358]]]}, "properties": {"room_id": "3.CR4", "building_id": "B2", "floor": 3}}, {"type": "Feature", "geometry": {"type": "Polygon", "coordinates": [[[-2.0855, 61.0908], [-2.0855, 61.1008], [-3.2855, 61.1008], [-3.2855, 61.0908], [-4.4855, 61.0908], [-4.4855, 61.1008], [-5.6855, 61.1008], [-5.6855, 61.0908], [-6.4007, 61.0908], [-6.4007, 63.9308], [-5.1467, 63.9308], [-5.1467, 64.1142], [-5.1467, 64.1683], [-5.1467, 65.4508], [-6.4007, 65.4508], [-6.4007, 67.1658], [-7.7707, 67.1658], [-7.7707, 67.0508], [-7.7707, 67.0358], [-7.7707, 66.2208], [-8.2007, 66.2208], [-8.2007, 65.4508], [-8.5482, 65.4508], [-10.1407, 65.4508], [-10.1407, 63.9308], [-8.2007, 63.9308], [-8.2007, 61.5058], [-8.2007, 61.5042], [-8.2007, 61.1008], [-10.2007, 61.1008], [-10.2357, 61.1008], [-10.2357, 60.8483], [-10.2357, 53.7008], [-9.6007, 53.7008], [-8.7857, 53.7008], [-7.7707, 53.7008], [-7.7707, 52.7708], [-8.2807, 52.7708], [-8.2807, 47.0008], [-7.7707, 47.0008], [-7.7707, 46.0708], [-9.5857, 46.0708], [-9.6007, 46.0708], [-10.2007, 46.0708], [-10.2007, 40.0058], [-10.2007, 39.7924], [-10.2007, 39.7908], [-8.6007, 39.7908], [-8.6007, 40.1508], [-7.7707, 40.1508], [-7.7707, 39.3208], [-8.2007, 39.3208], [-8.2007, 36.4074], [-8.2007, 36.3033], [-8.2007, 33.5508], [-7.7708, 33.5508], [-7.7708, 32.7358], [-7.7708, 32.7208], [-7.7708, 32.6058], [-6.4007, 32.6058], [-6.4007, 34.6458], [-4.9307, 34.6458], [-4.9307, 35.298], [-4.9307, 35.3521], [-4.9307, 35.6489], [-4.9307, 35.703], [-4.9307, 36.1355], [-6.4007, 36.1355], [-6.4007, 38.6752], [-5.6055, 38.6752], [-5.6055, 41.5358], [-6.4007, 41.5358], [-6.4007, 54.5852], [-6.4007, 55.2858], [-6.4007, 55.3008], [-6.4007, 55.5908], [-6.4007, 58.2708], [-6.4007, 58.2858], [-6.4007, 58.8008], [-5.5857, 58.8008], [-5.5707, 58.8008], [-3.8857, 58.8008], [0.8143, 58.8008], [3.1143, 58.8008], [7.8143, 58.8008], [8.0468, 58.8008], [9.4993, 58.8008], [10.3293, 58.8008], [10.3293, 58.2858], [10.3293, 58.2708], [10.3293, 55.5908], [10.3293, 55.3008], [10.3293, 55.2858], [10.3293, 54.7908], [12.5293, 54.7908], [12.5293, 53.8408], [14.6213, 53.8408], [14.6643, 53.8408], [14.6643, 56.5858], [14.6643, 59.9358], [14.6643, 63.0658], [13.1643, 63.0658], [13.1643, 61.1008], [1.9053, 61.1008], [1.7437, 61.1008], [-1.3707, 61.1008], [-1.3707, 61.0908], [-2.0855, 61.0908]], [[11.6993, 58.8008], [12.5293, 58.8008], [12.5293, 58.2708], [11.6993, 58.2708], [11.6993, 58.8008]], [[-8.6009, 58.8008], [-7.7709, 58.8008], [-7.7709, 58.2708], [-8.6009, 58.2708], [-8.6009, 58.8008]]]}, "properties": {"room_id": "3.CR1", "building_id": "B2", "floor": 3}}, {"type": "Feature", "geometry": {"type": "Polygon", "coordinates": [[[-15.8907, 67.1558], [-15.8907, 64.2308], [-13.1007, 64.2308], [-13.1007, 65.6908], [-12.9607, 65.6908], [-12.9607, 64.9808], [-10.2707, 64.9808], [-10.2707, 65.5808], [-8.6107, 65.5808], [-8.6107, 67.1558], [-15.8907, 67.1558]]]}, "properties": {"room_id": "3.WC2", "building_id": "B2", "floor": 3}}, {"type": "Feature", "geometry": {"type": "Polygon", "coordinates": [[[-5.0167, 65.5808], [-5.0167, 64.2308], [-1.6007, 64.2308], [-1.6007, 66.2108], [-1.8107, 66.2108], [-1.8107, 67.1558], [-3.2607, 67.1558], [-3.2607, 66.7058], [-3.4007, 66.7058], [-3.4007, 67.1558], [-5.0167, 67.1558], [-5.0167, 66.7058], [-5.1567, 66.7058], [-5.1567, 67.1558], [-6.2707, 67.1558], [-6.2707, 65.5808], [-5.0167, 65.5808]]]}, "properties": {"room_id": "3.WC1", "building_id": "B2", "floor": 3}}, {"type": "Feature", "geometry": {"type": "Polygon", "coordinates": [[[-6.1707, 36.3655], [-4.8007, 36.3655], [-4.8007, 35.7655], [-1.2007, 35.7655], [-1.2007, 38.4452], [-6.1707, 38.4452], [-6.1707, 36.3655]]]}, "properties": {"room_id": "3.WC4", "building_id": "B2", "floor": 3}}, {"type": "Feature", "geometry": {"type": "Polygon", "coordinates": [[[-4.8007, 33.2158], [-4.8007, 32.6158], [-2.4007, 32.6158], [-2.4007, 33.5605], [-1.2007, 33.5605], [-1.2007, 35.2355], [-4.8007, 35.2355], [-4.8007, 34.4158], [-6.1707, 34.4158], [-6.1707, 32.6158], [-4.9407, 32.6158], [-4.9407, 33.2158], [-4.8007, 33.2158]]]}, "properties": {"room_id": "3.WC3", "building_id": "B2", "floor": 3}}, {"type": "Feature", "geometry": {"type": "Polygon", "coordinates": [[[-12.9607, 64.8408], [-12.9607, 63.9408], [-10.2707, 63.9408], [-10.2707, 64.8408], [-12.9607, 64.8408]]]}, "properties": {"room_id": "3.JC", "building_id": "B2", "floor": 3}}, {"type": "Feature", "geometry": {"type": "Polygon", "coordinates": [[[-8.4307, 63.8008], [-10.1307, 63.8008], [-10.1307, 61.6208], [-8.4307, 61.6208], [-8.4307, 63.8008]]]}, "properties": {"room_id": "3.WC5", "building_id": "B2", "floor": 3}}, {"type": "Feature", "geometry": {"type": "Polygon", "coordinates": [[[10.3293, 41.7558], [12.5143, 41.7558], [12.5143, 46.1208], [11.6993, 46.1208], [11.6993, 46.9508], [12.5143, 46.9508], [12.5143, 52.8208], [11.6993, 52.8208], [11.6993, 53.6508], [12.3093, 53.6508], [12.3093, 54.5708], [10.3293, 54.5708], [10.3293, 41.7558]]]}, "properties": {"room_id": "B2-311", "building_id": "B2", "floor": 3}}, {"type": "Feature", "geometry": {"type": "Polygon", "coordinates": [[[-17.6207, 37.2058], [-15.5257, 37.2058], [-15.5257, 37.2158], [-14.4507, 37.2158], [-14.4507, 39.7908], [-10.4207, 39.7908], [-10.4207, 40.0058], [-10.4207, 46.1233], [-10.4207, 46.5358], [-17.7207, 46.5358], [-17.7207, 46.1208], [-18.5507, 46.1208], [-18.5507, 46.9508], [-18.3357, 46.9508], [-18.3357, 52.8208], [-18.5507, 52.8208], [-18.5507, 53.6508], [-17.7207, 53.6508], [-17.7207, 53.2358], [-10.4207, 53.2358], [-10.4207, 53.6483], [-10.2357, 53.7008], [-10.2357, 53.7024], [-10.2357, 60.8483], [-10.4557, 60.8483], [-10.4557, 61.1008], [-16.0182, 61.1008], [-17.6207, 61.1008], [-17.6207, 60.9508], [-17.6207, 59.9208], [-18.6507, 59.9208], [-18.6507, 60.9508], [-18.6507, 61.1008], [-28.7157, 61.1008], [-28.7157, 60.3508], [-28.6007, 60.3508], [-28.5857, 60.3508], [-27.7707, 60.3508], [-27.7707, 59.5208], [-28.5857, 59.5208], [-28.6007, 59.5208], [-28.7157, 59.5208], [-28.7157, 53.7008], [-26.8707, 53.7008], [-26.8707, 52.7708], [-28.7157, 52.7708], [-28.7157, 47.0008], [-26.8707, 47.0008], [-26.8707, 46.0708], [-28.7157, 46.0708], [-28.7157, 40.1508], [-28.6007, 40.1508], [-28.5857, 40.1508], [-27.7707, 40.1508], [-27.7707, 39.3208], [-27.7707, 39.0859], [-18.6507, 39.0859], [-18.6507, 40.1508], [-17.6207, 40.1508], [-17.6207, 39.1208], [-17.6207, 37.2058]]]}, "properties": {"room_id": "B2-325", "building_id": "B2", "floor": 3}}, {"type": "Feature", "geometry": {"type": "Polygon", "coordinates": [[[-8.4207, 36.2008], [-13.5207, 36.2008], [-13.5207, 35.8908], [-13.5207, 33.4408], [-13.5207, 33.4233], [-13.5207, 32.9408], [-8.6008, 32.9408], [-8.6008, 33.4983], [-8.6008, 33.5508], [-8.5483, 33.5508], [-8.4207, 33.5508], [-8.4207, 36.2008]]]}, "properties": {"room_id": "ST-02", "building_id": "B2", "floor": 3}}, {"type": "Feature", "geometry": {"type": "Polygon", "coordinates": [[[-14.4357, 36.3108], [-14.4357, 37.0008], [-15.5257, 37.0008], [-17.6732, 37.0008], [-17.7357, 37.0008], [-17.7357, 33.5508], [-17.7357, 32.7208], [-17.7357, 32.5908], [-14.4357, 32.5908], [-14.4357, 36.3108]]]}, "properties": {"room_id": "EV-02", "building_id": "B2", "floor": 3}}, {"type": "Feature", "geometry": {"type": "Polygon", "coordinates": [[[-6.1807, 58.2708], [-6.1807, 55.5908], [-5.5807, 55.5908], [-5.5807, 54.5852], [9.5093, 54.5852], [9.5093, 55.5908], [10.1093, 55.5908], [10.1093, 58.2708], [9.4993, 58.2708], [8.0468, 58.2708], [7.8143, 58.2708], [3.1143, 58.2708], [0.8143, 58.2708], [-3.8857, 58.2708], [-5.5707, 58.2708], [-5.5857, 58.2708], [-6.1807, 58.2708]]]}, "properties": {"room_id": "ST-01", "building_id": "B2", "floor": 3}}, {"type": "Feature", "geometry": {"type": "Polygon", "coordinates": [[[-1.5757, 63.7258], [-5.0401, 63.7258], [-5.0417, 63.7258], [-5.1483, 63.7258], [-6.1957, 63.7258], [-6.1957, 61.3058], [-5.6855, 61.3058], [-4.4855, 61.3058], [-3.2855, 61.3058], [-2.0855, 61.3058], [-1.5757, 61.3058], [-1.5757, 63.7258]]]}, "properties": {"room_id": "EV-01", "building_id": "B2", "floor": 3}}, {"type": "Feature", "geometry": {"type": "Polygon", "coordinates": [[[-17.7207, 67.1658], [-17.7207, 67.0508], [-17.7207, 67.0358], [-17.7207, 67.0283], [-17.7207, 66.2358], [-17.7207, 66.2208], [-17.7207, 61.3058], [-17.6732, 61.3058], [-16.1207, 61.3058], [-16.1207, 63.8708], [-16.1207, 64.1683], [-16.1207, 67.1658], [-17.7207, 67.1658]]]}, "properties": {"room_id": "327", "building_id": "B2", "floor": 3}}, {"type": "Feature", "geometry": {"type": "Polygon", "coordinates": [[[-0.9707, 39.5158], [-0.9707, 39.3208], [-0.9707, 38.5652], [-0.9707, 35.6552], [-0.9707, 35.6489], [-0.9707, 35.298], [-0.9707, 33.5358], [-0.9707, 32.7358], [-0.9707, 32.7208], [-0.9707, 32.6058], [4.8993, 32.6058], [4.8993, 32.7208], [4.8993, 33.5508], [5.7293, 33.5508], [5.7293, 32.7208], [5.7293, 32.6058], [8.4393, 32.6058], [8.4393, 36.9458], [8.4393, 39.5158], [5.7293, 39.5158], [5.7293, 39.3208], [4.8993, 39.3208], [4.8993, 39.5158], [-0.9707, 39.5158]]]}, "properties": {"room_id": "B2-320", "building_id": "B2", "floor": 3}}, {"type": "Feature", "geometry": {"type": "Polygon", "coordinates": [[[-19.2308, 67.1658], [-27.7707, 67.1658], [-27.7707, 67.0508], [-27.7707, 66.2208], [-28.6007, 66.2208], [-28.7157, 66.2208], [-28.7157, 60.3508], [-28.6007, 60.3508], [-27.7707, 60.3508], [-27.7707, 59.5208], [-28.6007, 59.5208], [-28.7157, 59.5208], [-28.7157, 54.086], [-27.8232, 54.086], [-19.2308, 54.086], [-19.2308, 54.4489], [-19.2308, 56.3489], [-19.2308, 67.1658]]]}, "properties": {"room_id": "B2-413", "building_id": "B2", "floor": 4}}, {"type": "Feature", "geometry": {"type": "Polygon", "coordinates": [[[-15.9057, 67.1558], [-15.9057, 64.2308], [-13.1157, 64.2308], [-13.1157, 65.6908], [-12.9757, 65.6908], [-12.9757, 64.9808], [-10.2857, 64.9808], [-10.2857, 65.5808], [-8.6257, 65.5808], [-8.6257, 67.1558], [-15.9057, 67.1558]]]}, "properties": {"room_id": "4.WC2", "building_id": "B2", "floor": 4}}, {"type": "Feature", "geometry": {"type": "Polygon", "coordinates": [[[4.8993, 67.1658], [2.0743, 67.1658], [2.0743, 61.3058], [5.2043, 61.3058], [5.2043, 66.2208], [4.8993, 66.2208], [4.8993, 67.0508], [4.8993, 67.1658]]]}, "properties": {"room_id": "B2-404", "building_id": "B2", "floor": 4}}, {"type": "Feature", "geometry": {"type": "Polygon", "coordinates": [[[8.5543, 67.1658], [5.7293, 67.1658], [5.7293, 67.0508], [5.7293, 66.2208], [5.4243, 66.2208], [5.4243, 61.3058], [8.5543, 61.3058], [8.5543, 67.1658]]]}, "properties": {"room_id": "B2-405", "building_id": "B2", "floor": 4}}, {"type": "Feature", "geometry": {"type": "Polygon", "coordinates": [[[10.2184, 67.1658], [8.7743, 67.1658], [8.7743, 61.3058], [11.6993, 61.3058], [11.6993, 66.2208], [11.6993, 67.0508], [11.6993, 67.1658], [10.2184, 67.1658]]]}, "properties": {"room_id": "B2-406", "building_id": "B2", "floor": 4}}, {"type": "Feature", "geometry": {"type": "Polygon", "coordinates": [[[14.9243, 67.1658], [12.5293, 67.1658], [12.5293, 67.0508], [12.5293, 66.2208], [11.9193, 66.2208], [11.9193, 61.3058], [14.9243, 61.3058], [14.9243, 67.1658]]]}, "properties": {"room_id": "B2-407", "building_id": "B2", "floor": 4}}, {"type": "Feature", "geometry": {"type": "Polygon", "coordinates": [[[20.4943, 58.8008], [20.4943, 67.1658], [19.1293, 67.1658], [19.1293, 67.0508], [19.1293, 66.2208], [18.2993, 66.2208], [18.2993, 67.0508], [18.2993, 67.1658], [15.1443, 67.1658], [15.1443, 61.1958], [15.1443, 58.8008], [17.9618, 58.8008], [18.2993, 58.8008], [19.1293, 58.8008], [20.4943, 58.8008]]]}, "properties": {"room_id": "B2-408", "building_id": "B2", "floor": 4}}, {"type": "Feature", "geometry": {"type": "Polygon", "coordinates": [[[20.4943, 54.7908], [20.4943, 58.5808], [19.1293, 58.5808], [19.1293, 57.9708], [18.2993, 57.9708], [17.9093, 57.9708], [17.9093, 58.5808], [15.0343, 58.5808], [14.1343, 58.5808], [14.1343, 54.7908], [20.4943, 54.7908]]]}, "properties": {"room_id": "B2-409", "building_id": "B2", "floor": 4}}, {"type": "Feature", "geometry": {"type": "Polygon", "coordinates": [[[-28.7157, 52.8208], [-28.7157, 49.7058], [-19.2308, 49.7058], [-19.2308, 50.3099], [-19.2308, 52.4858], [-19.2308, 53.866], [-27.7707, 53.866], [-27.7707, 53.6508], [-27.7707, 52.8208], [-28.6007, 52.8208], [-28.7157, 52.8208]]]}, "properties": {"room_id": "B2-412", "building_id": "B2", "floor": 4}}, {"type": "Feature", "geometry": {"type": "Polygon", "coordinates": [[[-28.7157, 39.3208], [-28.7157, 36.4058], [-27.7308, 36.4058], [-19.7309, 36.4058], [-19.2308, 36.4058], [-19.2308, 41.5254], [-19.2308, 43.3273], [-19.2308, 46.9008], [-19.2308, 48.8008], [-19.2308, 49.4858], [-28.7157, 49.4858], [-28.7157, 46.9508], [-28.6007, 46.9508], [-27.7707, 46.9508], [-27.7707, 46.1208], [-28.6007, 46.1208], [-28.7157, 46.1208], [-28.7157, 40.1508], [-28.6007, 40.1508], [-27.7707, 40.1508], [-27.7707, 39.3208], [-28.6007, 39.3208], [-28.7157, 39.3208]]]}, "properties": {"room_id": "B2-411", "building_id": "B2", "floor": 4}}, {"type": "Feature", "geometry": {"type": "Polygon", "coordinates": [[[-28.7157, 36.1858], [-28.7157, 33.5508], [-28.6007, 33.5508], [-27.7707, 33.5508], [-27.7707, 32.7208], [-27.7707, 32.6058], [-18.5507, 32.6058], [-18.5507, 32.7208], [-18.5507, 33.5508], [-17.9407, 33.5508], [-17.9407, 36.1858], [-19.0092, 36.1858], [-19.2324, 36.1858], [-19.7309, 36.1858], [-19.7309, 36.1983], [-27.7308, 36.1983], [-27.7308, 36.1858], [-28.7157, 36.1858]]]}, "properties": {"room_id": "B2-410", "building_id": "B2", "floor": 4}}, {"type": "Feature", "geometry": {"type": "Polygon", "coordinates": [[[-6.4007, 41.816], [-6.4007, 51.9522], [-13.6408, 51.9522], [-13.6408, 50.8858], [-13.6408, 48.9858], [-13.6408, 44.4111], [-13.6408, 42.8611], [-13.6408, 41.816], [-9.9957, 41.816], [-6.4007, 41.816]], [[-7.7707, 46.9508], [-7.7707, 46.1208], [-8.6007, 46.1208], [-8.6007, 46.9508], [-7.7707, 46.9508]]]}, "properties": {"room_id": "B2-416", "building_id": "B2", "floor": 4}}, {"type": "Feature", "geometry": {"type": "Polygon", "coordinates": [[[-13.7508, 54.8858], [-12.4597, 54.8858], [-12.4597, 55.7008], [-12.3357, 55.7008], [-12.3357, 54.8858], [-10.2207, 54.8858], [-10.2207, 55.7008], [-10.2207, 58.8008], [-15.3357, 58.8008], [-15.3357, 55.7908], [-15.2117, 55.7008], [-15.2117, 54.8858], [-13.9038, 54.8858], [-13.7508, 54.8858], [-13.7508, 54.8858]]]}, "properties": {"room_id": "B2-414", "building_id": "B2", "floor": 4}}, {"type": "Feature", "geometry": {"type": "Polygon", "coordinates": [[[-6.4007, 52.1722], [-6.4007, 54.5858], [-6.4007, 54.6658], [-10.1107, 54.6658], [-12.3977, 54.6658], [-13.6408, 54.6658], [-13.6408, 53.9454], [-13.6408, 52.3858], [-13.6408, 52.1722], [-6.4007, 52.1722]], [[-7.7707, 53.6508], [-7.7707, 52.8208], [-8.6007, 52.8208], [-8.6007, 53.6508], [-7.7707, 53.6508]]]}, "properties": {"room_id": "B2-415", "building_id": "B2", "floor": 4}}, {"type": "Feature", "geometry": {"type": "Polygon", "coordinates": [[[-8.2007, 39.3208], [-8.2007, 36.4074], [-8.2007, 36.3033], [-8.2007, 33.5508], [-7.7708, 33.5508], [-7.7708, 32.7208], [-7.7708, 32.6058], [-6.4007, 32.6058], [-6.4007, 41.596], [-9.8857, 41.596], [-9.8857, 39.7908], [-8.6007, 39.7908], [-8.6007, 40.1508], [-7.7707, 40.1508], [-7.7707, 39.3208], [-8.2007, 39.3208]]]}, "properties": {"room_id": "4.CR4", "building_id": "B2", "floor": 4}}, {"type": "Feature", "geometry": {"type": "Polygon", "coordinates": [[[-8.4457, 63.8008], [-10.1457, 63.8008], [-10.1457, 61.6208], [-8.4457, 61.6208], [-8.4457, 63.8008]]]}, "properties": {"room_id": "4.WC5", "building_id": "B2", "floor": 4}}, {"type": "Feature", "geometry": {"type": "Polygon", "coordinates": [[[-12.9757, 64.8408], [-12.9757, 63.9408], [-10.2857, 63.9408], [-10.2857, 64.8408], [-12.9757, 64.8408]]]}, "properties": {"room_id": "4.JC", "building_id": "B2", "floor": 4}}, {"type": "Feature", "geometry": {"type": "Polygon", "coordinates": [[[-5.0317, 65.5808], [-5.0317, 64.2308], [-1.6157, 64.2308], [-1.6157, 66.2108], [-1.8257, 66.2108], [-1.8257, 67.1558], [-3.2757, 67.1558], [-3.2757, 66.7058], [-3.4157, 66.7058], [-3.4157, 67.1558], [-5.0317, 67.1558], [-5.0317, 66.7058], [-5.1717, 66.7058], [-5.1717, 67.1558], [-6.2857, 67.1558], [-6.2857, 65.5808], [-5.0317, 65.5808]]]}, "properties": {"room_id": "4.WC1", "building_id": "B2", "floor": 4}}, {"type": "Feature", "geometry": {"type": "Polygon", "coordinates": [[[-2.0855, 61.0908], [-2.0855, 61.1008], [-3.2855, 61.1008], [-3.2855, 61.0908], [-4.4855, 61.0908], [-4.4855, 61.1008], [-5.6855, 61.1008], [-5.6855, 61.0908], [-6.4007, 61.0908], [-6.4007, 61.0853], [-6.4512, 61.0853], [-8.1652, 61.0853], [-8.2957, 61.0853], [-8.3182, 61.1008], [-9.9859, 61.1008], [-9.9859, 58.8008], [-10.0007, 58.8008], [-10.0007, 55.7008], [-10.0007, 54.8858], [-6.4007, 54.8858], [-6.4007, 55.3008], [-6.4007, 55.5908], [-6.4007, 58.2708], [-6.4007, 58.2858], [-6.4007, 58.8008], [-5.5857, 58.8008], [-5.5707, 58.8008], [-5.3532, 58.8008], [-3.8857, 58.8008], [0.8143, 58.8008], [3.1143, 58.8008], [7.8146, 58.8008], [9.4993, 58.8008], [9.5146, 58.8008], [10.3293, 58.8008], [10.3293, 58.2858], [10.3293, 58.2708], [10.3293, 55.5908], [10.3293, 55.3008], [10.3293, 55.1958], [10.3293, 54.7908], [13.9143, 54.7908], [13.9143, 58.8008], [14.9243, 58.8008], [14.9243, 61.0858], [11.8093, 61.0858], [8.6643, 61.0858], [5.3143, 61.0858], [2.0759, 61.0858], [1.8527, 61.0858], [-1.3691, 61.0858], [-1.3707, 61.0858], [-1.3707, 61.0908], [-2.0855, 61.0908]], [[11.6993, 58.8008], [12.5293, 58.8008], [12.5293, 58.2708], [11.6993, 58.2708], [11.6993, 58.8008]], [[-8.6009, 58.8008], [-7.7709, 58.8008], [-7.7709, 58.2708], [-8.6009, 58.2708], [-8.6009, 58.8008]]]}, "properties": {"room_id": "4.CR1", "building_id": "B2", "floor": 4}}, {"type": "Feature", "geometry": {"type": "Polygon", "coordinates": [[[-17.5257, 37.2158], [-17.5257, 37.2058], [-15.5257, 37.2058], [-15.5257, 37.2158], [-14.4507, 37.2158], [-14.4507, 39.7908], [-10.1057, 39.7908], [-10.1057, 41.596], [-13.7508, 41.596], [-13.9038, 41.596], [-15.3357, 41.596], [-15.3357, 42.9111], [-13.8608, 42.9111], [-13.8608, 44.3611], [-15.3357, 44.3611], [-15.3357, 49.0358], [-13.8608, 49.0358], [-13.8608, 50.8358], [-15.3357, 50.8358], [-15.3357, 52.4358], [-13.8608, 52.4358], [-13.8608, 53.8954], [-15.3357, 53.8954], [-15.3357, 54.8358], [-15.3357, 55.7008], [-15.3357, 55.7908], [-15.3357, 58.8008], [-10.2207, 58.8008], [-10.2207, 61.1008], [-16.0332, 61.1008], [-17.6207, 61.1008], [-17.6207, 60.9508], [-17.6207, 60.7358], [-17.7207, 60.7358], [-17.7207, 59.9208], [-17.7207, 56.2989], [-19.0108, 56.2989], [-19.0108, 54.4989], [-17.7207, 54.4989], [-17.7207, 53.6508], [-17.7207, 52.8208], [-17.7207, 52.4358], [-19.0108, 52.4358], [-19.0108, 50.3599], [-17.7207, 50.3599], [-17.7207, 48.7508], [-19.0108, 48.7508], [-19.0108, 46.9508], [-18.5507, 46.9508], [-17.7707, 46.9508], [-17.7207, 46.9508], [-17.7207, 46.9008], [-17.7207, 46.1208], [-17.7207, 43.2773], [-19.0108, 43.2773], [-19.0108, 41.5754], [-17.7207, 41.5754], [-17.7207, 40.1508], [-17.7207, 39.3358], [-17.6207, 39.3358], [-17.6207, 39.1208], [-17.7207, 39.1208], [-17.7207, 37.2158], [-17.5257, 37.2158]]]}, "properties": {"room_id": "4.CR3", "building_id": "B2", "floor": 4}}, {"type": "Feature", "geometry": {"type": "Polygon", "coordinates": [[[-6.4007, 61.0853], [-6.4007, 63.9308], [-5.1617, 63.9308], [-5.1617, 63.9738], [-5.1617, 64.1142], [-5.1617, 64.1683], [-5.1617, 65.4508], [-6.4157, 65.4508], [-6.4157, 67.1658], [-7.7857, 67.1658], [-7.7857, 67.0508], [-7.7857, 67.0358], [-7.7707, 67.0358], [-7.7707, 66.2208], [-8.2157, 66.2208], [-8.2157, 65.4508], [-8.5632, 65.4508], [-10.1557, 65.4508], [-10.1557, 63.9308], [-8.2157, 63.9308], [-8.2157, 61.5058], [-8.2157, 61.5042], [-8.2157, 61.0853], [-6.4007, 61.0853]]]}, "properties": {"room_id": "4.CR2", "building_id": "B2", "floor": 4}}, {"type": "Feature", "geometry": {"type": "Polygon", "coordinates": [[[-1.3707, 63.7242], [-1.3707, 61.3058], [1.8543, 61.3058], [1.8543, 67.1658], [-0.9707, 67.1658], [-0.9707, 67.0508], [-0.9707, 66.2208], [-1.3857, 66.2208], [-1.3857, 64.1683], [-1.3857, 63.9738], [-1.3857, 63.9158], [-1.3707, 63.9158], [-1.3707, 63.7242]]]}, "properties": {"room_id": "B2-403", "building_id": "B2", "floor": 4}}, {"type": "Feature", "geometry": {"type": "Polygon", "coordinates": [[[-8.4207, 36.2008], [-13.5207, 36.2008], [-13.5207, 35.8908], [-13.5207, 33.4408], [-13.5207, 32.9408], [-8.6008, 32.9408], [-8.6008, 33.5508], [-8.4207, 33.5508], [-8.4207, 36.2008]]]}, "properties": {"room_id": "ST-02", "building_id": "B2", "floor": 4}}, {"type": "Feature", "geometry": {"type": "Polygon", "coordinates": [[[-14.4357, 36.3108], [-14.4357, 37.0008], [-15.5257, 37.0008], [-17.5257, 37.0008], [-17.7357, 37.0008], [-17.7357, 36.4074], [-17.7357, 36.1842], [-17.7357, 33.5508], [-17.7357, 32.7208], [-17.7357, 32.5908], [-14.4357, 32.5908], [-14.4357, 36.3108]]]}, "properties": {"room_id": "EV-02", "building_id": "B2", "floor": 4}}, {"type": "Feature", "geometry": {"type": "Polygon", "coordinates": [[[0.8143, 58.2708], [-3.8857, 58.2708], [-5.3532, 58.2708], [-5.5707, 58.2708], [-5.5857, 58.2708], [-6.1807, 58.2708], [-6.1807, 55.5908], [-5.5807, 55.5908], [-5.5807, 54.5858], [-5.3855, 54.5858], [-5.3855, 54.3208], [9.5093, 54.3208], [9.5093, 55.5908], [10.1093, 55.5908], [10.1093, 58.2708], [9.5146, 58.2708], [9.4993, 58.2708], [7.8146, 58.2708], [3.1143, 58.2708], [0.8143, 58.2708]]]}, "properties": {"room_id": "ST-01", "building_id": "B2", "floor": 4}}, {"type": "Feature", "geometry": {"type": "Polygon", "coordinates": [[[-1.5757, 63.7258], [-1.5912, 63.7258], [-4.9562, 63.7258], [-5.0417, 63.7258], [-5.1633, 63.7258], [-6.1957, 63.7258], [-6.1957, 61.3058], [-5.6855, 61.3058], [-4.4855, 61.3058], [-3.2855, 61.3058], [-2.0855, 61.3058], [-1.5757, 61.3058], [-1.5757, 61.3074], [-1.5757, 63.7258]]]}, "properties": {"room_id": "EV-01", "building_id": "B2", "floor": 4}}, {"type": "Feature", "geometry": {"type": "Polygon", "coordinates": [[[-16.1357, 67.1658], [-17.7357, 67.1658], [-17.7357, 67.0508], [-17.7357, 67.0283], [-17.7207, 67.0283], [-17.7207, 66.2358], [-17.7357, 66.2358], [-17.7357, 66.2208], [-17.7357, 61.3058], [-17.6732, 61.3058], [-16.1357, 61.3058], [-16.1357, 63.8708], [-16.1357, 64.1683], [-16.1357, 67.1658]]]}, "properties": {"room_id": "417", "building_id": "B2", "floor": 4}}, {"type": "Feature", "geometry": {"type": "Polygon", "coordinates": [[[10.1243, 53.8208], [10.1243, 41.7408], [-5.6807, 41.7408], [-5.6807, 38.6578], [-4.8957, 38.6578], [-4.8957, 37.6578], [-5.6807, 37.6578], [-5.6807, 33.0752], [-5.6807, 32.4008], [19.4493, 32.4008], [19.4493, 53.8208], [13.0726, 53.8208], [13.0726, 53.2708], [12.0726, 53.2708], [12.0726, 53.8208], [10.1243, 53.8208]]]}, "properties": {"room_id": "4.TR", "building_id": "B2", "floor": 4}}, {"type": "Feature", "geometry": {"type": "Polygon", "coordinates": [[[-19.2308, 67.1658], [-27.7707, 67.1658], [-27.7707, 67.0508], [-27.7707, 66.2733], [-27.7707, 66.2208], [-27.8232, 66.2208], [-28.6007, 66.2208], [-28.7157, 66.2208], [-28.7157, 60.3508], [-28.6007, 60.3508], [-27.8232, 60.3508], [-27.7707, 60.3508], [-27.7707, 60.2983], [-27.7707, 59.5733], [-27.7707, 59.5208], [-27.8232, 59.5208], [-28.6007, 59.5208], [-28.7157, 59.5208], [-28.7157, 56.6058], [-19.2308, 56.6058], [-19.2308, 57.4908], [-19.2308, 59.3933], [-19.2308, 67.1658]]]}, "properties": {"room_id": "B2-516", "building_id": "B2", "floor": 5}}, {"type": "Feature", "geometry": {"type": "Polygon", "coordinates": [[[-28.7157, 52.8208], [-28.7157, 46.9508], [-28.6007, 46.9508], [-27.8232, 46.9508], [-27.7707, 46.9508], [-27.7707, 46.8983], [-27.7707, 46.7558], [-19.2308, 46.7558], [-19.2308, 47.1754], [-19.2308, 48.7454], [-19.2308, 53.6908], [-19.2308, 55.5908], [-19.2308, 56.3858], [-28.7157, 56.3858], [-28.7157, 53.6508], [-28.6007, 53.6508], [-27.8232, 53.6508], [-27.7707, 53.6508], [-27.7707, 53.5983], [-27.7707, 52.8733], [-27.7707, 52.8208], [-27.8232, 52.8208], [-28.6007, 52.8208], [-28.7157, 52.8208], [-28.7157, 53.6508], [-28.6007, 53.6508], [-27.8232, 53.6508], [-27.7707, 53.6508], [-27.7707, 53.5983], [-27.7707, 53.2358], [-25.1507, 53.2358], [-25.1507, 49.4323], [-25.1507, 45.4454], [-25.1507, 40.453], [-25.1507, 36.4042], [-25.1507, 32.6058], [-23.3408, 32.6058], [-23.3408, 36.4142], [-23.3408, 40.563], [-19.2308, 40.563], [-19.2308, 42.3504], [-19.2308, 42.3622], [-19.2308, 42.402], [-19.2308, 42.9822], [-23.3408, 42.9822], [-23.3408, 47.4354], [-23.3408, 53.2358], [-19.2308, 53.2358], [-19.2308, 53.6908], [-19.2308, 55.5908], [-19.2308, 56.3858], [-23.6857, 56.3858], [-28.7157, 56.3858], [-28.7157, 52.8208]]]}, "properties": {"room_id": "B2-513", "building_id": "B2", "floor": 5}}, {"type": "Feature", "geometry": {"type": "Polygon", "coordinates": [[[-28.7157, 46.1208], [-28.7157, 43.2008], [-19.2308, 43.2008], [-19.2308, 43.8154], [-19.2308, 45.3854], [-19.2308, 46.5358], [-27.7707, 46.5358], [-27.7707, 46.1733], [-27.7707, 46.1208], [-27.8232, 46.1208], [-28.6007, 46.1208], [-28.7157, 46.1208]]]}, "properties": {"room_id": "B2-512", "building_id": "B2", "floor": 5}}, {"type": "Feature", "geometry": {"type": "Polygon", "coordinates": [[[-28.7157, 39.3208], [-28.7157, 33.5508], [-28.6007, 33.5508], [-27.8232, 33.5508], [-27.7707, 33.5508], [-27.7707, 33.4983], [-27.7707, 32.7208], [-27.7707, 32.6058], [-19.2308, 32.6058], [-19.2308, 40.4883], [-19.2308, 42.3504], [-19.2308, 42.3622], [-19.2308, 42.402], [-19.2308, 42.9808], [-28.7157, 42.9808], [-28.7157, 40.1508], [-28.6007, 40.1508], [-27.8232, 40.1508], [-27.7707, 40.1508], [-27.7707, 40.0983], [-27.7707, 39.3733], [-27.7707, 39.3208], [-27.8232, 39.3208], [-28.6007, 39.3208], [-28.7157, 39.3208]]]}, "properties": {"room_id": "B2-511", "building_id": "B2", "floor": 5}}, {"type": "Feature", "geometry": {"type": "Polygon", "coordinates": [[[-15.9357, 67.1558], [-15.9357, 64.2308], [-13.1457, 64.2308], [-13.1457, 65.6908], [-13.0057, 65.6908], [-13.0057, 64.9808], [-10.3157, 64.9808], [-10.3157, 65.5808], [-8.6557, 65.5808], [-8.6557, 67.1558], [-15.9357, 67.1558]]]}, "properties": {"room_id": "5.WC2", "building_id": "B2", "floor": 5}}, {"type": "Feature", "geometry": {"type": "Polygon", "coordinates": [[[4.8993, 67.1658], [2.0743, 67.1658], [2.0743, 61.3058], [5.2043, 61.3058], [5.2043, 66.2208], [4.9518, 66.2208], [4.8993, 66.2208], [4.8993, 66.2733], [4.8993, 67.0508], [4.8993, 67.1658]]]}, "properties": {"room_id": "B2-504", "building_id": "B2", "floor": 5}}, {"type": "Feature", "geometry": {"type": "Polygon", "coordinates": [[[8.5243, 67.1658], [5.7293, 67.1658], [5.7293, 67.0508], [5.7293, 66.2733], [5.7293, 66.2208], [5.6768, 66.2208], [5.4243, 66.2208], [5.4243, 61.3058], [8.5243, 61.3058], [8.5243, 67.1658]]]}, "properties": {"room_id": "B2-505", "building_id": "B2", "floor": 5}}, {"type": "Feature", "geometry": {"type": "Polygon", "coordinates": [[[10.2184, 67.1658], [8.7443, 67.1658], [8.7443, 61.3058], [11.9043, 61.3058], [11.9043, 66.2208], [11.7518, 66.2208], [11.6993, 66.2208], [11.6993, 66.2733], [11.6993, 67.0508], [11.6993, 67.1658], [10.2184, 67.1658]]]}, "properties": {"room_id": "B2-506", "building_id": "B2", "floor": 5}}, {"type": "Feature", "geometry": {"type": "Polygon", "coordinates": [[[15.3993, 67.1658], [12.5293, 67.1658], [12.5293, 67.0508], [12.5293, 66.2733], [12.5293, 66.2208], [12.4768, 66.2208], [12.1243, 66.2208], [12.1243, 61.3058], [15.3993, 61.3058], [15.3993, 67.1658]]]}, "properties": {"room_id": "B2-508", "building_id": "B2", "floor": 5}}, {"type": "Feature", "geometry": {"type": "Polygon", "coordinates": [[[19.1293, 66.2733], [19.1143, 66.2733], [19.1143, 66.2358], [19.0768, 66.2358], [19.0768, 66.2208], [18.3518, 66.2208], [18.3518, 66.2358], [18.3143, 66.2358], [18.3143, 66.2733], [18.2993, 66.2733], [18.2993, 66.9983], [18.2993, 67.1658], [15.6193, 67.1658], [15.6193, 61.1958], [15.6193, 58.7858], [17.9618, 58.7858], [18.2993, 58.7858], [19.0768, 58.7858], [20.4943, 58.7858], [20.4943, 67.1658], [19.1293, 67.1658], [19.1293, 66.9983], [19.1293, 66.2733]]]}, "properties": {"room_id": "B2-509", "building_id": "B2", "floor": 5}}, {"type": "Feature", "geometry": {"type": "Polygon", "coordinates": [[[20.4943, 54.7908], [20.4943, 58.5658], [19.1293, 58.5658], [19.1293, 58.0233], [19.1293, 57.9708], [19.0768, 57.9708], [18.2993, 57.9708], [17.9093, 57.9708], [17.9093, 58.5658], [15.5093, 58.5658], [14.1343, 58.5658], [14.1343, 54.7908], [20.4943, 54.7908]]]}, "properties": {"room_id": "B2-510", "building_id": "B2", "floor": 5}}, {"type": "Feature", "geometry": {"type": "Polygon", "coordinates": [[[-6.4007, 41.816], [-6.4007, 51.9458], [-13.6408, 51.9458], [-13.6408, 51.2211], [-13.6408, 49.4011], [-13.6408, 45.3861], [-13.6408, 43.8161], [-13.6408, 41.816], [-9.9957, 41.816], [-6.4007, 41.816], [-6.4007, 51.9458], [-13.6408, 51.9458], [-13.6408, 51.2211], [-13.6408, 49.4011], [-13.6408, 46.1208], [-11.1408, 46.1208], [-11.1408, 41.816], [-9.9957, 41.816], [-6.4007, 41.816]], [[-7.7857, 46.9358], [-7.7857, 46.8983], [-7.7707, 46.8983], [-7.7707, 46.1733], [-7.7857, 46.1733], [-7.7857, 46.1358], [-7.8232, 46.1358], [-7.8232, 46.1208], [-8.5482, 46.1208], [-8.5482, 46.1358], [-8.5857, 46.1358], [-8.5857, 46.1733], [-8.6007, 46.1733], [-8.6007, 46.8983], [-8.5857, 46.8983], [-8.5857, 46.9358], [-8.5482, 46.9358], [-8.5482, 46.9508], [-7.8232, 46.9508], [-7.8232, 46.9358], [-7.7857, 46.9358], [-7.8232, 46.9508], [-7.7707, 46.9508], [-7.7707, 46.8983], [-7.7707, 46.1733], [-7.7707, 46.1208], [-7.8232, 46.1208], [-8.5482, 46.1208], [-8.6007, 46.1208], [-8.6007, 46.1733], [-8.6007, 46.8983], [-8.6007, 46.9508], [-8.5482, 46.9508], [-7.7857, 46.9358]]]}, "properties": {"room_id": "B2-514", "building_id": "B2", "floor": 5}}, {"type": "Feature", "geometry": {"type": "Polygon", "coordinates": [[[-6.4007, 52.1658], [-6.4007, 54.5858], [-6.4007, 54.6658], [-10.1107, 54.6658], [-12.3977, 54.6658], [-13.6408, 54.6658], [-13.6408, 53.9454], [-13.6408, 52.3844], [-13.6408, 52.1658], [-6.4007, 52.1658]], [[-7.7707, 53.6508], [-7.7707, 52.8208], [-8.6007, 52.8208], [-8.6007, 53.6508], [-7.7707, 53.6508]]]}, "properties": {"room_id": "B2-515", "building_id": "B2", "floor": 5}}, {"type": "Feature", "geometry": {"type": "Polygon", "coordinates": [[[-13.7508, 54.8858], [-12.4597, 54.8858], [-12.4597, 55.7008], [-12.3357, 55.7008], [-12.3357, 54.8858], [-10.2207, 54.8858], [-10.2207, 55.7008], [-10.2207, 58.7858], [-15.3357, 58.7858], [-15.3357, 55.7858], [-15.2117, 55.7008], [-15.2117, 54.8858], [-13.9038, 54.8858], [-13.7508, 54.8858], [-13.7508, 54.8858]]]}, "properties": {"room_id": "B2-517", "building_id": "B2", "floor": 5}}, {"type": "Feature", "geometry": {"type": "Polygon", "coordinates": [[[-7.7708, 32.6058], [-6.4007, 32.6058], [-6.4007, 33.0752], [-6.4007, 41.596], [-9.8857, 41.596], [-9.8857, 39.796], [-8.6007, 39.796], [-8.6007, 40.0983], [-8.6007, 40.1508], [-8.5482, 40.1508], [-7.8232, 40.1508], [-7.7707, 40.1508], [-7.7707, 40.0983], [-7.7707, 39.3733], [-7.7707, 39.3208], [-7.8232, 39.3208], [-8.2007, 39.3208], [-8.2007, 36.4074], [-8.2007, 36.3033], [-8.2007, 33.5508], [-7.8233, 33.5508], [-7.7708, 33.5508], [-7.7708, 33.4983], [-7.7708, 32.7208], [-7.7708, 32.6058]]]}, "properties": {"room_id": "5.CR4", "building_id": "B2", "floor": 5}}, {"type": "Feature", "geometry": {"type": "Polygon", "coordinates": [[[-5.0617, 65.5808], [-5.0617, 64.2308], [-1.6457, 64.2308], [-1.6457, 66.2108], [-1.8557, 66.2108], [-1.8557, 67.1558], [-3.3057, 67.1558], [-3.3057, 66.7058], [-3.4457, 66.7058], [-3.4457, 67.1558], [-5.0617, 67.1558], [-5.0617, 66.7058], [-5.2017, 66.7058], [-5.2017, 67.1558], [-6.3157, 67.1558], [-6.3157, 65.5808], [-5.0617, 65.5808]]]}, "properties": {"room_id": "5.WC1", "building_id": "B2", "floor": 5}}, {"type": "Feature", "geometry": {"type": "Polygon", "coordinates": [[[-8.4757, 63.8008], [-10.1757, 63.8008], [-10.1757, 61.6208], [-8.4757, 61.6208], [-8.4757, 63.8008]]]}, "properties": {"room_id": "5.WC5", "building_id": "B2", "floor": 5}}, {"type": "Feature", "geometry": {"type": "Polygon", "coordinates": [[[-13.0057, 64.8408], [-13.0057, 63.9408], [-10.3157, 63.9408], [-10.3157, 64.8408], [-13.0057, 64.8408]]]}, "properties": {"room_id": "5.JC", "building_id": "B2", "floor": 5}}, {"type": "Feature", "geometry": {"type": "Polygon", "coordinates": [[[-6.4007, 61.0853], [-6.4007, 63.9308], [-5.1917, 63.9308], [-5.1917, 63.9738], [-5.1917, 64.1142], [-5.1917, 64.1683], [-5.1917, 65.4508], [-6.4457, 65.4508], [-6.4457, 67.1658], [-7.8157, 67.1658], [-7.8157, 67.0508], [-7.8157, 67.0358], [-7.7707, 67.0358], [-7.7707, 66.2208], [-8.2457, 66.2208], [-8.2457, 65.4508], [-8.5932, 65.4508], [-10.1857, 65.4508], [-10.1857, 63.9308], [-8.2457, 63.9308], [-8.2457, 61.5058], [-8.2457, 61.5042], [-8.2457, 61.0853], [-6.4007, 61.0853]]]}, "properties": {"room_id": "5.CR2", "building_id": "B2", "floor": 5}}, {"type": "Feature", "geometry": {"type": "Polygon", "coordinates": [[[-1.3707, 63.7242], [-1.3707, 61.3058], [1.8543, 61.3058], [1.8543, 67.1658], [-0.9707, 67.1658], [-0.9707, 67.0508], [-0.9707, 66.2733], [-0.9707, 66.2208], [-1.0232, 66.2208], [-1.4157, 66.2208], [-1.4157, 64.1683], [-1.4157, 63.9738], [-1.4157, 63.9158], [-1.3707, 63.9158], [-1.3707, 63.7242]]]}, "properties": {"room_id": "B2-503", "building_id": "B2", "floor": 5}}, {"type": "Feature", "geometry": {"type": "Polygon", "coordinates": [[[-2.0855, 61.0908], [-2.0855, 61.1008], [-3.2855, 61.1008], [-3.2855, 61.0908], [-4.4855, 61.0908], [-4.4855, 61.1008], [-5.6855, 61.1008], [-5.6855, 61.0908], [-6.4007, 61.0908], [-6.4007, 61.0853], [-6.4512, 61.0853], [-8.1952, 61.0853], [-8.2957, 61.0853], [-8.3482, 61.1008], [-10.0007, 61.1008], [-10.0007, 60.8483], [-10.0007, 55.7008], [-10.0007, 54.8858], [-6.4007, 54.8858], [-6.4007, 55.3008], [-6.4007, 55.5908], [-6.4007, 58.2708], [-6.4007, 58.2858], [-6.4009, 58.8008], [-5.5859, 58.8008], [-5.5709, 58.8008], [-3.8707, 58.8008], [0.8293, 58.8008], [3.1293, 58.8008], [7.7343, 58.8008], [8.0468, 58.8008], [9.4993, 58.8008], [9.5143, 58.8008], [10.3293, 58.8008], [10.3293, 58.2858], [10.3293, 58.2708], [10.3293, 55.5908], [10.3293, 55.3008], [10.3293, 55.1958], [10.3293, 54.7908], [13.9143, 54.7908], [13.9143, 58.7858], [15.3993, 58.7858], [15.3993, 61.0858], [12.0143, 61.0858], [8.6343, 61.0858], [5.3143, 61.0858], [1.9643, 61.0858], [-1.3691, 61.0858], [-1.3707, 61.0858], [-1.3707, 61.0908], [-2.0855, 61.0908]], [[11.7518, 58.8008], [12.4768, 58.8008], [12.5293, 58.8008], [12.5293, 58.7483], [12.5293, 58.3233], [12.5293, 58.2708], [12.4768, 58.2708], [11.7518, 58.2708], [11.6993, 58.2708], [11.6993, 58.3233], [11.6993, 58.7483], [11.6993, 58.8008], [11.7518, 58.8008]], [[-8.5859, 58.7858], [-8.5484, 58.7858], [-8.5484, 58.8008], [-7.8234, 58.8008], [-7.8234, 58.7858], [-7.7859, 58.7858], [-7.7859, 58.7483], [-7.7709, 58.7483], [-7.7709, 58.3233], [-7.7859, 58.3233], [-7.7859, 58.2858], [-7.8234, 58.2858], [-7.8234, 58.2708], [-8.5484, 58.2708], [-8.5484, 58.2858], [-8.5859, 58.2858], [-8.5859, 58.3233], [-8.6009, 58.3233], [-8.6009, 58.7483], [-8.5859, 58.7483], [-8.5859, 58.7858]]]}, "properties": {"room_id": "5.CR1", "building_id": "B2", "floor": 5}}, {"type": "Feature", "geometry": {"type": "Polygon", "coordinates": [[[-8.4207, 36.2008], [-13.5207, 36.2008], [-13.5207, 35.8908], [-13.5207, 33.4408], [-13.5207, 32.9408], [-8.6008, 32.9408], [-8.6008, 33.4983], [-8.6008, 33.5508], [-8.5483, 33.5508], [-8.4207, 33.5508], [-8.4207, 36.2008]]]}, "properties": {"room_id": "ST-02", "building_id": "B2", "floor": 5}}, {"type": "Feature", "geometry": {"type": "Polygon", "coordinates": [[[-14.4357, 36.3108], [-14.4357, 37.0008], [-14.5482, 37.0008], [-15.5257, 37.0008], [-17.5257, 37.0008], [-17.7357, 37.0008], [-17.7357, 33.5508], [-17.7357, 32.7208], [-17.7357, 32.6074], [-17.7357, 32.5908], [-14.4357, 32.5908], [-14.4357, 36.3108]]]}, "properties": {"room_id": "EV-02", "building_id": "B2", "floor": 5}}, {"type": "Feature", "geometry": {"type": "Polygon", "coordinates": [[[0.8293, 58.2708], [-3.8707, 58.2708], [-5.5709, 58.2708], [-5.5857, 58.2708], [-6.1807, 58.2708], [-6.1807, 55.5908], [-5.5807, 55.5908], [-5.5807, 54.5858], [9.5093, 54.5858], [9.5093, 55.5908], [10.1093, 55.5908], [10.1093, 58.2708], [9.4993, 58.2708], [8.0468, 58.2708], [7.7343, 58.2708], [3.1293, 58.2708], [0.8293, 58.2708]]]}, "properties": {"room_id": "ST-01", "building_id": "B2", "floor": 5}}, {"type": "Feature", "geometry": {"type": "Polygon", "coordinates": [[[-1.5757, 63.7258], [-1.6212, 63.7258], [-4.9862, 63.7258], [-5.0417, 63.7258], [-5.1933, 63.7258], [-6.1957, 63.7258], [-6.1957, 61.3058], [-5.6855, 61.3058], [-4.4855, 61.3058], [-3.2855, 61.3058], [-2.0855, 61.3058], [-1.5757, 61.3058], [-1.5757, 61.3074], [-1.5757, 63.7258]]]}, "properties": {"room_id": "EV-01", "building_id": "B2", "floor": 5}}, {"type": "Feature", "geometry": {"type": "Polygon", "coordinates": [[[-16.1657, 67.1658], [-17.7657, 67.1658], [-17.7657, 67.0508], [-17.7207, 67.0508], [-17.7207, 66.2208], [-17.7657, 66.2208], [-17.7657, 61.3058], [-16.1657, 61.3058], [-16.1657, 63.8708], [-16.1657, 64.1683], [-16.1657, 67.1658]]]}, "properties": {"room_id": "518", "building_id": "B2", "floor": 5}}, {"type": "Feature", "geometry": {"type": "Polygon", "coordinates": [[[-17.5257, 37.2158], [-17.5257, 37.2058], [-15.5257, 37.2058], [-15.5257, 37.2158], [-14.6507, 37.2158], [-14.6507, 39.796], [-10.1057, 39.796], [-10.1057, 41.596], [-13.7508, 41.596], [-13.9038, 41.596], [-15.3357, 41.596], [-15.3357, 43.8661], [-13.8608, 43.8661], [-13.8608, 45.3361], [-15.3357, 45.3361], [-15.3357, 49.4511], [-13.8608, 49.4511], [-13.8608, 51.1711], [-15.3357, 51.1711], [-15.3357, 52.4344], [-13.8608, 52.4344], [-13.8608, 53.8954], [-15.3357, 53.8954], [-15.3357, 54.8358], [-15.3357, 54.8858], [-15.3357, 54.8874], [-15.3357, 55.7008], [-15.3357, 55.7858], [-15.3357, 58.7858], [-10.2207, 58.7858], [-10.2207, 60.8483], [-10.2207, 61.1008], [-10.2457, 61.1008], [-16.0632, 61.1008], [-17.7207, 61.1008], [-17.7207, 60.7508], [-17.7207, 59.9208], [-17.7207, 59.3408], [-19.0108, 59.3408], [-19.0108, 57.5408], [-17.6357, 57.5408], [-17.6357, 55.5408], [-19.0108, 55.5408], [-19.0108, 53.7408], [-18.5507, 53.7408], [-17.7207, 53.7408], [-17.7207, 52.8208], [-17.7207, 48.6954], [-19.0108, 48.6954], [-19.0108, 47.2254], [-17.7207, 47.2254], [-17.7207, 46.9508], [-17.7207, 46.1208], [-17.7207, 45.3354], [-19.0108, 45.3354], [-19.0108, 43.8654], [-17.6357, 43.8654], [-17.6357, 42.3004], [-19.0092, 42.3004], [-19.0108, 42.3004], [-19.0108, 40.5408], [-17.7207, 40.5408], [-17.7207, 40.1508], [-17.7207, 39.3208], [-17.7207, 37.2158], [-17.5257, 37.2158]]]}, "properties": {"room_id": "5.CR3", "building_id": "B2", "floor": 5}}, {"type": "Feature", "geometry": {"type": "Polygon", "coordinates": [[[-19.2308, 47.5354], [-19.2308, 48.7454], [-19.2308, 53.0158], [-23.1208, 53.0158], [-23.1208, 47.5354], [-19.2308, 47.5354]]]}, "properties": {"room_id": "B2-511.1", "building_id": "B2", "floor": 5}}, {"type": "Feature", "geometry": {"type": "Polygon", "coordinates": [[[-19.2308, 43.2022], [-19.2308, 43.8154], [-19.2308, 45.3854], [-19.2308, 47.1754], [-19.2308, 47.3354], [-23.1208, 47.3354], [-23.1208, 43.2022], [-19.2308, 43.2022]]]}, "properties": {"room_id": "B2-511.2", "building_id": "B2", "floor": 5}}, {"type": "Feature", "geometry": {"type": "Polygon", "coordinates": [[[-19.2308, 36.5142], [-19.2308, 40.363], [-23.1208, 40.363], [-23.1208, 36.5142], [-19.2308, 36.5142]]]}, "properties": {"room_id": "B2-511.3", "building_id": "B2", "floor": 5}}, {"type": "Feature", "geometry": {"type": "Polygon", "coordinates": [[[-19.2308, 32.6058], [-19.2308, 36.3142], [-23.1208, 36.3142], [-23.1208, 32.6058], [-19.2308, 32.6058]]]}, "properties": {"room_id": "B2-511.4", "building_id": "B2", "floor": 5}}, {"type": "Feature", "geometry": {"type": "Polygon", "coordinates": [[[-28.7157, 36.2942], [-28.7157, 33.5508], [-28.6007, 33.5508], [-27.8232, 33.5508], [-27.7707, 33.5508], [-27.7707, 33.4983], [-27.7707, 32.7208], [-27.7707, 32.6058], [-25.3707, 32.6058], [-25.3707, 36.2942], [-28.7157, 36.2942]]]}, "properties": {"room_id": "B2-511.5", "building_id": "B2", "floor": 5}}, {"type": "Feature", "geometry": {"type": "Polygon", "coordinates": [[[-28.7157, 39.3208], [-28.7157, 36.5142], [-25.3707, 36.5142], [-25.3707, 40.343], [-28.7157, 40.343], [-28.7157, 40.1508], [-28.6007, 40.1508], [-27.8232, 40.1508], [-27.7707, 40.1508], [-27.7707, 40.0983], [-27.7707, 39.3733], [-27.7707, 39.3208], [-27.8232, 39.3208], [-28.6007, 39.3208], [-28.7157, 39.3208]]]}, "properties": {"room_id": "B2-511.6", "building_id": "B2", "floor": 5}}, {"type": "Feature", "geometry": {"type": "Polygon", "coordinates": [[[-28.7157, 45.3354], [-28.7157, 40.563], [-25.3707, 40.563], [-25.3707, 45.3354], [-28.7157, 45.3354]]]}, "properties": {"room_id": "B2-511.7", "building_id": "B2", "floor": 5}}, {"type": "Feature", "geometry": {"type": "Polygon", "coordinates": [[[-28.7157, 46.1208], [-28.7157, 45.5554], [-25.3707, 45.5554], [-25.3707, 49.3223], [-28.7157, 49.3223], [-28.7157, 46.9508], [-28.6007, 46.9508], [-27.8232, 46.9508], [-27.7707, 46.9508], [-27.7707, 46.8983], [-27.7707, 46.1733], [-27.7707, 46.1208], [-27.8232, 46.1208], [-28.6007, 46.1208], [-28.7157, 46.1208]]]}, "properties": {"room_id": "B2-511.8", "building_id": "B2", "floor": 5}}, {"type": "Feature", "geometry": {"type": "Polygon", "coordinates": [[[-28.7157, 52.8208], [-28.7157, 49.5423], [-25.3707, 49.5423], [-25.3707, 53.0158], [-27.7707, 53.0158], [-27.7707, 52.8733], [-27.7707, 52.8208], [-27.8232, 52.8208], [-28.6007, 52.8208], [-28.7157, 52.8208]]]}, "properties": {"room_id": "B2-511.9", "building_id": "B2", "floor": 5}}, {"type": "Feature", "geometry": {"type": "Polygon", "coordinates": [[[-23.7957, 67.1658], [-27.7707, 67.1658], [-27.7707, 67.0508], [-27.7707, 66.2733], [-27.7707, 66.2208], [-27.8232, 66.2208], [-28.6007, 66.2208], [-28.7157, 66.2208], [-28.7157, 60.3508], [-28.6007, 60.3508], [-27.8232, 60.3508], [-27.7707, 60.3508], [-27.7707, 60.2983], [-27.7707, 59.5733], [-27.7707, 59.5208], [-27.8232, 59.5208], [-28.6007, 59.5208], [-28.7157, 59.5208], [-28.7157, 56.6058], [-23.7957, 56.6058], [-23.7957, 67.1658]]]}, "properties": {"room_id": "B2-516A", "building_id": "B2", "floor": 5}}, {"type": "Feature", "geometry": {"type": "Polygon", "coordinates": [[[-19.2308, 67.1658], [-23.5757, 67.1658], [-23.5757, 56.6058], [-19.2308, 56.6058], [-19.2308, 57.4908], [-19.2308, 59.3933], [-19.2308, 67.1658]]]}, "properties": {"room_id": "B2-516B", "building_id": "B2", "floor": 5}}]}