{"type": "FeatureCollection", "features": [{"type": "Feature", "geometry": {"type": "Polygon", "coordinates": [[[-19.4699, 36.6903], [-13.5148, 36.6903], [-9.1999, 36.6903], [-0.1749, 36.6903], [-0.1749, 41.3103], [-0.1749, 42.3453], [0.6401, 42.3453], [0.6401, 48.0103], [0.0301, 48.0103], [0.0301, 48.8253], [-8.9899, 48.8253], [-8.9899, 47.9103], [-10.0199, 47.9103], [-10.0199, 48.8253], [-19.1399, 48.8253], [-19.1399, 48.0103], [-19.4699, 48.0103], [-19.4699, 42.1403], [-19.1399, 42.1403], [-19.1399, 41.3103], [-19.4699, 41.3103], [-19.4699, 36.6903], [-13.5148, 36.6903], [-9.1999, 36.6903], [-0.1749, 36.6903], [-0.1749, 41.3103], [-0.1749, 42.3453], [0.6401, 42.3453], [0.6401, 48.0103], [0.0301, 48.0103], [0.0301, 48.8253], [-8.9899, 48.8253], [-8.9899, 47.9103], [-10.0199, 47.9103], [-10.0199, 48.8253], [-19.1399, 48.8253], [-19.1399, 48.0103], [-19.4699, 48.0103], [-19.4699, 42.1403], [-19.1399, 42.1403], [-19.1399, 41.3103], [-19.4699, 41.3103], [-19.4699, 36.6903]], [[-9.0049, 42.2403], [-9.0049, 41.2103], [-10.0349, 41.2103], [-10.0349, 42.2403], [-9.0049, 42.2403], [-9.0049, 41.2103], [-10.0349, 41.2103], [-10.0349, 42.2403], [-9.0049, 42.2403]]]}, "properties": {"room_id": "B3-109", "building_id": "B3", "floor": 1}}, {"type": "Feature", "geometry": {"type": "Polygon", "coordinates": [[[-9.3099, 36.4703], [-13.4048, 36.4703], [-13.4048, 27.7953], [-9.3099, 27.7953], [-9.3099, 27.9103], [-9.9199, 27.9103], [-9.9199, 28.7403], [-9.3099, 28.7403], [-9.3099, 33.7578], [-9.3099, 34.3603], [-9.9199, 34.3603], [-9.9199, 35.6903], [-9.3099, 35.6903], [-9.3099, 36.4703]]]}, "properties": {"room_id": "B3-103A", "building_id": "B3", "floor": 1}}, {"type": "Feature", "geometry": {"type": "Polygon", "coordinates": [[[-4.8899, 58.7603], [0.2101, 58.7603], [0.2101, 61.4103], [0.0301, 61.4103], [0.0301, 62.0203], [-4.8899, 62.0203], [-4.8899, 61.5203], [-4.8899, 59.0703], [-4.8899, 58.7603]]]}, "properties": {"room_id": "ST-02", "building_id": "B3", "floor": 1}}, {"type": "Feature", "geometry": {"type": "Polygon", "coordinates": [[[3.8301, 59.7255], [7.4301, 59.7255], [7.4301, 61.4003], [6.2301, 61.4003], [6.2301, 62.3453], [3.8301, 62.3453], [3.8301, 61.7452], [3.6901, 61.7452], [3.6901, 62.3453], [2.4601, 62.3453], [2.4601, 60.5452], [3.8301, 60.5452], [3.8301, 59.7255]]]}, "properties": {"room_id": "1.WC3", "building_id": "B3", "floor": 1}}, {"type": "Feature", "geometry": {"type": "Polygon", "coordinates": [[[2.4501, 39.3703], [2.4501, 36.6919], [2.4501, 36.6903], [3.0451, 36.6903], [3.0601, 36.6903], [4.7451, 36.6903], [9.4451, 36.6903], [11.7451, 36.6903], [16.4451, 36.6903], [17.0901, 36.6903], [17.0901, 36.3653], [18.1301, 36.3653], [18.1301, 36.6903], [18.7401, 36.6903], [18.7401, 36.7463], [18.7401, 39.3703], [18.14, 39.3703], [18.14, 40.3963], [3.0501, 40.3963], [3.0501, 39.3703], [2.4501, 39.3703]]]}, "properties": {"room_id": "ST-01", "building_id": "B3", "floor": 1}}, {"type": "Feature", "geometry": {"type": "Polygon", "coordinates": [[[12.0346, 54.8391], [13.7666, 54.2087], [14.8801, 54.7639], [14.8821, 54.7694], [16.4211, 58.9978], [16.5155, 58.9634], [16.9816, 60.244], [16.5279, 60.9147], [16.328, 60.915], [16.3279, 60.815], [11.5953, 60.815], [11.5932, 60.815], [10.698, 59.976], [10.698, 59.915], [10.698, 56.3977], [10.698, 56.3413], [10.698, 56.2659], [10.5953, 56.2659], [10.5953, 55.9568], [11.2533, 55.0171], [11.9798, 54.7527], [12.014, 54.8466], [12.0346, 54.8391]], [[14.3601, 55.6403], [14.3601, 54.8103], [13.5301, 54.8103], [13.5301, 55.6403], [14.3601, 55.6403]]]}, "properties": {"room_id": "B3-108", "building_id": "B3", "floor": 1}}, {"type": "Feature", "geometry": {"type": "Polygon", "coordinates": [[[2.9453, 33.6553], [2.4351, 33.6553], [2.4351, 31.2353], [3.4985, 31.2353], [3.5526, 31.2353], [3.6067, 31.2353], [7.0535, 31.2353], [7.0551, 31.2353], [7.0551, 33.6553], [6.5454, 33.6553], [5.3454, 33.6553], [4.1454, 33.6553], [2.9453, 33.6553]]]}, "properties": {"room_id": "EV-01", "building_id": "B3", "floor": 1}}, {"type": "Feature", "geometry": {"type": "Polygon", "coordinates": [[[-5.8049, 62.3703], [-9.1049, 62.3703], [-9.1049, 61.4103], [-9.1049, 57.9353], [-8.0149, 57.9353], [-6.0149, 57.9353], [-5.8049, 57.9353], [-5.8049, 58.6503], [-5.8049, 62.3687], [-5.8049, 62.3703]]]}, "properties": {"room_id": "EV-02", "building_id": "B3", "floor": 1}}, {"type": "Feature", "geometry": {"type": "Polygon", "coordinates": [[[-10.0199, 49.0453], [-9.3249, 49.0453], [-9.3249, 51.5764], [-9.3249, 51.8554], [-9.3249, 51.9064], [-9.3099, 51.9064], [-9.3099, 54.5603], [-9.9199, 54.5603], [-9.9199, 55.8903], [-9.3099, 55.8903], [-9.3099, 57.7187], [-9.3099, 57.8328], [-9.3049, 57.9353], [-9.3049, 57.9369], [-9.3049, 61.4103], [-9.9199, 61.4103], [-9.9199, 61.4253], [-9.9199, 62.2403], [-9.9199, 62.5813], [-9.9199, 63.0753], [-20.8049, 63.0753], [-20.8049, 49.0453], [-20.0259, 49.0453], [-19.9699, 49.0453], [-19.1399, 49.0453], [-10.0199, 49.0453]], [[-19.1399, 55.6403], [-19.1399, 54.8103], [-19.9699, 54.8103], [-19.9699, 55.6403], [-19.1399, 55.6403]], [[-19.1399, 62.2403], [-19.1399, 61.4103], [-19.9699, 61.4103], [-19.9699, 62.2403], [-19.1399, 62.2403]]]}, "properties": {"room_id": "105", "building_id": "B3", "floor": 1}}, {"type": "Feature", "geometry": {"type": "Polygon", "coordinates": [[[0.0301, 36.4703], [-9.0899, 36.4703], [-9.0899, 35.6903], [-9.0899, 34.9728], [-9.0899, 34.3603], [-9.0899, 33.8603], [-7.3874, 33.8603], [-1.5699, 33.8603], [0.4301, 33.8603], [0.4301, 33.4028], [0.4301, 31.0303], [-1.5099, 31.0303], [-1.5099, 29.5103], [0.0826, 29.5103], [0.4301, 29.5103], [0.4301, 28.7403], [0.8601, 28.7403], [0.8601, 28.6878], [0.8601, 27.9103], [0.8601, 27.7953], [1.1752, 27.7953], [2.1852, 27.7953], [2.2301, 27.7953], [2.2301, 27.9533], [2.2301, 28.1403], [2.2301, 29.5103], [3.5001, 29.5103], [3.5001, 30.7928], [3.5001, 30.8469], [3.5001, 31.0303], [2.2301, 31.0303], [2.2301, 33.8703], [2.9453, 33.8703], [2.9453, 33.8603], [4.1454, 33.8603], [4.1454, 33.8703], [5.3454, 33.8703], [5.3454, 33.8603], [6.5454, 33.8603], [6.5454, 33.8703], [7.6601, 33.8703], [7.6601, 31.1403], [7.6601, 30.9383], [7.6662, 30.9382], [8.9527, 31.9797], [18.9242, 29.6705], [19.9142, 30.1139], [20.6807, 31.4854], [20.3874, 31.6493], [20.5484, 31.9374], [20.7318, 31.835], [21.7245, 33.6114], [21.5412, 33.7138], [21.7022, 34.0019], [21.9955, 33.8379], [22.8755, 35.4124], [21.9918, 36.6963], [21.1601, 36.6963], [21.1601, 36.1603], [20.3301, 36.1603], [20.3301, 36.6963], [18.9601, 36.6963], [18.9601, 36.1603], [18.1301, 36.1603], [17.0376, 36.1603], [16.4451, 36.1603], [11.7451, 36.1603], [9.4451, 36.1603], [4.7451, 36.1603], [3.0601, 36.1603], [3.0451, 36.1603], [2.2301, 36.1603], [2.2301, 36.4703], [2.2285, 36.4703], [0.8601, 36.4703], [0.8601, 36.1603], [0.0301, 36.1603], [0.0301, 36.4703]]]}, "properties": {"room_id": "1.LB3", "building_id": "B3", "floor": 1}}, {"type": "Feature", "geometry": {"type": "Polygon", "coordinates": [[[7.4301, 59.1955], [3.8301, 59.1955], [3.8301, 58.5955], [2.4601, 58.5955], [2.4601, 56.5158], [7.4301, 56.5158], [7.4301, 59.1955]]]}, "properties": {"room_id": "2.WC4", "building_id": "B3", "floor": 1}}, {"type": "Feature", "geometry": {"type": "Polygon", "coordinates": [[[-7.2599, 30.7303], [-7.2599, 27.8053], [0.0201, 27.8053], [0.0201, 29.3803], [-1.6399, 29.3803], [-1.6399, 29.9803], [-4.3299, 29.9803], [-4.3299, 29.2543], [-4.4699, 29.2543], [-4.4699, 30.7303], [-7.2599, 30.7303]]]}, "properties": {"room_id": "1.WC2", "building_id": "B3", "floor": 1}}, {"type": "Feature", "geometry": {"type": "Polygon", "coordinates": [[[2.3501, 29.3903], [2.3501, 28.1403], [2.3501, 27.8053], [3.5001, 27.8053], [3.5001, 28.2443], [3.6201, 28.2443], [3.6201, 27.8053], [5.2301, 27.8053], [5.2301, 28.2553], [5.3701, 28.2553], [5.3701, 27.8053], [6.8301, 27.8053], [6.8301, 28.7203], [6.8301, 28.7403], [7.1401, 28.7403], [7.1401, 30.7403], [3.6201, 30.7403], [3.6201, 29.3903], [2.3501, 29.3903]]]}, "properties": {"room_id": "1.WC1", "building_id": "B3", "floor": 1}}, {"type": "Feature", "geometry": {"type": "Polygon", "coordinates": [[[-1.6399, 31.0203], [-4.3299, 31.0203], [-4.3299, 30.1203], [-1.6399, 30.1203], [-1.6399, 31.0203]]]}, "properties": {"room_id": "1.JC", "building_id": "B3", "floor": 1}}, {"type": "Feature", "geometry": {"type": "Polygon", "coordinates": [[[0.2001, 33.3403], [-1.4999, 33.3403], [-1.4999, 31.1603], [0.2001, 31.1603], [0.2001, 33.3403]]]}, "properties": {"room_id": "1.WC5", "building_id": "B3", "floor": 1}}, {"type": "Feature", "geometry": {"type": "Polygon", "coordinates": [[[-9.0899, 51.9654], [0.5251, 51.9654], [0.5251, 54.8103], [0.0301, 54.8103], [0.0301, 55.165], [-5.8199, 55.165], [-5.8199, 57.7203], [-6.0149, 57.7203], [-6.0149, 57.7303], [-8.0149, 57.7303], [-8.0149, 57.7203], [-9.0899, 57.7203], [-9.0899, 55.8903], [-9.0899, 54.5603], [-9.0899, 51.9654]]]}, "properties": {"room_id": "1.LB2", "building_id": "B3", "floor": 1}}, {"type": "Feature", "geometry": {"type": "Polygon", "coordinates": [[[-9.0899, 27.7953], [-8.6648, 27.7953], [-7.6548, 27.7953], [-7.4899, 27.7953], [-7.4899, 30.7228], [-7.4899, 31.0903], [-7.4899, 33.6553], [-9.0899, 33.6553], [-9.0899, 28.7403], [-9.0899, 27.9103], [-9.0899, 27.7953]]]}, "properties": {"room_id": "B3-110", "building_id": "B3", "floor": 1}}, {"type": "Feature", "geometry": {"type": "Polygon", "coordinates": [[[18.7401, 53.2053], [3.2158, 53.2053], [3.2158, 42.1253], [18.7401, 42.1253], [18.7401, 53.2053]]]}, "properties": {"room_id": "1.CY", "building_id": "B3", "floor": 1}}, {"type": "Feature", "geometry": {"type": "Polygon", "coordinates": [[[-19.8729, 36.4703], [-20.0759, 36.4703], [-20.0759, 36.7333], [-20.0759, 41.3103], [-20.0759, 42.1403], [-20.0759, 48.0103], [-20.0759, 49.0453], [-20.8049, 49.0453], [-20.8049, 27.0753], [28.5951, 27.0753], [28.5951, 63.0753], [-9.9049, 63.0753], [-9.9049, 62.6813], [-9.8674, 62.6813], [0.8076, 62.6813], [0.8601, 62.6813], [2.2301, 62.6813], [2.3401, 62.6813], [7.7801, 62.6813], [7.7801, 56.3948], [7.7801, 55.6403], [7.7801, 54.8103], [7.5771, 54.8103], [6.8301, 54.8103], [6.8301, 55.6403], [7.6801, 55.6403], [7.6801, 56.2848], [2.2301, 56.2848], [2.2301, 58.8255], [3.7001, 58.8255], [3.7001, 59.258], [3.7001, 59.663], [3.7001, 60.3152], [2.2301, 60.3152], [2.2301, 62.5813], [2.2301, 62.6813], [0.8601, 62.6813], [0.8601, 62.5813], [0.8601, 62.2403], [0.8601, 61.4253], [0.8601, 61.4103], [0.4301, 61.4103], [0.4301, 58.6578], [0.4301, 55.6403], [0.8601, 55.6403], [0.8601, 54.8103], [0.7451, 54.8103], [0.7451, 51.7454], [-9.3099, 51.7454], [-9.3099, 49.0453], [-8.9899, 49.0453], [0.0301, 49.0453], [0.8601, 49.0453], [0.8601, 48.0103], [0.8601, 42.1403], [0.8601, 41.3103], [0.0451, 41.3103], [0.0451, 36.6903], [0.8451, 36.6903], [0.8601, 36.6903], [2.2301, 36.6903], [2.2301, 39.3703], [2.2301, 39.6603], [2.2301, 40.2878], [2.2301, 40.2933], [2.2301, 40.4963], [2.7601, 40.4963], [3.0501, 40.4963], [18.14, 40.4963], [18.4301, 40.4963], [18.9601, 40.4963], [18.9601, 40.2933], [18.9601, 40.2878], [18.9601, 39.6603], [18.9601, 39.3703], [18.9601, 36.7963], [20.3301, 36.7963], [21.1601, 36.7963], [21.9922, 36.7963], [22.9663, 35.3701], [22.0828, 33.7892], [21.9218, 33.5011], [21.8293, 33.5528], [20.8365, 31.7764], [20.929, 31.7247], [20.768, 31.4366], [20.0008, 30.0637], [18.9036, 29.5727], [8.933, 31.8817], [7.7662, 30.9353], [7.7662, 27.4693], [2.1852, 27.4693], [2.1852, 27.5753], [1.1752, 27.5753], [1.1752, 27.4693], [-7.6548, 27.4693], [-7.6548, 27.5753], [-8.6648, 27.5753], [-8.6648, 27.4693], [-13.5148, 27.4693], [-13.6248, 27.4693], [-13.6248, 36.4703], [-19.4699, 36.4703], [-19.8729, 36.4703]], [[14.3601, 28.7403], [14.3601, 27.9103], [13.5301, 27.9103], [13.5301, 28.7403], [14.3601, 28.7403]], [[14.3601, 62.2403], [14.3601, 61.4103], [13.5301, 61.4103], [13.5301, 62.2403], [14.3601, 62.2403]], [[-19.1399, 28.7403], [-19.1399, 27.9103], [-19.9699, 27.9103], [-19.9699, 28.7403], [-19.1399, 28.7403]], [[-19.1399, 35.4403], [-19.1399, 34.6103], [-19.9699, 34.6103], [-19.9699, 35.4403], [-19.1399, 35.4403]], [[3.2158, 53.2053], [18.7401, 53.2053], [18.7401, 42.1253], [3.2158, 42.1253], [3.2158, 53.2053]], [[13.7351, 54.1138], [12.0005, 54.7451], [11.9798, 54.7527], [11.2533, 55.0171], [10.5953, 55.9568], [10.5953, 56.2659], [10.5953, 56.3413], [10.598, 56.3413], [10.598, 56.3977], [10.5953, 56.3977], [10.5953, 59.915], [10.598, 59.915], [10.598, 59.9798], [11.5925, 60.915], [11.5953, 60.915], [16.3079, 60.915], [16.5117, 60.915], [16.5279, 60.915], [16.9816, 60.244], [16.5155, 58.9634], [16.5127, 58.9558], [14.974, 54.7283], [14.9738, 54.729], [13.7351, 54.1138]]]}, "properties": {"room_id": "1.TR", "building_id": "B3", "floor": 1}}, {"type": "Feature", "geometry": {"type": "Polygon", "coordinates": [[[-10.5999, 62.3553], [-19.1399, 62.3553], [-19.1399, 62.2403], [-19.1399, 62.2253], [-19.1399, 61.4103], [-19.9549, 61.4103], [-19.9699, 61.4103], [-20.0849, 61.4103], [-20.0849, 55.6403], [-19.9699, 55.6403], [-19.9549, 55.6403], [-19.1399, 55.6403], [-19.1399, 55.2453], [-10.5999, 55.2453], [-10.5999, 55.5903], [-10.5999, 57.1178], [-10.5999, 62.3553], [-19.1399, 62.3553], [-19.1399, 62.2403], [-19.1399, 62.2253], [-19.1399, 61.4103], [-19.9549, 61.4103], [-19.9699, 61.4103], [-20.0849, 61.4103], [-20.0849, 55.6403], [-19.9699, 55.6403], [-19.9549, 55.6403], [-19.1399, 55.6403], [-19.1399, 55.2453], [-10.5999, 55.2453], [-10.5999, 55.5903], [-10.5999, 57.1178], [-10.5999, 62.3553]]]}, "properties": {"room_id": "B3-210", "building_id": "B3", "floor": 2}}, {"type": "Feature", "geometry": {"type": "Polygon", "coordinates": [[[-20.0849, 48.0103], [-20.0849, 46.2353], [-10.5999, 46.2353], [-10.5999, 46.3553], [-10.5999, 47.8103], [-10.5999, 49.9584], [-10.5999, 51.3234], [-10.5999, 51.6434], [-20.0849, 51.6434], [-20.0849, 48.8403], [-19.9699, 48.8403], [-19.9549, 48.8403], [-19.1399, 48.8403], [-19.1399, 48.0103], [-19.9549, 48.0103], [-19.9699, 48.0103], [-20.0849, 48.0103]]]}, "properties": {"room_id": "B3-208B", "building_id": "B3", "floor": 2}}, {"type": "Feature", "geometry": {"type": "Polygon", "coordinates": [[[-20.0849, 41.3103], [-20.0849, 37.3603], [-10.6015, 37.3603], [-10.5999, 37.3603], [-10.5999, 38.1356], [-10.5999, 39.6656], [-10.5999, 43.1753], [-10.5999, 44.9753], [-10.5999, 46.0153], [-20.0849, 46.0153], [-20.0849, 42.1403], [-19.9699, 42.1403], [-19.9549, 42.1403], [-19.1399, 42.1403], [-19.1399, 41.3103], [-19.9549, 41.3103], [-19.9699, 41.3103], [-20.0849, 41.3103]]]}, "properties": {"room_id": "B3-206", "building_id": "B3", "floor": 2}}, {"type": "Feature", "geometry": {"type": "Polygon", "coordinates": [[[-20.0849, 34.6103], [-20.0849, 28.7403], [-19.9699, 28.7403], [-19.9549, 28.7403], [-19.1399, 28.7403], [-19.1399, 27.9253], [-19.1399, 27.9103], [-19.1399, 27.7954], [-10.5999, 27.7954], [-10.5999, 30.8202], [-10.5999, 35.3378], [-10.5999, 37.1403], [-20.0849, 37.1403], [-20.0849, 35.4403], [-19.9699, 35.4403], [-19.9549, 35.4403], [-19.1399, 35.4403], [-19.1399, 34.6103], [-19.9549, 34.6103], [-19.9699, 34.6103], [-20.0849, 34.6103], [-20.0849, 28.7403], [-19.9699, 28.7403], [-19.9549, 28.7403], [-19.1399, 28.7403], [-19.1399, 27.9253], [-19.1399, 27.9103], [-19.1399, 27.7954], [-10.5999, 27.7954], [-10.5999, 30.8202], [-10.5999, 35.3378], [-10.5999, 37.1403], [-20.0849, 37.1403], [-20.0849, 35.4403], [-19.9699, 35.4403], [-19.9549, 35.4403], [-19.1399, 35.4403], [-19.1399, 34.6103], [-19.9549, 34.6103], [-19.9699, 34.6103], [-20.0849, 34.6103]]]}, "properties": {"room_id": "B3-204", "building_id": "B3", "floor": 2}}, {"type": "Feature", "geometry": {"type": "Polygon", "coordinates": [[[-1.4148, 53.2003], [-6.4849, 53.2003], [-6.4849, 50.0903], [0.1251, 50.0903], [0.1251, 53.2003], [-1.4148, 53.2003], [-6.4849, 53.2003], [-6.4849, 50.0903], [0.1251, 50.0903], [0.1251, 53.2003], [-1.4148, 53.2003]]]}, "properties": {"room_id": "B3-207", "building_id": "B3", "floor": 2}}, {"type": "Feature", "geometry": {"type": "Polygon", "coordinates": [[[-6.4849, 49.8703], [-6.4849, 40.2953], [-3.7654, 40.2953], [-1.4799, 40.2953], [0.1251, 40.2953], [0.1251, 41.3103], [0.0301, 41.3103], [0.0301, 42.1403], [0.1251, 42.1403], [0.1251, 48.0103], [0.0301, 48.0103], [0.0301, 48.8403], [0.1251, 48.8403], [0.1251, 49.8703], [-6.4849, 49.8703], [-6.4849, 40.2953], [-3.7654, 40.2953], [-1.4799, 40.2953], [0.1251, 40.2953], [0.1251, 41.3103], [0.0301, 41.3103], [0.0301, 42.1403], [0.1251, 42.1403], [0.1251, 48.0103], [0.0301, 48.0103], [0.0301, 48.8403], [0.1251, 48.8403], [0.1251, 49.8703], [-6.4849, 49.8703]]]}, "properties": {"room_id": "B3-205", "building_id": "B3", "floor": 2}}, {"type": "Feature", "geometry": {"type": "Polygon", "coordinates": [[[-7.2599, 30.7303], [-7.2599, 27.8053], [0.0201, 27.8053], [0.0201, 29.3803], [-1.6399, 29.3803], [-1.6399, 29.9803], [-4.3299, 29.9803], [-4.3299, 29.2543], [-4.4699, 29.2543], [-4.4699, 30.7303], [-7.2599, 30.7303]]]}, "properties": {"room_id": "2.WC2", "building_id": "B3", "floor": 2}}, {"type": "Feature", "geometry": {"type": "Polygon", "coordinates": [[[14.3601, 27.7954], [20.3302, 27.7954], [20.3302, 27.9103], [20.3302, 27.9253], [20.3302, 28.7403], [20.9852, 28.7403], [20.9852, 31.6954], [20.9852, 33.4803], [7.6601, 33.4803], [7.6601, 31.1403], [7.6601, 28.7403], [7.6601, 27.9103], [7.6601, 27.7954], [13.5301, 27.7954], [13.5301, 27.9103], [13.5301, 27.9253], [13.5301, 28.7403], [14.3601, 28.7403], [14.3601, 27.9253], [14.3601, 27.9103], [14.3601, 27.7954]]]}, "properties": {"room_id": "B3-224", "building_id": "B3", "floor": 2}}, {"type": "Feature", "geometry": {"type": "Polygon", "coordinates": [[[21.3652, 27.7954], [26.9301, 27.7954], [26.9301, 27.9103], [26.9301, 27.9253], [26.9301, 28.7403], [27.7451, 28.7403], [27.7601, 28.7403], [27.8751, 28.7403], [27.8751, 31.5854], [23.4051, 31.5854], [21.3652, 31.5854], [21.3652, 28.7403], [21.3652, 27.9103], [21.3652, 27.7954]]]}, "properties": {"room_id": "B3-223", "building_id": "B3", "floor": 2}}, {"type": "Feature", "geometry": {"type": "Polygon", "coordinates": [[[27.8751, 31.8054], [27.8751, 34.6103], [27.7601, 34.6103], [26.9301, 34.6103], [26.6401, 34.6103], [26.6401, 35.2203], [23.5151, 35.2203], [23.5151, 31.8054], [27.8751, 31.8054]]]}, "properties": {"room_id": "B3-222", "building_id": "B3", "floor": 2}}, {"type": "Feature", "geometry": {"type": "Polygon", "coordinates": [[[27.8751, 35.4403], [27.8751, 38.2653], [23.5151, 38.2653], [23.5151, 36.3733], [23.5151, 36.2972], [23.5151, 36.2203], [23.5151, 35.4403], [26.6926, 35.4403], [26.9301, 35.4403], [27.7601, 35.4403], [27.8751, 35.4403]]]}, "properties": {"room_id": "B3-221", "building_id": "B3", "floor": 2}}, {"type": "Feature", "geometry": {"type": "Polygon", "coordinates": [[[27.8751, 38.4853], [27.8751, 41.3103], [27.7601, 41.3103], [27.7451, 41.3103], [26.9301, 41.3103], [26.9301, 41.6153], [23.5151, 41.6153], [23.5151, 38.4853], [27.8751, 38.4853]]]}, "properties": {"room_id": "B3-220", "building_id": "B3", "floor": 2}}, {"type": "Feature", "geometry": {"type": "Polygon", "coordinates": [[[27.8751, 42.1403], [27.8751, 44.9653], [23.5151, 44.9653], [23.5151, 41.8353], [26.9301, 41.8353], [26.9301, 42.1403], [27.7451, 42.1403], [27.7601, 42.1403], [27.8751, 42.1403]]]}, "properties": {"room_id": "B3-219", "building_id": "B3", "floor": 2}}, {"type": "Feature", "geometry": {"type": "Polygon", "coordinates": [[[27.8751, 45.1853], [27.8751, 48.0103], [27.7601, 48.0103], [27.7451, 48.0103], [26.9301, 48.0103], [26.9301, 48.3153], [23.5151, 48.3153], [23.5151, 45.1853], [27.8751, 45.1853]]]}, "properties": {"room_id": "B3-217", "building_id": "B3", "floor": 2}}, {"type": "Feature", "geometry": {"type": "Polygon", "coordinates": [[[27.8751, 48.8403], [27.8751, 53.2198], [23.5151, 53.2198], [23.5151, 48.5353], [26.9301, 48.5353], [26.9301, 48.8403], [27.7451, 48.8403], [27.7601, 48.8403], [27.8751, 48.8403]]]}, "properties": {"room_id": "B3-215", "building_id": "B3", "floor": 2}}, {"type": "Feature", "geometry": {"type": "Polygon", "coordinates": [[[27.8751, 55.5903], [27.8751, 61.4103], [27.7601, 61.4103], [27.7451, 61.4103], [26.9301, 61.4103], [26.9301, 62.2253], [26.9301, 62.2403], [26.9301, 62.3553], [23.5151, 62.3553], [23.5151, 56.1853], [23.5151, 56.0754], [23.5151, 56.0738], [23.5151, 53.4398], [27.8751, 53.4398], [27.8751, 54.8103], [27.7601, 54.8103], [27.7451, 54.8103], [26.9301, 54.8103], [26.9301, 55.6403], [26.9826, 55.6403], [26.9826, 55.5903], [27.7601, 55.5903], [27.8751, 55.5903]]]}, "properties": {"room_id": "B3-214", "building_id": "B3", "floor": 2}}, {"type": "Feature", "geometry": {"type": "Polygon", "coordinates": [[[23.2935, 56.2953], [23.2951, 56.2953], [23.2951, 62.3553], [21.1102, 62.3553], [21.1102, 62.2403], [21.1102, 61.4253], [21.1602, 61.4253], [21.1602, 61.4103], [20.3302, 61.4103], [20.3302, 62.2403], [21.0052, 62.2403], [21.0052, 62.3553], [14.3601, 62.3553], [14.3601, 62.2403], [14.3601, 62.2253], [14.3601, 61.4103], [13.5301, 61.4103], [13.5301, 62.2253], [13.5301, 62.2403], [13.5301, 62.3553], [10.6251, 62.3553], [10.6251, 56.2954], [11.1251, 56.2954], [13.3601, 56.2954], [13.4117, 56.2954], [21.0586, 56.2954], [21.1102, 56.2954], [23.2935, 56.2953], [23.2951, 56.2953], [23.2951, 62.3553], [21.1102, 62.3553], [21.1102, 62.2403], [21.1102, 61.4253], [21.1602, 61.4253], [21.1602, 61.4103], [20.3302, 61.4103], [20.3302, 62.2403], [21.0052, 62.2403], [21.0052, 62.3553], [14.3601, 62.3553], [14.3601, 62.2403], [14.3601, 62.2253], [14.3601, 61.4103], [13.5301, 61.4103], [13.5301, 62.2253], [13.5301, 62.2403], [13.5301, 62.3553], [10.6251, 62.3553], [10.6251, 56.2954], [11.1251, 56.2954], [13.3601, 56.2954], [13.4117, 56.2954], [21.0586, 56.2954], [21.1102, 56.2954], [23.2935, 56.2953]]]}, "properties": {"room_id": "B3-212", "building_id": "B3", "floor": 2}}, {"type": "Feature", "geometry": {"type": "Polygon", "coordinates": [[[3.8301, 59.7255], [7.4301, 59.7255], [7.4301, 61.4003], [6.2301, 61.4003], [6.2301, 62.3453], [3.8301, 62.3453], [3.8301, 61.7452], [3.6901, 61.7452], [3.6901, 62.3453], [2.4601, 62.3453], [2.4601, 60.5452], [3.8301, 60.5452], [3.8301, 59.7255]]]}, "properties": {"room_id": "2.WC3", "building_id": "B3", "floor": 2}}, {"type": "Feature", "geometry": {"type": "Polygon", "coordinates": [[[-20.0849, 54.8103], [-20.0849, 51.7634], [-10.5999, 51.7634], [-10.5999, 54.1206], [-10.5999, 55.0253], [-19.1399, 55.0253], [-19.1399, 54.8103], [-19.9549, 54.8103], [-19.9699, 54.8103], [-20.0849, 54.8103], [-20.0849, 51.7634], [-10.5999, 51.7634], [-10.5999, 54.1206], [-10.5999, 55.0253], [-19.1399, 55.0253], [-19.1399, 54.8103], [-19.9549, 54.8103], [-19.9699, 54.8103], [-20.0849, 54.8103]]]}, "properties": {"room_id": "B3-208A", "building_id": "B3", "floor": 2}}, {"type": "Feature", "geometry": {"type": "Polygon", "coordinates": [[[21.1451, 40.2553], [18.9601, 40.2553], [18.9601, 39.6603], [18.9601, 39.3703], [18.9601, 36.6903], [18.9601, 36.6753], [18.9601, 36.3803], [20.3301, 36.3803], [20.3301, 36.6903], [21.1601, 36.6903], [21.1601, 36.2803], [23.2951, 36.2803], [23.2951, 38.3753], [23.2951, 41.7253], [23.2951, 45.0753], [23.2951, 48.4253], [23.2951, 53.3298], [23.2951, 53.4235], [21.1451, 53.4235], [21.1451, 48.8403], [21.1451, 48.0103], [21.1451, 42.1403], [21.1451, 41.3103], [21.1451, 40.2553]]]}, "properties": {"room_id": "2.CR5", "building_id": "B3", "floor": 2}}, {"type": "Feature", "geometry": {"type": "Polygon", "coordinates": [[[-10.3799, 54.0706], [-10.3799, 51.7034], [-10.3799, 51.3734], [-9.0899, 51.3734], [-9.0899, 49.9584], [-9.0899, 48.8403], [-9.0899, 48.0103], [-9.0899, 47.7603], [-10.3799, 47.7603], [-10.3799, 46.4053], [-9.0899, 46.4053], [-9.0899, 44.9253], [-10.3799, 44.9253], [-10.3799, 43.2253], [-9.0899, 43.2253], [-9.0899, 42.1403], [-9.0899, 41.3103], [-9.0899, 39.6166], [-6.7049, 39.6166], [-6.7049, 40.0737], [-6.7049, 40.1853], [-6.7049, 49.9803], [-6.7049, 53.4203], [-1.5248, 53.4203], [-1.5248, 55.2203], [-5.7174, 55.2203], [-5.7174, 55.165], [-9.0899, 55.165], [-9.0899, 54.8103], [-9.0899, 54.0706], [-10.3799, 54.0706]]]}, "properties": {"room_id": "2.CR3", "building_id": "B3", "floor": 2}}, {"type": "Feature", "geometry": {"type": "Polygon", "coordinates": [[[18.9601, 53.3035], [18.9601, 40.3919], [18.9601, 40.3753], [21.1451, 40.3753], [21.1451, 41.3103], [20.3302, 41.3103], [20.3302, 42.1403], [21.1451, 42.1403], [21.1451, 48.0103], [20.3302, 48.0103], [20.3302, 48.8403], [21.1451, 48.8403], [21.1451, 53.2857], [21.1451, 53.3035], [18.9601, 53.3035]]]}, "properties": {"room_id": "B3-218", "building_id": "B3", "floor": 2}}, {"type": "Feature", "geometry": {"type": "Polygon", "coordinates": [[[7.4301, 59.1955], [3.8301, 59.1955], [3.8301, 58.5955], [2.4601, 58.5955], [2.4601, 56.5158], [7.4301, 56.5158], [7.4301, 59.1955]]]}, "properties": {"room_id": "2.WC4", "building_id": "B3", "floor": 2}}, {"type": "Feature", "geometry": {"type": "Polygon", "coordinates": [[[2.2301, 31.0303], [2.2301, 33.7578], [2.2301, 33.8653], [2.2301, 36.1603], [2.2301, 36.5803], [2.2301, 36.6753], [2.2301, 36.6903], [2.2301, 39.3703], [2.2301, 39.6603], [2.2301, 40.3468], [2.2301, 40.3903], [2.2301, 53.4253], [3.0253, 53.4253], [3.0253, 55.4928], [2.2301, 55.4928], [2.2301, 56.2418], [2.2301, 56.3958], [2.2301, 58.8255], [3.7001, 58.8255], [3.7001, 59.258], [3.7001, 59.663], [3.7001, 60.3152], [2.2301, 60.3152], [2.2301, 62.3553], [0.8601, 62.3553], [0.8601, 62.2403], [0.8601, 62.2253], [0.8601, 61.4103], [0.4301, 61.4103], [0.4301, 58.6578], [0.4301, 55.6403], [0.8601, 55.6403], [0.8601, 54.8103], [0.0301, 54.8103], [0.0301, 55.2203], [-1.3048, 55.2203], [-1.3048, 53.4203], [0.3451, 53.4203], [0.3451, 49.9803], [0.3451, 48.8403], [0.8601, 48.8403], [0.8601, 48.0103], [0.3451, 48.0103], [0.3451, 42.1403], [0.8601, 42.1403], [0.8601, 41.3103], [0.3451, 41.3103], [0.3451, 40.0753], [-1.3699, 40.0753], [-1.3699, 39.1753], [-1.3849, 39.1753], [-1.3849, 34.1278], [-1.3699, 34.1278], [-1.3699, 33.8603], [0.4301, 33.8603], [0.4301, 33.4028], [0.4301, 31.0303], [-1.5099, 31.0303], [-1.5099, 29.5103], [0.0826, 29.5103], [0.4301, 29.5103], [0.4301, 28.7403], [0.8601, 28.7403], [0.8601, 28.6878], [0.8601, 27.9103], [0.8601, 27.7954], [2.2301, 27.7954], [2.2301, 27.9533], [2.2301, 28.1403], [2.2301, 29.5103], [3.5001, 29.5103], [3.5001, 30.7928], [3.5001, 30.8469], [3.5001, 31.0303], [2.2301, 31.0303]], [[0.0301, 36.1603], [0.0301, 36.6903], [0.8601, 36.6903], [0.8601, 36.1603], [0.0301, 36.1603]]]}, "properties": {"room_id": "2.CR2", "building_id": "B3", "floor": 2}}, {"type": "Feature", "geometry": {"type": "Polygon", "coordinates": [[[-1.6399, 31.0203], [-4.3299, 31.0203], [-4.3299, 30.1203], [-1.6399, 30.1203], [-1.6399, 31.0203]]]}, "properties": {"room_id": "2.JC", "building_id": "B3", "floor": 2}}, {"type": "Feature", "geometry": {"type": "Polygon", "coordinates": [[[0.2001, 33.3403], [-1.4999, 33.3403], [-1.4999, 31.1603], [0.2001, 31.1603], [0.2001, 33.3403]]]}, "properties": {"room_id": "2.WC5", "building_id": "B3", "floor": 2}}, {"type": "Feature", "geometry": {"type": "Polygon", "coordinates": [[[2.3501, 29.3903], [2.3501, 28.1403], [2.3501, 27.8053], [3.5001, 27.8053], [3.5001, 28.2443], [3.6201, 28.2443], [3.6201, 27.8053], [5.2301, 27.8053], [5.2301, 28.2553], [5.3701, 28.2553], [5.3701, 27.8053], [6.8301, 27.8053], [6.8301, 28.7203], [6.8301, 28.7403], [7.1401, 28.7403], [7.1401, 30.7403], [3.6201, 30.7403], [3.6201, 29.3903], [2.3501, 29.3903]]]}, "properties": {"room_id": "2.WC1", "building_id": "B3", "floor": 2}}, {"type": "Feature", "geometry": {"type": "Polygon", "coordinates": [[[23.2951, 56.0754], [21.1602, 56.0754], [21.1602, 55.6403], [21.1602, 55.2735], [21.1602, 54.8103], [20.3302, 54.8103], [20.3302, 55.2253], [14.3601, 55.2253], [14.3601, 54.8103], [13.5301, 54.8103], [13.5301, 55.2253], [13.3101, 55.2253], [13.3101, 56.0754], [11.1751, 56.0754], [11.1751, 55.2235], [9.8601, 55.2235], [9.8601, 56.0754], [8.1601, 56.0754], [8.1601, 55.2235], [7.6601, 55.2235], [7.6601, 54.8628], [7.6601, 54.8103], [6.8301, 54.8103], [6.8301, 55.6403], [6.8301, 56.2848], [3.1453, 56.2848], [3.1453, 55.5427], [3.1453, 53.4253], [18.8501, 53.4253], [18.8501, 53.4235], [21.2828, 53.4235], [23.2951, 53.4235], [23.2951, 56.0754]]]}, "properties": {"room_id": "2.CR4", "building_id": "B3", "floor": 2}}, {"type": "Feature", "geometry": {"type": "Polygon", "coordinates": [[[-1.5899, 40.0753], [-3.7054, 40.0753], [-3.7054, 39.1703], [-3.8254, 39.1703], [-3.8254, 40.0753], [-6.5849, 40.0753], [-6.5849, 39.6166], [-6.5849, 39.1703], [-6.7049, 39.1703], [-6.7049, 36.1953], [-1.5899, 36.1953], [-1.5899, 39.1753], [-1.5899, 40.0753]]]}, "properties": {"room_id": "B3-203", "building_id": "B3", "floor": 2}}, {"type": "Feature", "geometry": {"type": "Polygon", "coordinates": [[[-9.0899, 27.7954], [-7.4899, 27.7954], [-7.4899, 30.7228], [-7.4899, 31.0903], [-7.4899, 33.6553], [-9.0899, 33.6553], [-9.0899, 30.8202], [-9.0899, 28.7403], [-9.0899, 27.9103], [-9.0899, 27.7954]]]}, "properties": {"room_id": "B3-225", "building_id": "B3", "floor": 2}}, {"type": "Feature", "geometry": {"type": "Polygon", "coordinates": [[[7.2451, 33.8603], [7.6076, 33.8603], [21.3652, 33.8603], [21.3652, 31.8054], [23.2951, 31.8054], [23.2951, 35.3303], [23.2951, 36.1603], [23.2521, 36.1603], [21.1601, 36.1603], [20.3826, 36.1603], [20.3301, 36.1603], [18.9601, 36.1603], [18.9451, 36.1603], [18.1301, 36.1603], [16.4451, 36.1603], [11.7451, 36.1603], [9.4451, 36.1603], [7.2451, 36.1603], [7.2451, 33.8653], [7.2451, 33.8603]]]}, "properties": {"room_id": "2.CR1", "building_id": "B3", "floor": 2}}, {"type": "Feature", "geometry": {"type": "Polygon", "coordinates": [[[18.7401, 36.6903], [18.7401, 39.3703], [18.14, 39.3703], [18.14, 40.0603], [3.0501, 40.0603], [3.0501, 39.3703], [2.4501, 39.3703], [2.4501, 36.6903], [3.0601, 36.6903], [4.5126, 36.6903], [4.7451, 36.6903], [7.2451, 36.6903], [9.4451, 36.6903], [11.7451, 36.6903], [16.4451, 36.6903], [18.1301, 36.6903], [18.7401, 36.6903]]]}, "properties": {"room_id": "ST-01", "building_id": "B3", "floor": 2}}, {"type": "Feature", "geometry": {"type": "Polygon", "coordinates": [[[2.9453, 33.6553], [2.4351, 33.6553], [2.4351, 31.2353], [3.4985, 31.2353], [3.5526, 31.2353], [3.6067, 31.2353], [7.0535, 31.2353], [7.0551, 31.2353], [7.0551, 33.6553], [6.5454, 33.6553], [5.3454, 33.6553], [4.1454, 33.6553], [2.9453, 33.6553]]]}, "properties": {"room_id": "EV-01", "building_id": "B3", "floor": 2}}, {"type": "Feature", "geometry": {"type": "Polygon", "coordinates": [[[-4.8669, 62.0203], [-4.8899, 62.0203], [-4.8899, 61.5203], [-4.8899, 59.0703], [-4.8899, 59.0353], [-4.8899, 58.7603], [0.2101, 58.7603], [0.2101, 61.4103], [0.0301, 61.4103], [0.0301, 62.0203], [-4.8669, 62.0203]]]}, "properties": {"room_id": "ST-02", "building_id": "B3", "floor": 2}}, {"type": "Feature", "geometry": {"type": "Polygon", "coordinates": [[[-5.8049, 62.3703], [-9.1049, 62.3703], [-9.1049, 62.3687], [-9.1049, 62.2403], [-9.1049, 61.4103], [-9.1049, 57.9353], [-8.0149, 57.9353], [-6.0149, 57.9353], [-5.8049, 57.9353], [-5.8049, 58.6503], [-5.8049, 62.3687], [-5.8049, 62.3703]]]}, "properties": {"room_id": "EV-02", "building_id": "B3", "floor": 2}}, {"type": "Feature", "geometry": {"type": "Polygon", "coordinates": [[[-6.0149, 57.7203], [-6.0149, 57.7303], [-8.0149, 57.7303], [-8.0149, 57.7203], [-9.0899, 57.7203], [-9.0899, 57.0653], [-10.3799, 57.0653], [-10.3799, 55.6403], [-9.9199, 55.6403], [-9.0899, 55.6403], [-9.0899, 55.5903], [-9.0899, 55.165], [-5.8199, 55.165], [-5.8199, 57.7203], [-6.0149, 57.7203]]]}, "properties": {"room_id": "2.LB2", "building_id": "B3", "floor": 2}}, {"type": "Feature", "geometry": {"type": "Polygon", "coordinates": [[[3.0601, 36.1603], [3.0451, 36.1603], [2.2301, 36.1603], [2.2301, 33.8703], [2.9453, 33.8703], [2.9453, 33.8603], [4.1454, 33.8603], [4.1454, 33.8703], [5.3454, 33.8703], [5.3454, 33.8603], [6.5454, 33.8603], [6.5454, 33.8703], [7.2451, 33.8703], [7.2451, 36.1603], [4.7451, 36.1603], [4.5126, 36.1603], [3.0601, 36.1603]]]}, "properties": {"room_id": "2.LB1", "building_id": "B3", "floor": 2}}, {"type": "Feature", "geometry": {"type": "Polygon", "coordinates": [[[7.6601, 56.2954], [8.1101, 56.2954], [9.9101, 56.2954], [10.4051, 56.2954], [10.4051, 62.3553], [7.6601, 62.3553], [7.6601, 62.2403], [7.6601, 59.663], [7.6601, 59.3121], [7.6601, 59.258], [7.6601, 56.3948], [7.6601, 56.2954], [8.1101, 56.2954], [9.9101, 56.2954], [10.4051, 56.2954], [10.4051, 62.3553], [7.6601, 62.3553], [7.6601, 62.2403], [7.6601, 59.663], [7.6601, 59.3121], [7.6601, 59.258], [7.6601, 56.3948], [7.6601, 56.2954]]]}, "properties": {"room_id": "B3-213", "building_id": "B3", "floor": 2}}, {"type": "Feature", "geometry": {"type": "Polygon", "coordinates": [[[-9.0899, 35.3303], [-9.0899, 34.6103], [-9.0899, 33.8603], [-7.3874, 33.8603], [-1.5899, 33.8603], [-1.5899, 34.1278], [-1.5899, 36.1953], [-6.7049, 36.1953], [-6.7049, 39.1703], [-6.7049, 39.6166], [-8.9869, 39.6166], [-9.1399, 39.6166], [-9.1399, 39.6156], [-10.3799, 39.6156], [-10.3799, 38.1856], [-9.0899, 38.1856], [-9.0899, 37.1403], [-10.3369, 37.1403], [-10.3799, 37.1403], [-10.3799, 37.1387], [-10.3799, 35.4403], [-9.9199, 35.4403], [-9.9049, 35.4403], [-9.0899, 35.4403], [-9.0899, 35.3303]]]}, "properties": {"room_id": "203", "building_id": "B3", "floor": 2}}, {"type": "Feature", "geometry": {"type": "Polygon", "coordinates": [[[-10.2079, 62.3553], [-19.1399, 62.3553], [-19.1399, 62.2403], [-19.1399, 62.2253], [-19.1399, 61.4103], [-19.9549, 61.4103], [-19.9699, 61.4103], [-20.0849, 61.4103], [-20.0849, 55.5903], [-19.9699, 55.5903], [-19.9549, 55.5903], [-19.9549, 55.6403], [-19.1399, 55.6403], [-19.1399, 55.3903], [-10.1574, 55.3903], [-9.9199, 55.3903], [-9.9199, 55.6403], [-9.3099, 55.6403], [-9.3099, 57.7187], [-9.3099, 57.7303], [-9.3099, 61.2703], [-9.9199, 61.2703], [-10.2079, 61.2703], [-10.2079, 62.3553], [-19.1399, 62.3553], [-19.1399, 62.2403], [-19.1399, 62.2253], [-19.1399, 61.4103], [-19.9549, 61.4103], [-19.9699, 61.4103], [-20.0849, 61.4103], [-20.0849, 55.5903], [-19.9699, 55.5903], [-19.9549, 55.5903], [-19.9549, 55.6403], [-19.1399, 55.6403], [-19.1399, 55.3903], [-10.1574, 55.3903], [-9.9199, 55.3903], [-9.9199, 55.6403], [-9.3099, 55.6403], [-9.3099, 57.7187], [-9.3099, 57.7303], [-9.3099, 61.2703], [-9.9199, 61.2703], [-10.2079, 61.2703], [-10.2079, 62.3553]]]}, "properties": {"room_id": "B3-306", "building_id": "B3", "floor": 3}}, {"type": "Feature", "geometry": {"type": "Polygon", "coordinates": [[[-1.4246, 51.945], [-9.0899, 51.945], [-9.0899, 49.945], [-9.0899, 48.8778], [-9.0899, 47.9228], [-9.0899, 47.0103], [-9.0899, 42.2278], [-9.0899, 41.5303], [-1.4799, 41.5303], [0.0301, 41.5303], [0.0301, 42.1403], [0.1251, 42.1403], [0.1251, 48.0103], [0.0301, 48.0103], [0.0301, 48.8403], [0.1251, 48.8403], [0.1251, 51.945], [-1.3146, 51.945], [-1.4246, 51.945], [-9.0899, 51.945], [-9.0899, 49.945], [-9.0899, 48.8778], [-9.0899, 47.9228], [-9.0899, 47.0103], [-9.0899, 42.2278], [-9.0899, 41.5303], [-1.4799, 41.5303], [0.0301, 41.5303], [0.0301, 42.1403], [0.1251, 42.1403], [0.1251, 48.0103], [0.0301, 48.0103], [0.0301, 48.8403], [0.1251, 48.8403], [0.1251, 51.945], [-1.3146, 51.945], [-1.4246, 51.945]]]}, "properties": {"room_id": "B3-305", "building_id": "B3", "floor": 3}}, {"type": "Feature", "geometry": {"type": "Polygon", "coordinates": [[[-20.0849, 33.6403], [-20.0849, 28.7403], [-19.9699, 28.7403], [-19.9549, 28.7403], [-19.1399, 28.7403], [-19.1399, 27.9253], [-19.1399, 27.9103], [-19.1399, 27.7954], [-9.9199, 27.7954], [-9.9199, 27.9103], [-9.9199, 27.9253], [-9.9199, 28.7403], [-9.3099, 28.7403], [-9.3099, 33.6403], [-20.0849, 33.6403], [-20.0849, 28.7403], [-19.9699, 28.7403], [-19.9549, 28.7403], [-19.1399, 28.7403], [-19.1399, 27.9253], [-19.1399, 27.9103], [-19.1399, 27.7954], [-9.9199, 27.7954], [-9.9199, 27.9103], [-9.9199, 27.9253], [-9.9199, 28.7403], [-9.3099, 28.7403], [-9.3099, 33.6403], [-20.0849, 33.6403]]]}, "properties": {"room_id": "B3-303", "building_id": "B3", "floor": 3}}, {"type": "Feature", "geometry": {"type": "Polygon", "coordinates": [[[-20.0849, 47.0103], [-20.0849, 42.1403], [-19.9699, 42.1403], [-19.9549, 42.1403], [-19.1399, 42.1403], [-19.1399, 41.3253], [-10.2099, 41.3253], [-10.2099, 42.2803], [-9.9199, 42.2803], [-9.3099, 42.2803], [-9.3099, 47.0103], [-20.0849, 47.0103], [-20.0849, 42.1403], [-19.9699, 42.1403], [-19.9549, 42.1403], [-19.1399, 42.1403], [-19.1399, 41.3253], [-10.2099, 41.3253], [-10.2099, 42.2803], [-9.9199, 42.2803], [-9.3099, 42.2803], [-9.3099, 47.0103], [-20.0849, 47.0103]]]}, "properties": {"room_id": "B3-304C", "building_id": "B3", "floor": 3}}, {"type": "Feature", "geometry": {"type": "Polygon", "coordinates": [[[-7.2599, 30.7303], [-7.2599, 27.8053], [0.0201, 27.8053], [0.0201, 29.3803], [-1.6399, 29.3803], [-1.6399, 29.9803], [-4.3299, 29.9803], [-4.3299, 29.2543], [-4.4699, 29.2543], [-4.4699, 30.7303], [-7.2599, 30.7303]]]}, "properties": {"room_id": "3.WC2", "building_id": "B3", "floor": 3}}, {"type": "Feature", "geometry": {"type": "Polygon", "coordinates": [[[-9.0899, 27.7954], [-7.4899, 27.7954], [-7.4899, 30.7228], [-7.4899, 31.0903], [-7.4899, 33.6553], [-9.0899, 33.6553], [-9.0899, 28.7403], [-9.0899, 27.9103], [-9.0899, 27.7954]]]}, "properties": {"room_id": "B3-324", "building_id": "B3", "floor": 3}}, {"type": "Feature", "geometry": {"type": "Polygon", "coordinates": [[[14.3601, 27.7954], [17.0752, 27.7954], [17.0752, 33.6403], [7.6601, 33.6403], [7.6601, 31.1403], [7.6601, 28.7403], [7.6601, 27.9103], [7.6601, 27.7954], [13.5301, 27.7954], [13.5301, 27.9103], [13.5301, 27.9253], [13.5301, 28.7403], [14.3601, 28.7403], [14.3601, 27.9253], [14.3601, 27.9103], [14.3601, 27.7954], [17.0752, 27.7954], [17.0752, 33.6403], [7.6601, 33.6403], [7.6601, 31.1403], [7.6601, 28.7403], [7.6601, 27.9103], [7.6601, 27.7954], [13.5301, 27.7954], [13.5301, 27.9103], [13.5301, 27.9253], [13.5301, 28.7403], [14.3601, 28.7403], [14.3601, 27.9253], [14.3601, 27.9103], [14.3601, 27.7954]]]}, "properties": {"room_id": "B3-322", "building_id": "B3", "floor": 3}}, {"type": "Feature", "geometry": {"type": "Polygon", "coordinates": [[[17.2952, 27.7954], [20.3302, 27.7954], [20.3302, 27.9103], [20.3302, 27.9253], [20.3302, 28.7403], [21.1452, 28.7403], [21.1602, 28.7403], [21.5751, 28.7403], [21.5751, 31.6753], [21.5751, 33.6403], [17.2952, 33.6403], [17.2952, 27.7954]]]}, "properties": {"room_id": "B3-321", "building_id": "B3", "floor": 3}}, {"type": "Feature", "geometry": {"type": "Polygon", "coordinates": [[[21.7951, 27.7954], [26.9301, 27.7954], [26.9301, 27.9103], [26.9301, 27.9253], [26.9301, 28.7403], [27.7451, 28.7403], [27.7601, 28.7403], [27.8751, 28.7403], [27.8751, 31.5653], [23.4051, 31.5653], [21.7951, 31.5653], [21.7951, 28.6878], [21.7951, 27.7954]]]}, "properties": {"room_id": "B3-320", "building_id": "B3", "floor": 3}}, {"type": "Feature", "geometry": {"type": "Polygon", "coordinates": [[[27.8751, 31.7853], [27.8751, 34.4103], [27.7601, 34.4103], [26.9301, 34.4103], [26.6401, 34.4103], [26.6401, 35.2203], [23.5151, 35.2203], [23.5151, 31.7853], [27.8751, 31.7853]]]}, "properties": {"room_id": "B3-319", "building_id": "B3", "floor": 3}}, {"type": "Feature", "geometry": {"type": "Polygon", "coordinates": [[[27.8751, 35.2403], [27.8751, 38.2653], [23.5151, 38.2653], [23.5151, 36.3733], [23.5151, 36.2903], [23.5151, 36.2203], [23.5151, 35.4403], [26.5396, 35.4403], [26.6926, 35.4403], [26.6926, 35.2403], [26.9301, 35.2403], [27.7601, 35.2403], [27.8751, 35.2403]]]}, "properties": {"room_id": "B3-318", "building_id": "B3", "floor": 3}}, {"type": "Feature", "geometry": {"type": "Polygon", "coordinates": [[[27.8751, 38.4853], [27.8751, 41.3103], [27.7601, 41.3103], [27.7451, 41.3103], [26.9301, 41.3103], [26.9301, 41.6153], [23.5151, 41.6153], [23.5151, 38.4853], [27.8751, 38.4853]]]}, "properties": {"room_id": "B3-317", "building_id": "B3", "floor": 3}}, {"type": "Feature", "geometry": {"type": "Polygon", "coordinates": [[[27.8751, 42.1403], [27.8751, 44.9653], [23.5151, 44.9653], [23.5151, 41.8353], [26.9301, 41.8353], [26.9301, 42.1403], [27.7451, 42.1403], [27.7601, 42.1403], [27.8751, 42.1403]]]}, "properties": {"room_id": "B3-316", "building_id": "B3", "floor": 3}}, {"type": "Feature", "geometry": {"type": "Polygon", "coordinates": [[[27.8751, 45.1853], [27.8751, 48.0103], [27.7601, 48.0103], [27.7451, 48.0103], [26.9301, 48.0103], [26.9301, 48.3153], [23.5151, 48.3153], [23.5151, 45.1853], [27.8751, 45.1853]]]}, "properties": {"room_id": "B3-314", "building_id": "B3", "floor": 3}}, {"type": "Feature", "geometry": {"type": "Polygon", "coordinates": [[[27.8751, 48.8403], [27.8751, 51.5553], [25.6901, 51.5553], [23.5151, 51.5553], [23.5151, 48.5353], [26.9301, 48.5353], [26.9301, 48.8403], [27.7451, 48.8403], [27.7601, 48.8403], [27.8751, 48.8403]]]}, "properties": {"room_id": "B3-313", "building_id": "B3", "floor": 3}}, {"type": "Feature", "geometry": {"type": "Polygon", "coordinates": [[[27.8751, 55.5903], [27.8751, 61.4103], [27.7601, 61.4103], [27.7451, 61.4103], [26.9301, 61.4103], [26.9301, 62.2253], [26.9301, 62.2403], [26.9301, 62.3553], [24.1051, 62.3553], [24.1051, 56.1103], [24.1051, 55.4453], [26.9301, 55.4453], [26.9301, 55.6403], [27.7451, 55.6403], [27.7451, 55.5903], [27.7601, 55.5903], [27.8751, 55.5903]]]}, "properties": {"room_id": "B3-311", "building_id": "B3", "floor": 3}}, {"type": "Feature", "geometry": {"type": "Polygon", "coordinates": [[[22.9351, 56.2203], [23.8851, 56.2203], [23.8851, 62.3553], [21.1102, 62.3553], [21.1102, 62.2403], [21.1102, 61.4628], [21.1602, 61.4628], [21.1602, 61.4103], [20.3302, 61.4103], [20.3302, 62.2253], [20.3302, 62.2403], [20.3302, 62.3553], [14.3601, 62.3553], [14.3601, 62.2403], [14.3601, 62.2253], [14.3601, 61.4103], [13.5301, 61.4103], [13.5301, 62.2253], [13.5301, 62.2403], [13.5301, 62.3553], [10.9801, 62.3553], [10.9801, 56.2203], [11.3101, 56.2203], [13.5801, 56.2203], [20.7653, 56.2203], [21.1102, 56.2203], [22.9351, 56.2203]]]}, "properties": {"room_id": "B3-309", "building_id": "B3", "floor": 3}}, {"type": "Feature", "geometry": {"type": "Polygon", "coordinates": [[[27.8751, 51.7753], [27.8751, 54.8103], [27.7601, 54.8103], [27.7451, 54.8103], [26.9301, 54.8103], [26.9301, 55.2253], [23.9951, 55.2253], [23.9951, 55.2235], [23.5151, 55.2235], [23.5151, 53.5612], [23.5151, 53.4235], [23.5151, 51.7753], [25.6301, 51.7753], [25.6301, 52.6803], [25.7501, 52.6803], [25.7501, 51.7753], [27.8751, 51.7753]]]}, "properties": {"room_id": "B3-312", "building_id": "B3", "floor": 3}}, {"type": "Feature", "geometry": {"type": "Polygon", "coordinates": [[[-20.0849, 48.0103], [-20.0849, 47.0103], [-9.3099, 47.0103], [-9.3099, 47.8703], [-9.9199, 47.8703], [-10.2099, 47.8703], [-10.2099, 48.9303], [-9.9199, 48.9303], [-9.3099, 48.9303], [-9.3099, 49.945], [-20.0849, 49.945], [-20.0849, 48.8403], [-19.9699, 48.8403], [-19.9549, 48.8403], [-19.1399, 48.8403], [-19.1399, 48.0103], [-19.9549, 48.0103], [-19.9699, 48.0103], [-20.0849, 48.0103], [-20.0849, 47.0103], [-9.3099, 47.0103], [-9.3099, 47.8703], [-9.9199, 47.8703], [-10.2099, 47.8703], [-10.2099, 48.9303], [-9.9199, 48.9303], [-9.3099, 48.9303], [-9.3099, 49.945], [-20.0849, 49.945], [-20.0849, 48.8403], [-19.9699, 48.8403], [-19.9549, 48.8403], [-19.1399, 48.8403], [-19.1399, 48.0103], [-19.9549, 48.0103], [-19.9699, 48.0103], [-20.0849, 48.0103]]]}, "properties": {"room_id": "B3-304D", "building_id": "B3", "floor": 3}}, {"type": "Feature", "geometry": {"type": "Polygon", "coordinates": [[[-20.0849, 54.8103], [-20.0849, 49.945], [-9.3099, 49.945], [-9.3099, 52.055], [-9.3399, 52.055], [-9.3399, 54.5703], [-10.2099, 54.5703], [-10.2099, 55.1703], [-19.1399, 55.1703], [-19.1399, 54.8103], [-19.9549, 54.8103], [-19.9699, 54.8103], [-20.0849, 54.8103]]]}, "properties": {"room_id": "B3-304E", "building_id": "B3", "floor": 3}}, {"type": "Feature", "geometry": {"type": "Polygon", "coordinates": [[[-20.0849, 34.6103], [-20.0849, 33.8603], [-9.3099, 33.8603], [-9.3099, 33.9108], [-9.3099, 34.4703], [-9.9199, 34.4703], [-10.2099, 34.4703], [-10.2099, 35.4403], [-9.9199, 35.4403], [-9.3099, 35.4403], [-9.3099, 41.2673], [-9.3099, 41.3103], [-9.9049, 41.3103], [-9.9049, 41.3253], [-10.3104, 41.3253], [-19.1399, 41.3253], [-20.0849, 41.3253], [-20.0849, 35.4403], [-19.9699, 35.4403], [-19.9549, 35.4403], [-19.1399, 35.4403], [-19.1399, 34.6103], [-19.9549, 34.6103], [-19.9699, 34.6103], [-20.0849, 34.6103], [-20.0849, 33.8603], [-9.3099, 33.8603], [-9.3099, 33.9108], [-9.3099, 34.4703], [-9.9199, 34.4703], [-10.2099, 34.4703], [-10.2099, 35.4403], [-9.9199, 35.4403], [-9.3099, 35.4403], [-9.3099, 41.2673], [-9.3099, 41.3103], [-9.9049, 41.3103], [-9.9049, 41.3253], [-10.3104, 41.3253], [-19.1399, 41.3253], [-20.0849, 41.3253], [-20.0849, 35.4403], [-19.9699, 35.4403], [-19.9549, 35.4403], [-19.1399, 35.4403], [-19.1399, 34.6103], [-19.9549, 34.6103], [-19.9699, 34.6103], [-20.0849, 34.6103]]]}, "properties": {"room_id": "B3-304B", "building_id": "B3", "floor": 3}}, {"type": "Feature", "geometry": {"type": "Polygon", "coordinates": [[[-9.3099, 41.3103], [-9.3099, 35.4403], [-9.1424, 35.4403], [-9.0899, 35.4403], [-9.0899, 35.3878], [-9.0899, 34.4703], [-9.3099, 34.4703], [-9.3099, 33.8603], [-7.3874, 33.8603], [-1.5899, 33.8603], [-1.5899, 34.1278], [-1.5899, 40.2253], [-1.5899, 41.3103], [-9.3099, 41.3103], [-9.3099, 35.4403], [-9.1424, 35.4403], [-9.0899, 35.4403], [-9.0899, 35.3878], [-9.0899, 34.4703], [-9.3099, 34.4703], [-9.3099, 33.8603], [-7.3874, 33.8603], [-1.5899, 33.8603], [-1.5899, 34.1278], [-1.5899, 40.2253], [-1.5899, 41.3103], [-9.3099, 41.3103]]]}, "properties": {"room_id": "B3-304A", "building_id": "B3", "floor": 3}}, {"type": "Feature", "geometry": {"type": "Polygon", "coordinates": [[[21.1601, 40.2553], [18.96, 40.2553], [18.96, 39.6603], [18.96, 39.508], [18.96, 39.3703], [18.9601, 39.2325], [18.9601, 36.6903], [18.9601, 36.6753], [18.9601, 36.3803], [20.3301, 36.3803], [20.3301, 36.6903], [21.1601, 36.6903], [21.1601, 36.2803], [23.2951, 36.2803], [23.2951, 38.3753], [23.2951, 41.7253], [23.2951, 45.0753], [23.2951, 48.4253], [23.2951, 51.6653], [23.2951, 53.4235], [21.1601, 53.4235], [21.1601, 48.8403], [21.1601, 48.0103], [21.1601, 42.1403], [21.1601, 41.3103], [21.1601, 40.2553]]]}, "properties": {"room_id": "3.CR5", "building_id": "B3", "floor": 3}}, {"type": "Feature", "geometry": {"type": "Polygon", "coordinates": [[[18.9601, 53.3055], [18.9601, 40.3903], [18.9601, 40.3753], [21.1601, 40.3753], [21.1601, 41.3103], [20.3302, 41.3103], [20.3302, 42.1403], [21.1601, 42.1403], [21.1601, 48.0103], [20.3302, 48.0103], [20.3302, 48.8403], [21.1601, 48.8403], [21.1601, 53.2857], [21.1601, 53.3055], [21.1451, 53.3055], [18.9601, 53.3055]]]}, "properties": {"room_id": "B3-315", "building_id": "B3", "floor": 3}}, {"type": "Feature", "geometry": {"type": "Polygon", "coordinates": [[[3.8301, 59.7255], [7.4301, 59.7255], [7.4301, 61.4003], [6.2301, 61.4003], [6.2301, 62.3453], [3.8301, 62.3453], [3.8301, 61.7452], [3.6901, 61.7452], [3.6901, 62.3453], [2.4601, 62.3453], [2.4601, 60.5452], [3.8301, 60.5452], [3.8301, 59.7255]]]}, "properties": {"room_id": "3.WC3", "building_id": "B3", "floor": 3}}, {"type": "Feature", "geometry": {"type": "Polygon", "coordinates": [[[7.4301, 59.1955], [3.8301, 59.1955], [3.8301, 58.5955], [2.4601, 58.5955], [2.4601, 56.5158], [7.4301, 56.5158], [7.4301, 59.1955]]]}, "properties": {"room_id": "3.WC4", "building_id": "B3", "floor": 3}}, {"type": "Feature", "geometry": {"type": "Polygon", "coordinates": [[[0.2001, 33.3403], [-1.4999, 33.3403], [-1.4999, 31.1603], [0.2001, 31.1603], [0.2001, 33.3403]]]}, "properties": {"room_id": "3.WC5", "building_id": "B3", "floor": 3}}, {"type": "Feature", "geometry": {"type": "Polygon", "coordinates": [[[-1.6399, 31.0203], [-4.3299, 31.0203], [-4.3299, 30.1203], [-1.6399, 30.1203], [-1.6399, 31.0203]]]}, "properties": {"room_id": "3.JC", "building_id": "B3", "floor": 3}}, {"type": "Feature", "geometry": {"type": "Polygon", "coordinates": [[[7.6076, 33.8603], [17.1852, 33.8603], [21.7951, 33.8603], [21.7951, 31.7853], [23.2951, 31.7853], [23.2951, 35.3303], [23.2951, 36.1603], [23.2521, 36.1603], [21.1601, 36.1603], [20.3826, 36.1603], [20.3301, 36.1603], [18.9601, 36.1603], [18.9451, 36.1603], [18.1301, 36.1603], [16.6776, 36.1603], [16.3501, 36.1603], [11.7451, 36.1603], [9.4451, 36.1603], [7.2451, 36.1603], [7.2451, 33.8653], [7.2451, 33.8603], [7.6076, 33.8603]]]}, "properties": {"room_id": "3.CR1", "building_id": "B3", "floor": 3}}, {"type": "Feature", "geometry": {"type": "Polygon", "coordinates": [[[2.3501, 29.3903], [2.3501, 28.1403], [2.3501, 27.8053], [3.5001, 27.8053], [3.5001, 28.2443], [3.6201, 28.2443], [3.6201, 27.8053], [5.2301, 27.8053], [5.2301, 28.2553], [5.3701, 28.2553], [5.3701, 27.8053], [6.8301, 27.8053], [6.8301, 28.7203], [6.8301, 28.7403], [7.1401, 28.7403], [7.1401, 30.7403], [3.6201, 30.7403], [3.6201, 29.3903], [2.3501, 29.3903]]]}, "properties": {"room_id": "3.WC1", "building_id": "B3", "floor": 3}}, {"type": "Feature", "geometry": {"type": "Polygon", "coordinates": [[[22.8851, 56.0003], [21.1602, 56.0003], [21.1602, 55.6403], [21.1602, 55.2735], [21.1602, 54.8103], [20.3302, 54.8103], [20.3302, 55.2253], [14.3601, 55.2253], [14.3601, 54.8103], [13.5301, 54.8103], [13.5301, 55.2753], [13.5301, 55.6403], [13.5301, 56.0003], [11.3601, 56.0003], [11.3601, 55.2235], [9.8601, 55.2235], [9.8601, 56.0003], [8.1601, 56.0003], [8.1601, 55.2235], [7.6601, 55.2235], [7.6601, 54.8628], [7.6601, 54.8103], [6.8301, 54.8103], [6.8301, 54.8628], [6.8301, 55.6403], [6.8301, 56.2848], [3.1453, 56.2848], [3.1453, 53.4253], [18.8501, 53.4253], [18.9617, 53.4255], [21.1451, 53.4255], [21.1451, 53.4235], [21.2979, 53.4235], [23.5151, 53.4235], [23.5151, 55.2235], [22.8851, 55.2235], [22.8851, 56.0003]]]}, "properties": {"room_id": "3.CR4", "building_id": "B3", "floor": 3}}, {"type": "Feature", "geometry": {"type": "Polygon", "coordinates": [[[-9.0899, 57.7203], [-9.0899, 55.6403], [-9.0899, 54.8253], [-9.0899, 54.5703], [-9.3399, 54.5703], [-9.3399, 52.165], [-1.5346, 52.165], [-1.5346, 55.2203], [-5.8199, 55.2203], [-5.8199, 57.7203], [-6.0149, 57.7203], [-6.0149, 57.7303], [-8.0149, 57.7303], [-8.0149, 57.7203], [-9.0899, 57.7203]]]}, "properties": {"room_id": "3.LB2", "building_id": "B3", "floor": 3}}, {"type": "Feature", "geometry": {"type": "Polygon", "coordinates": [[[2.2301, 31.0303], [2.2301, 33.7578], [2.2301, 33.8653], [2.2301, 36.1603], [2.2301, 36.4253], [2.2301, 36.6753], [2.2301, 36.6903], [2.2301, 39.3703], [2.2301, 39.6603], [2.2301, 40.3468], [2.2301, 40.3903], [2.2301, 53.4253], [3.0253, 53.4253], [3.0253, 56.2848], [2.2301, 56.2848], [2.2301, 58.8255], [3.7001, 58.8255], [3.7001, 59.258], [3.7001, 59.663], [3.7001, 60.3152], [2.2301, 60.3152], [2.2301, 62.3553], [0.8601, 62.3553], [0.8601, 62.2403], [0.8601, 62.2253], [0.8601, 61.4103], [0.4301, 61.4103], [0.4301, 58.6578], [0.4301, 55.6403], [0.8601, 55.6403], [0.8601, 54.8103], [0.0301, 54.8103], [0.0301, 55.2203], [-1.3146, 55.2203], [-1.3146, 52.165], [0.3451, 52.165], [0.3451, 48.8403], [0.8601, 48.8403], [0.8601, 48.0103], [0.3451, 48.0103], [0.3451, 42.1403], [0.8601, 42.1403], [0.8601, 41.3103], [0.0451, 41.3103], [0.0301, 41.3103], [-1.3699, 41.3103], [-1.3699, 40.2253], [-1.3699, 34.1278], [-1.3699, 33.8603], [0.4301, 33.8603], [0.4301, 33.4028], [0.4301, 31.0303], [-1.5099, 31.0303], [-1.5099, 29.5103], [0.0826, 29.5103], [0.4301, 29.5103], [0.4301, 28.7403], [0.8601, 28.7403], [0.8601, 28.6878], [0.8601, 27.9103], [0.8601, 27.7954], [2.2301, 27.7954], [2.2301, 27.9533], [2.2301, 28.1403], [2.2301, 29.5103], [3.5001, 29.5103], [3.5001, 30.7928], [3.5001, 30.8469], [3.5001, 31.0303], [2.2301, 31.0303]], [[0.0301, 36.1603], [0.0301, 36.6903], [0.8601, 36.6903], [0.8601, 36.1603], [0.0301, 36.1603]]]}, "properties": {"room_id": "3.CR2", "building_id": "B3", "floor": 3}}, {"type": "Feature", "geometry": {"type": "Polygon", "coordinates": [[[18.7401, 36.6903], [18.7401, 39.3703], [18.14, 39.3703], [18.14, 40.0603], [3.0497, 40.0603], [3.0501, 39.3703], [2.4501, 39.3703], [2.4501, 36.6903], [3.0451, 36.6903], [3.0601, 36.6903], [4.7451, 36.6903], [7.2451, 36.6903], [9.4451, 36.6903], [11.7451, 36.6903], [16.3501, 36.6903], [16.6776, 36.6903], [18.1301, 36.6903], [18.7401, 36.6903]]]}, "properties": {"room_id": "ST-01", "building_id": "B3", "floor": 3}}, {"type": "Feature", "geometry": {"type": "Polygon", "coordinates": [[[2.9453, 33.6553], [2.4351, 33.6553], [2.4351, 31.2353], [3.4985, 31.2353], [3.5526, 31.2353], [3.6067, 31.2353], [7.0535, 31.2353], [7.0551, 31.2353], [7.0551, 33.6553], [6.5454, 33.6553], [5.3454, 33.6553], [4.1454, 33.6553], [2.9453, 33.6553]]]}, "properties": {"room_id": "EV-01", "building_id": "B3", "floor": 3}}, {"type": "Feature", "geometry": {"type": "Polygon", "coordinates": [[[0.0301, 62.0203], [-4.8899, 62.0203], [-4.8899, 61.5203], [-4.8899, 59.0703], [-4.8899, 58.7603], [0.2101, 58.7603], [0.2101, 61.4103], [0.0301, 61.4103], [0.0301, 62.0203]]]}, "properties": {"room_id": "ST-02", "building_id": "B3", "floor": 3}}, {"type": "Feature", "geometry": {"type": "Polygon", "coordinates": [[[-5.8049, 62.3703], [-9.1049, 62.3703], [-9.1049, 62.2403], [-9.1049, 57.9353], [-8.0149, 57.9353], [-6.0149, 57.9353], [-5.8049, 57.9353], [-5.8049, 58.6503], [-5.8049, 62.3687], [-5.8049, 62.3703]]]}, "properties": {"room_id": "EV-02", "building_id": "B3", "floor": 3}}, {"type": "Feature", "geometry": {"type": "Polygon", "coordinates": [[[2.9453, 33.8703], [2.9453, 33.8603], [4.1454, 33.8603], [4.1454, 33.8703], [5.3454, 33.8703], [5.3454, 33.8603], [6.5454, 33.8603], [6.5454, 33.8703], [7.2451, 33.8703], [7.2451, 36.1603], [4.7451, 36.1603], [3.0601, 36.1603], [3.0451, 36.1603], [2.2301, 36.1603], [2.2301, 33.8703], [2.9453, 33.8703]]]}, "properties": {"room_id": "3.LB1", "building_id": "B3", "floor": 3}}, {"type": "Feature", "geometry": {"type": "Polygon", "coordinates": [[[7.6601, 56.2203], [8.1101, 56.2203], [9.9101, 56.2203], [10.7601, 56.2203], [10.7601, 62.3553], [7.6601, 62.3553], [7.6601, 62.2403], [7.6601, 59.663], [7.6601, 59.3121], [7.6601, 59.258], [7.6601, 56.3948], [7.6601, 56.2203], [8.1101, 56.2203], [9.9101, 56.2203], [10.7601, 56.2203], [10.7601, 62.3553], [7.6601, 62.3553], [7.6601, 62.2403], [7.6601, 59.663], [7.6601, 59.3121], [7.6601, 59.258], [7.6601, 56.3948], [7.6601, 56.2203]]]}, "properties": {"room_id": "B3-310", "building_id": "B3", "floor": 3}}, {"type": "Feature", "geometry": {"type": "Polygon", "coordinates": [[[22.9351, 56.2203], [23.8851, 56.2203], [23.8851, 62.3553], [21.1102, 62.3553], [21.1102, 62.2403], [21.1102, 61.4628], [21.1602, 61.4628], [21.1602, 61.4103], [20.3302, 61.4103], [20.3302, 62.2253], [20.3302, 62.2403], [20.3302, 62.3553], [17.2302, 62.3553], [17.2302, 56.2203], [20.7653, 56.2203], [21.1102, 56.2203], [22.9351, 56.2203]]]}, "properties": {"room_id": "B3-309A", "building_id": "B3", "floor": 3}}, {"type": "Feature", "geometry": {"type": "Polygon", "coordinates": [[[10.9801, 56.2203], [11.3101, 56.2203], [13.5801, 56.2203], [17.2302, 56.2203], [17.2302, 62.3553], [14.3601, 62.3553], [14.3601, 62.2403], [14.3601, 62.2253], [14.3601, 61.4103], [13.5301, 61.4103], [13.5301, 62.2253], [13.5301, 62.2403], [13.5301, 62.3553], [10.9801, 62.3553], [10.9801, 56.2203]]]}, "properties": {"room_id": "B3-309B", "building_id": "B3", "floor": 3}}, {"type": "Feature", "geometry": {"type": "Polygon", "coordinates": [[[-10.5998, 62.3553], [-19.1399, 62.3553], [-19.1399, 62.2403], [-19.1399, 62.2253], [-19.1399, 61.4103], [-19.9549, 61.4103], [-19.9699, 61.4103], [-20.0849, 61.4103], [-20.0849, 55.6403], [-19.9699, 55.6403], [-19.9549, 55.6403], [-19.1399, 55.6403], [-19.1399, 54.8103], [-19.9549, 54.8103], [-19.9699, 54.8103], [-20.0849, 54.8103], [-20.0849, 53.5703], [-10.5998, 53.5703], [-10.5998, 55.5903], [-10.5998, 57.3378], [-10.5998, 62.3553], [-19.1399, 62.3553], [-19.1399, 62.2403], [-19.1399, 62.2253], [-19.1399, 61.4103], [-19.9549, 61.4103], [-19.9699, 61.4103], [-20.0849, 61.4103], [-20.0849, 55.6403], [-19.9699, 55.6403], [-19.9549, 55.6403], [-19.1399, 55.6403], [-19.1399, 54.8103], [-19.9549, 54.8103], [-19.9699, 54.8103], [-20.0849, 54.8103], [-20.0849, 53.5703], [-10.5998, 53.5703], [-10.5998, 55.5903], [-10.5998, 57.3378], [-10.5998, 62.3553]]]}, "properties": {"room_id": "B3-418", "building_id": "B3", "floor": 4}}, {"type": "Feature", "geometry": {"type": "Polygon", "coordinates": [[[-20.0849, 53.3503], [-20.0849, 50.2203], [-10.5998, 50.2203], [-10.5998, 50.2903], [-10.5998, 53.3503], [-20.0849, 53.3503]]]}, "properties": {"room_id": "B3-417", "building_id": "B3", "floor": 4}}, {"type": "Feature", "geometry": {"type": "Polygon", "coordinates": [[[-20.0849, 48.0103], [-20.0849, 42.1403], [-19.9699, 42.1403], [-19.9549, 42.1403], [-19.1399, 42.1403], [-19.1399, 41.3253], [-19.1399, 41.3103], [-19.1399, 40.9224], [-10.5998, 40.9224], [-10.5998, 42.2303], [-10.5998, 43.9753], [-10.5998, 48.7753], [-10.5998, 50.0003], [-20.0849, 50.0003], [-20.0849, 48.8403], [-19.9699, 48.8403], [-19.9549, 48.8403], [-19.1399, 48.8403], [-19.1399, 48.0103], [-19.9549, 48.0103], [-19.9699, 48.0103], [-20.0849, 48.0103], [-20.0849, 42.1403], [-19.9699, 42.1403], [-19.9549, 42.1403], [-19.1399, 42.1403], [-19.1399, 41.3253], [-19.1399, 41.3103], [-19.1399, 40.9224], [-10.5998, 40.9224], [-10.5998, 42.2303], [-10.5998, 43.9753], [-10.5998, 48.7753], [-10.5998, 50.0003], [-20.0849, 50.0003], [-20.0849, 48.8403], [-19.9699, 48.8403], [-19.9549, 48.8403], [-19.1399, 48.8403], [-19.1399, 48.0103], [-19.9549, 48.0103], [-19.9699, 48.0103], [-20.0849, 48.0103]]]}, "properties": {"room_id": "B3-416", "building_id": "B3", "floor": 4}}, {"type": "Feature", "geometry": {"type": "Polygon", "coordinates": [[[-20.0849, 40.7024], [-20.0849, 37.5824], [-10.5998, 37.5824], [-10.5998, 40.7024], [-19.1924, 40.7024], [-20.0849, 40.7024]]]}, "properties": {"room_id": "B3-414", "building_id": "B3", "floor": 4}}, {"type": "Feature", "geometry": {"type": "Polygon", "coordinates": [[[-20.0849, 34.6103], [-20.0849, 28.7403], [-19.9699, 28.7403], [-19.9549, 28.7403], [-19.1399, 28.7403], [-19.1399, 27.9253], [-19.1399, 27.9103], [-19.1399, 27.7954], [-10.5998, 27.7954], [-10.5998, 35.3803], [-10.5998, 37.1353], [-10.5998, 37.3624], [-20.0849, 37.3624], [-20.0849, 35.4403], [-19.9699, 35.4403], [-19.9549, 35.4403], [-19.1399, 35.4403], [-19.1399, 34.6103], [-19.9549, 34.6103], [-19.9699, 34.6103], [-20.0849, 34.6103], [-20.0849, 28.7403], [-19.9699, 28.7403], [-19.9549, 28.7403], [-19.1399, 28.7403], [-19.1399, 27.9253], [-19.1399, 27.9103], [-19.1399, 27.7954], [-10.5998, 27.7954], [-10.5998, 35.3803], [-10.5998, 37.1353], [-10.5998, 37.3624], [-20.0849, 37.3624], [-20.0849, 35.4403], [-19.9699, 35.4403], [-19.9549, 35.4403], [-19.1399, 35.4403], [-19.1399, 34.6103], [-19.9549, 34.6103], [-19.9699, 34.6103], [-20.0849, 34.6103]]]}, "properties": {"room_id": "B3-412", "building_id": "B3", "floor": 4}}, {"type": "Feature", "geometry": {"type": "Polygon", "coordinates": [[[7.6601, 27.7954], [10.4851, 27.7954], [10.4851, 33.6403], [7.6601, 33.6403], [7.6601, 31.1403], [7.6601, 28.7403], [7.6601, 27.9103], [7.6601, 27.7954]]]}, "properties": {"room_id": "B3-409", "building_id": "B3", "floor": 4}}, {"type": "Feature", "geometry": {"type": "Polygon", "coordinates": [[[10.7051, 27.7954], [13.5301, 27.7954], [13.5301, 27.9103], [13.5301, 27.9253], [13.5301, 28.7403], [13.8351, 28.7403], [13.8351, 33.6403], [10.7051, 33.6403], [10.7051, 27.7954]]]}, "properties": {"room_id": "B3-408", "building_id": "B3", "floor": 4}}, {"type": "Feature", "geometry": {"type": "Polygon", "coordinates": [[[14.3601, 27.7954], [17.1851, 27.7954], [17.1851, 33.6403], [14.0551, 33.6403], [14.0551, 28.7403], [14.3601, 28.7403], [14.3601, 27.9253], [14.3601, 27.9103], [14.3601, 27.7954]]]}, "properties": {"room_id": "B3-407", "building_id": "B3", "floor": 4}}, {"type": "Feature", "geometry": {"type": "Polygon", "coordinates": [[[17.4051, 27.7954], [18.8501, 27.7954], [20.3301, 27.7954], [20.3301, 27.9103], [20.3301, 27.9253], [20.3301, 28.7403], [20.5351, 28.7403], [20.5351, 33.6403], [17.4051, 33.6403], [17.4051, 27.7954]]]}, "properties": {"room_id": "B3-406", "building_id": "B3", "floor": 4}}, {"type": "Feature", "geometry": {"type": "Polygon", "coordinates": [[[23.8852, 33.6403], [20.7551, 33.6403], [20.7551, 28.7403], [21.1601, 28.7403], [21.1601, 27.9253], [21.1601, 27.9103], [21.1601, 27.7954], [23.8852, 27.7954], [23.8852, 33.6403]]]}, "properties": {"room_id": "B3-405", "building_id": "B3", "floor": 4}}, {"type": "Feature", "geometry": {"type": "Polygon", "coordinates": [[[26.5926, 36.1602], [24.1052, 36.1602], [24.1052, 33.7503], [24.1052, 27.7954], [26.9301, 27.7954], [26.9301, 27.9103], [26.9301, 27.9253], [26.9301, 28.7403], [27.7601, 28.7403], [27.7601, 27.9253], [27.7601, 27.9103], [27.7601, 27.7954], [29.1251, 27.7954], [29.1251, 36.1602], [27.7076, 36.1602], [26.9301, 36.1602], [26.5926, 36.1602]]]}, "properties": {"room_id": "B3-404", "building_id": "B3", "floor": 4}}, {"type": "Feature", "geometry": {"type": "Polygon", "coordinates": [[[22.7652, 40.1703], [22.7652, 36.3802], [23.9952, 36.3802], [26.5401, 36.3802], [26.5401, 36.9902], [26.9301, 36.9902], [27.7076, 36.9902], [27.7601, 36.9902], [27.7601, 36.9377], [27.7601, 36.3802], [29.1251, 36.3802], [29.1251, 40.1703], [28.0951, 40.1703], [22.7652, 40.1703]]]}, "properties": {"room_id": "B3-403", "building_id": "B3", "floor": 4}}, {"type": "Feature", "geometry": {"type": "Polygon", "coordinates": [[[-5.1847, 44.6103], [-5.1847, 43.1203], [2.2301, 43.1203], [2.2301, 51.945], [-5.1847, 51.945], [-5.1847, 50.2606], [-5.1847, 44.6103]], [[0.8601, 48.8403], [0.8601, 48.0103], [0.0301, 48.0103], [0.0301, 48.8403], [0.8601, 48.8403]]]}, "properties": {"room_id": "B3-415", "building_id": "B3", "floor": 4}}, {"type": "Feature", "geometry": {"type": "Polygon", "coordinates": [[[-1.4799, 40.2953], [2.2301, 40.2953], [2.2301, 42.9003], [-5.2947, 42.9003], [-6.4847, 42.9003], [-6.4847, 40.2953], [-3.7749, 40.2953], [-1.4799, 40.2953]], [[0.8601, 42.1403], [0.8601, 41.3103], [0.0301, 41.3103], [0.0301, 42.1403], [0.8601, 42.1403]]]}, "properties": {"room_id": "B3-413", "building_id": "B3", "floor": 4}}, {"type": "Feature", "geometry": {"type": "Polygon", "coordinates": [[[-1.5899, 40.0753], [-3.7249, 40.0753], [-3.7249, 39.1703], [-3.8249, 39.1703], [-3.8249, 40.0753], [-6.6047, 40.0753], [-6.6047, 39.1703], [-6.7047, 39.1703], [-6.7047, 36.1953], [-1.5899, 36.1953], [-1.5899, 39.1753], [-1.5899, 40.0753]]]}, "properties": {"room_id": "B3-411", "building_id": "B3", "floor": 4}}, {"type": "Feature", "geometry": {"type": "Polygon", "coordinates": [[[-9.0899, 54.8103], [-9.0899, 50.2403], [-10.3798, 50.2403], [-10.3798, 50.1103], [-10.3798, 48.8253], [-9.9199, 48.8253], [-9.1399, 48.8253], [-9.1399, 48.8403], [-9.0899, 48.8403], [-9.0899, 48.0253], [-9.0899, 48.0103], [-9.0899, 43.9253], [-10.3798, 43.9253], [-10.3798, 42.2803], [-9.9199, 42.2803], [-9.0899, 42.2803], [-9.0899, 41.3103], [-9.0899, 37.0853], [-10.3798, 37.0853], [-10.3798, 35.4403], [-9.9199, 35.4403], [-9.9049, 35.4403], [-9.0899, 35.4403], [-9.0899, 34.6253], [-9.0899, 34.6103], [-9.0899, 33.8603], [-7.3874, 33.8603], [-1.5899, 33.8603], [-1.5899, 34.1278], [-1.5899, 36.1953], [-6.7047, 36.1953], [-6.7047, 39.1703], [-6.7047, 40.0323], [-6.7047, 40.1853], [-6.7047, 43.1203], [-5.4047, 43.1203], [-5.4047, 44.5603], [-6.7047, 44.5603], [-6.7047, 50.3106], [-5.4047, 50.3106], [-5.4047, 52.065], [-6.7047, 52.065], [-6.7047, 52.165], [-5.4477, 52.165], [-5.2947, 52.165], [-1.3048, 52.165], [-1.3048, 55.165], [-5.8199, 55.165], [-5.8199, 55.6403], [-9.0899, 55.6403], [-9.0899, 54.8253], [-9.0899, 54.8103]]]}, "properties": {"room_id": "4.CR3", "building_id": "B3", "floor": 4}}, {"type": "Feature", "geometry": {"type": "Polygon", "coordinates": [[[-9.0899, 57.7203], [-9.0899, 57.2853], [-10.3798, 57.2853], [-10.3798, 55.6403], [-9.9199, 55.6403], [-9.9049, 55.6403], [-9.1399, 55.6403], [-9.0899, 55.6403], [-5.8199, 55.6403], [-5.8199, 57.7203], [-6.0149, 57.7203], [-6.0149, 57.7303], [-8.0149, 57.7303], [-8.0149, 57.7203], [-9.0899, 57.7203]]]}, "properties": {"room_id": "4.LB2", "building_id": "B3", "floor": 4}}, {"type": "Feature", "geometry": {"type": "Polygon", "coordinates": [[[0.2001, 33.3403], [-1.4999, 33.3403], [-1.4999, 31.1603], [0.2001, 31.1603], [0.2001, 33.3403]]]}, "properties": {"room_id": "4.WC5", "building_id": "B3", "floor": 4}}, {"type": "Feature", "geometry": {"type": "Polygon", "coordinates": [[[-1.6399, 31.0203], [-4.3299, 31.0203], [-4.3299, 30.1203], [-1.6399, 30.1203], [-1.6399, 31.0203]]]}, "properties": {"room_id": "4.JC", "building_id": "B3", "floor": 4}}, {"type": "Feature", "geometry": {"type": "Polygon", "coordinates": [[[-7.2599, 30.7303], [-7.2599, 27.8053], [0.0201, 27.8053], [0.0201, 29.3803], [-1.6399, 29.3803], [-1.6399, 29.9803], [-4.3299, 29.9803], [-4.3299, 29.2543], [-4.4699, 29.2543], [-4.4699, 30.7303], [-7.2599, 30.7303]]]}, "properties": {"room_id": "4.WC2", "building_id": "B3", "floor": 4}}, {"type": "Feature", "geometry": {"type": "Polygon", "coordinates": [[[2.3501, 29.3903], [2.3501, 28.1403], [2.3501, 27.8053], [3.5001, 27.8053], [3.5001, 28.2443], [3.6201, 28.2443], [3.6201, 27.8053], [5.2301, 27.8053], [5.2301, 28.2553], [5.3701, 28.2553], [5.3701, 27.8053], [6.8301, 27.8053], [6.8301, 28.7203], [6.8301, 28.7403], [7.1401, 28.7403], [7.1401, 30.7403], [3.6201, 30.7403], [3.6201, 29.3903], [2.3501, 29.3903]]]}, "properties": {"room_id": "4.WC1", "building_id": "B3", "floor": 4}}, {"type": "Feature", "geometry": {"type": "Polygon", "coordinates": [[[2.2301, 31.0303], [2.2301, 33.7578], [2.2451, 33.7578], [2.2451, 33.8653], [2.2451, 36.1603], [2.2451, 36.4253], [2.2301, 36.4253], [2.2301, 36.6753], [2.2301, 39.3703], [2.2301, 40.0753], [-1.3699, 40.0753], [-1.3699, 39.1753], [-1.3849, 39.1753], [-1.3849, 34.1278], [-1.3699, 34.1278], [-1.3699, 33.8603], [0.4301, 33.8603], [0.4301, 33.4028], [0.4301, 31.0303], [-1.5099, 31.0303], [-1.5099, 29.5103], [0.0826, 29.5103], [0.4301, 29.5103], [0.4301, 28.7403], [0.8601, 28.7403], [0.8601, 28.6878], [0.8601, 27.9103], [0.8601, 27.7954], [2.2301, 27.7954], [2.2301, 27.9533], [2.2301, 28.1403], [2.2301, 29.5103], [3.5001, 29.5103], [3.5001, 30.7928], [3.5001, 30.8469], [3.5001, 31.0303], [2.2301, 31.0303]], [[0.0301, 36.1603], [0.0301, 36.6903], [0.8601, 36.6903], [0.8601, 36.1603], [0.0301, 36.1603]]]}, "properties": {"room_id": "4.CR2", "building_id": "B3", "floor": 4}}, {"type": "Feature", "geometry": {"type": "Polygon", "coordinates": [[[-9.0899, 27.7954], [-7.4899, 27.7954], [-7.4899, 30.7228], [-7.4899, 31.0903], [-7.4899, 33.6553], [-9.0899, 33.6553], [-9.0899, 28.7403], [-9.0899, 27.9103], [-9.0899, 27.7954]]]}, "properties": {"room_id": "B3-419", "building_id": "B3", "floor": 4}}, {"type": "Feature", "geometry": {"type": "Polygon", "coordinates": [[[2.9453, 33.6553], [2.4351, 33.6553], [2.4351, 31.2353], [3.4985, 31.2353], [3.5526, 31.2353], [3.6067, 31.2353], [7.0535, 31.2353], [7.0551, 31.2353], [7.0551, 33.6553], [6.5454, 33.6553], [5.3454, 33.6553], [4.1454, 33.6553], [2.9453, 33.6553]]]}, "properties": {"room_id": "EV-01", "building_id": "B3", "floor": 4}}, {"type": "Feature", "geometry": {"type": "Polygon", "coordinates": [[[0.0301, 62.0203], [-4.8899, 62.0203], [-4.8899, 61.5203], [-4.8899, 59.0703], [-4.8899, 58.7603], [0.2101, 58.7603], [0.2101, 61.4253], [0.0451, 61.4253], [0.0451, 61.4103], [0.0301, 61.4103], [0.0301, 62.0203]]]}, "properties": {"room_id": "ST-02", "building_id": "B3", "floor": 4}}, {"type": "Feature", "geometry": {"type": "Polygon", "coordinates": [[[-5.8049, 62.3703], [-9.1049, 62.3703], [-9.1049, 62.3678], [-9.1049, 62.2403], [-9.1049, 61.4103], [-9.1049, 57.9353], [-8.0149, 57.9353], [-6.0149, 57.9353], [-5.8049, 57.9353], [-5.8049, 58.6503], [-5.8049, 62.3687], [-5.8049, 62.3703]]]}, "properties": {"room_id": "EV-02", "building_id": "B3", "floor": 4}}, {"type": "Feature", "geometry": {"type": "Polygon", "coordinates": [[[2.9453, 33.8703], [2.9453, 33.8603], [4.1454, 33.8603], [4.1454, 33.8703], [5.3454, 33.8703], [5.3454, 33.8603], [6.5454, 33.8603], [6.5454, 33.8703], [7.2451, 33.8703], [7.2451, 36.1603], [4.7451, 36.1603], [4.5126, 36.1603], [3.0601, 36.1603], [3.0451, 36.1603], [2.2451, 36.1603], [2.2451, 33.8703], [2.9453, 33.8703]]]}, "properties": {"room_id": "4.LB1", "building_id": "B3", "floor": 4}}, {"type": "Feature", "geometry": {"type": "Polygon", "coordinates": [[[18.1401, 40.0603], [3.0501, 40.0603], [3.0501, 39.3703], [2.4501, 39.3703], [2.4501, 36.6903], [18.7401, 36.6903], [18.7401, 39.3703], [18.14, 39.3703], [18.14, 39.8503], [18.1401, 40.0603]]]}, "properties": {"room_id": "ST-01", "building_id": "B3", "floor": 4}}, {"type": "Feature", "geometry": {"type": "Polygon", "coordinates": [[[2.9502, 53.5085], [19.0451, 53.5085], [19.0451, 53.2185], [19.0451, 40.8904], [20.9952, 40.8904], [20.9952, 41.6903], [21.9952, 41.6903], [21.9952, 40.8904], [27.8751, 40.8904], [27.8751, 62.3553], [2.9502, 62.3553], [2.9502, 61.8853], [2.9502, 59.5319], [3.7351, 59.5319], [3.7351, 58.5337], [2.9502, 58.5337], [2.9502, 53.5085]]]}, "properties": {"room_id": "4.TR", "building_id": "B3", "floor": 4}}, {"type": "Feature", "geometry": {"type": "Polygon", "coordinates": [[[2.2301, 62.3553], [0.8601, 62.3553], [0.8601, 61.4253], [0.8601, 61.4103], [0.4301, 61.4103], [0.4301, 58.6578], [0.4301, 55.6403], [0.8601, 55.6403], [0.8601, 54.8103], [0.0301, 54.8103], [0.0301, 55.165], [-1.2298, 55.165], [-1.2298, 54.6045], [-1.2298, 52.726], [-1.2298, 52.165], [2.2301, 52.165], [2.2301, 53.2185], [0.8451, 53.2185], [0.8451, 53.4085], [2.2301, 53.4085], [2.2301, 58.4653], [2.2301, 62.3553]]]}, "properties": {"room_id": "4.CR5", "building_id": "B3", "floor": 4}}, {"type": "Feature", "geometry": {"type": "Polygon", "coordinates": [[[-5.1847, 50.2606], [-5.1847, 47.1453], [2.2301, 47.1453], [2.2301, 51.945], [-5.1847, 51.945], [-5.1847, 50.2606]], [[0.8601, 48.8403], [0.8601, 48.0103], [0.0301, 48.0103], [0.0301, 48.8403], [0.8601, 48.8403]]]}, "properties": {"room_id": "B3-415A", "building_id": "B3", "floor": 4}}, {"type": "Feature", "geometry": {"type": "Polygon", "coordinates": [[[-5.1847, 44.6103], [-5.1847, 43.1203], [2.2301, 43.1203], [2.2301, 47.1453], [-5.1847, 47.1453], [-5.1847, 44.6103]]]}, "properties": {"room_id": "B3-415B", "building_id": "B3", "floor": 4}}, {"type": "Feature", "geometry": {"type": "Polygon", "coordinates": [[[-15.7498, 62.3553], [-19.1399, 62.3553], [-19.1399, 62.2403], [-19.1399, 62.2253], [-19.1399, 61.4103], [-19.9549, 61.4103], [-19.9699, 61.4103], [-20.0849, 61.4103], [-20.0849, 58.5853], [-15.7498, 58.5853], [-15.7498, 62.3553]]]}, "properties": {"room_id": "B3-534", "building_id": "B3", "floor": 5}}, {"type": "Feature", "geometry": {"type": "Polygon", "coordinates": [[[-20.0849, 58.3653], [-20.0849, 55.6403], [-19.9699, 55.6403], [-19.9549, 55.6403], [-19.1399, 55.6403], [-19.1399, 55.2353], [-15.7498, 55.2353], [-15.7498, 58.3653], [-20.0849, 58.3653]]]}, "properties": {"room_id": "B3-533", "building_id": "B3", "floor": 5}}, {"type": "Feature", "geometry": {"type": "Polygon", "coordinates": [[[-20.0849, 54.8103], [-20.0849, 51.8853], [-15.7498, 51.8853], [-15.7498, 55.0153], [-19.1399, 55.0153], [-19.1399, 54.8103], [-19.9549, 54.8103], [-19.9699, 54.8103], [-20.0849, 54.8103]]]}, "properties": {"room_id": "B3-532", "building_id": "B3", "floor": 5}}, {"type": "Feature", "geometry": {"type": "Polygon", "coordinates": [[[-20.0849, 51.6653], [-20.0849, 48.8403], [-19.9699, 48.8403], [-19.9549, 48.8403], [-19.1399, 48.8403], [-19.1399, 48.5353], [-15.7498, 48.5353], [-15.7498, 51.6653], [-20.0849, 51.6653]]]}, "properties": {"room_id": "B3-530", "building_id": "B3", "floor": 5}}, {"type": "Feature", "geometry": {"type": "Polygon", "coordinates": [[[-20.0849, 48.0103], [-20.0849, 45.1853], [-15.7498, 45.1853], [-15.7498, 48.3153], [-19.1399, 48.3153], [-19.1399, 48.0103], [-19.9549, 48.0103], [-19.9699, 48.0103], [-20.0849, 48.0103]]]}, "properties": {"room_id": "B3-528", "building_id": "B3", "floor": 5}}, {"type": "Feature", "geometry": {"type": "Polygon", "coordinates": [[[-20.0849, 44.9653], [-20.0849, 42.1403], [-19.9699, 42.1403], [-19.9549, 42.1403], [-19.1399, 42.1403], [-19.1399, 41.8353], [-15.7498, 41.8353], [-15.7498, 44.9653], [-20.0849, 44.9653]]]}, "properties": {"room_id": "B3-526", "building_id": "B3", "floor": 5}}, {"type": "Feature", "geometry": {"type": "Polygon", "coordinates": [[[-20.0849, 41.3103], [-20.0849, 38.4854], [-15.7498, 38.4854], [-15.7498, 41.6153], [-19.1399, 41.6153], [-19.1399, 41.3103], [-19.9549, 41.3103], [-19.9699, 41.3103], [-20.0849, 41.3103]]]}, "properties": {"room_id": "B3-524", "building_id": "B3", "floor": 5}}, {"type": "Feature", "geometry": {"type": "Polygon", "coordinates": [[[-20.0849, 38.2654], [-20.0849, 35.4403], [-19.9699, 35.4403], [-19.9549, 35.4403], [-19.1399, 35.4403], [-19.1399, 35.1354], [-15.7498, 35.1354], [-15.7498, 38.2654], [-20.0849, 38.2654]]]}, "properties": {"room_id": "B3-522", "building_id": "B3", "floor": 5}}, {"type": "Feature", "geometry": {"type": "Polygon", "coordinates": [[[-20.0849, 34.6103], [-20.0849, 31.7854], [-15.7498, 31.7854], [-15.7498, 34.9154], [-19.1399, 34.9154], [-19.1399, 34.6103], [-19.9549, 34.6103], [-19.9699, 34.6103], [-20.0849, 34.6103]]]}, "properties": {"room_id": "B3-520", "building_id": "B3", "floor": 5}}, {"type": "Feature", "geometry": {"type": "Polygon", "coordinates": [[[-20.0849, 31.5654], [-20.0849, 28.7403], [-19.9699, 28.7403], [-19.9549, 28.7403], [-19.1399, 28.7403], [-19.1399, 27.9253], [-19.1399, 27.9103], [-19.1399, 27.7954], [-15.7498, 27.7954], [-15.7498, 31.5654], [-20.0849, 31.5654]]]}, "properties": {"room_id": "B3-518", "building_id": "B3", "floor": 5}}, {"type": "Feature", "geometry": {"type": "Polygon", "coordinates": [[[-13.5098, 27.7954], [-9.9199, 27.7954], [-9.9199, 27.9103], [-9.9199, 27.9253], [-9.9199, 28.7403], [-9.3099, 28.7403], [-9.3099, 31.0353], [-13.5098, 31.0353], [-13.5098, 27.7954]]]}, "properties": {"room_id": "B3-519", "building_id": "B3", "floor": 5}}, {"type": "Feature", "geometry": {"type": "Polygon", "coordinates": [[[-13.5098, 41.3103], [-13.5098, 36.7953], [-13.0038, 36.7953], [-13.0038, 36.5903], [-4.7298, 36.5903], [-4.7298, 41.3103], [-9.1999, 41.3103], [-9.9199, 41.3103], [-10.1574, 41.3103], [-13.5098, 41.3103]]]}, "properties": {"room_id": "B3-512", "building_id": "B3", "floor": 5}}, {"type": "Feature", "geometry": {"type": "Polygon", "coordinates": [[[-4.9498, 41.5303], [-4.9498, 48.3153], [-9.0899, 48.3153], [-9.0899, 47.9228], [-9.0899, 42.2278], [-9.0899, 41.5303], [-4.9498, 41.5303]]]}, "properties": {"room_id": "B3-514", "building_id": "B3", "floor": 5}}, {"type": "Feature", "geometry": {"type": "Polygon", "coordinates": [[[-13.5098, 48.3153], [-13.5098, 41.5303], [-10.2099, 41.5303], [-10.2099, 42.2803], [-9.9199, 42.2803], [-9.3099, 42.2803], [-9.3099, 47.8703], [-9.9199, 47.8703], [-10.2099, 47.8703], [-10.2099, 48.3153], [-13.5098, 48.3153]]]}, "properties": {"room_id": "B3-525", "building_id": "B3", "floor": 5}}, {"type": "Feature", "geometry": {"type": "Polygon", "coordinates": [[[-13.5098, 53.1053], [-13.5098, 48.5353], [-10.1574, 48.5353], [-9.9199, 48.5353], [-9.9199, 48.8403], [-9.3099, 48.8403], [-9.3099, 53.1053], [-13.5098, 53.1053]]]}, "properties": {"room_id": "B3-527", "building_id": "B3", "floor": 5}}, {"type": "Feature", "geometry": {"type": "Polygon", "coordinates": [[[-4.9498, 53.1053], [-9.0899, 53.1053], [-9.0899, 48.8403], [-9.0899, 48.5353], [-4.9498, 48.5353], [-4.9498, 52.285], [-4.9498, 53.1053]]]}, "properties": {"room_id": "B3-516", "building_id": "B3", "floor": 5}}, {"type": "Feature", "geometry": {"type": "Polygon", "coordinates": [[[2.2301, 48.4253], [2.2301, 53.055], [-2.3098, 53.055], [-2.3098, 52.285], [-2.3098, 48.4253], [0.0301, 48.4253], [0.0301, 48.8403], [0.8601, 48.8403], [0.8601, 48.4253], [2.2301, 48.4253]]]}, "properties": {"room_id": "B3-517", "building_id": "B3", "floor": 5}}, {"type": "Feature", "geometry": {"type": "Polygon", "coordinates": [[[2.2301, 40.6403], [2.2301, 48.2053], [0.8601, 48.2053], [0.8601, 48.0103], [0.0301, 48.0103], [0.0301, 48.2053], [-2.3098, 48.2053], [-2.3098, 40.2953], [-1.4799, 40.2953], [2.2301, 40.2953], [2.2301, 40.6403]], [[0.8601, 42.1403], [0.8601, 41.3103], [0.0301, 41.3103], [0.0301, 42.1403], [0.8601, 42.1403]]]}, "properties": {"room_id": "B3-511", "building_id": "B3", "floor": 5}}, {"type": "Feature", "geometry": {"type": "Polygon", "coordinates": [[[7.6601, 27.7954], [10.4851, 27.7954], [10.4851, 33.6403], [7.6601, 33.6403], [7.6601, 31.1403], [7.6601, 28.7403], [7.6601, 27.9103], [7.6601, 27.7954]]]}, "properties": {"room_id": "B3-509", "building_id": "B3", "floor": 5}}, {"type": "Feature", "geometry": {"type": "Polygon", "coordinates": [[[10.7051, 27.7954], [13.5301, 27.7954], [13.5301, 27.9103], [13.5301, 27.9253], [13.5301, 28.7403], [13.8351, 28.7403], [13.8351, 33.6403], [10.7051, 33.6403], [10.7051, 27.7954]]]}, "properties": {"room_id": "B3-508", "building_id": "B3", "floor": 5}}, {"type": "Feature", "geometry": {"type": "Polygon", "coordinates": [[[14.3601, 27.7954], [17.1851, 27.7954], [17.1851, 33.6403], [14.0551, 33.6403], [14.0551, 28.7403], [14.3601, 28.7403], [14.3601, 27.9253], [14.3601, 27.9103], [14.3601, 27.7954]]]}, "properties": {"room_id": "B3-507", "building_id": "B3", "floor": 5}}, {"type": "Feature", "geometry": {"type": "Polygon", "coordinates": [[[17.4051, 27.7954], [18.8501, 27.7954], [20.3301, 27.7954], [20.3301, 27.9103], [20.3301, 27.9253], [20.3301, 28.7403], [20.5351, 28.7403], [20.5351, 33.6403], [17.4051, 33.6403], [17.4051, 27.7954]]]}, "properties": {"room_id": "B3-506", "building_id": "B3", "floor": 5}}, {"type": "Feature", "geometry": {"type": "Polygon", "coordinates": [[[23.8852, 33.6403], [20.7551, 33.6403], [20.7551, 28.7403], [21.1601, 28.7403], [21.1601, 27.9253], [21.1601, 27.9103], [21.1601, 27.7954], [23.8852, 27.7954], [23.8852, 33.6403]]]}, "properties": {"room_id": "B3-505", "building_id": "B3", "floor": 5}}, {"type": "Feature", "geometry": {"type": "Polygon", "coordinates": [[[26.5926, 36.1752], [24.1052, 36.1752], [24.1052, 33.7503], [24.1052, 27.7954], [29.1251, 27.7954], [29.1251, 36.1752], [27.7601, 36.1752], [26.9301, 36.1752], [26.5926, 36.1752]], [[27.7601, 28.7403], [27.7601, 27.9103], [26.9301, 27.9103], [26.9301, 28.7403], [27.7601, 28.7403]]]}, "properties": {"room_id": "B3-504", "building_id": "B3", "floor": 5}}, {"type": "Feature", "geometry": {"type": "Polygon", "coordinates": [[[22.7801, 40.1703], [22.7801, 36.3952], [23.9952, 36.3952], [26.5401, 36.3952], [26.5401, 36.9902], [26.9301, 36.9902], [26.9451, 36.9902], [27.7601, 36.9902], [27.7601, 36.3952], [29.1251, 36.3952], [29.1251, 40.1703], [22.7801, 40.1703]]]}, "properties": {"room_id": "B3-503", "building_id": "B3", "floor": 5}}, {"type": "Feature", "geometry": {"type": "Polygon", "coordinates": [[[-10.2079, 62.3553], [-13.5088, 62.3553], [-13.5088, 58.5853], [-9.3099, 58.5853], [-9.3099, 61.2703], [-9.9199, 61.2703], [-10.2079, 61.2703], [-10.2079, 62.3553]]]}, "properties": {"room_id": "B3-531", "building_id": "B3", "floor": 5}}, {"type": "Feature", "geometry": {"type": "Polygon", "coordinates": [[[-13.5098, 31.2553], [-9.3099, 31.2553], [-9.3099, 33.7578], [-9.3099, 34.4703], [-9.9199, 34.4703], [-10.2099, 34.4703], [-10.2099, 34.8203], [-13.5098, 34.8203], [-13.5098, 31.2553]]]}, "properties": {"room_id": "B3-521", "building_id": "B3", "floor": 5}}, {"type": "Feature", "geometry": {"type": "Polygon", "coordinates": [[[7.6076, 33.8603], [10.5951, 33.8603], [13.9451, 33.8603], [17.2951, 33.8603], [20.6451, 33.8603], [23.8852, 33.8603], [23.8852, 36.1752], [22.5601, 36.1752], [22.5601, 40.1703], [18.9601, 40.1703], [18.9601, 39.6603], [18.9601, 39.3703], [18.9601, 36.6753], [18.9601, 36.1603], [18.1451, 36.1603], [18.1301, 36.1603], [16.3501, 36.1603], [11.7451, 36.1603], [9.4451, 36.1603], [7.2451, 36.1603], [7.2451, 33.8653], [7.2451, 33.8603], [7.6076, 33.8603]], [[20.3301, 36.1603], [20.3301, 36.6903], [21.1601, 36.6903], [21.1601, 36.1603], [20.3301, 36.1603]]]}, "properties": {"room_id": "5.CR1", "building_id": "B3", "floor": 5}}, {"type": "Feature", "geometry": {"type": "Polygon", "coordinates": [[[-13.7288, 62.3553], [-15.5298, 62.3553], [-15.5298, 58.4753], [-15.5298, 55.1253], [-15.5298, 51.7753], [-15.5298, 48.4253], [-15.5298, 45.0753], [-15.5298, 41.7253], [-15.5298, 38.3754], [-15.5298, 35.0254], [-15.5298, 31.6754], [-15.5298, 27.7954], [-13.7298, 27.7954], [-13.7298, 31.1453], [-13.7298, 34.9303], [-13.7288, 34.9303], [-13.7288, 36.6853], [-13.7298, 36.6853], [-13.7298, 41.4203], [-13.7298, 48.4253], [-13.7298, 53.2153], [-13.7288, 53.2153], [-13.7288, 53.3683], [-13.7288, 55.0823], [-13.7288, 55.2353], [-13.7288, 58.4753], [-13.7288, 62.3553]]]}, "properties": {"room_id": "5.CR4", "building_id": "B3", "floor": 5}}, {"type": "Feature", "geometry": {"type": "Polygon", "coordinates": [[[2.2301, 61.8853], [2.2301, 62.3553], [0.8601, 62.3553], [0.8601, 62.2403], [0.8601, 62.2253], [0.8601, 61.4103], [0.4301, 61.4103], [0.4301, 58.6578], [0.4301, 55.6403], [0.8601, 55.6403], [0.8601, 54.8253], [2.2301, 54.8253], [2.2301, 61.8853]]]}, "properties": {"room_id": "5.CR6", "building_id": "B3", "floor": 5}}, {"type": "Feature", "geometry": {"type": "Polygon", "coordinates": [[[-7.2599, 30.7303], [-7.2599, 27.8053], [0.0201, 27.8053], [0.0201, 29.3803], [-1.6399, 29.3803], [-1.6399, 29.9803], [-4.3299, 29.9803], [-4.3299, 29.2543], [-4.4699, 29.2543], [-4.4699, 30.7303], [-7.2599, 30.7303]]]}, "properties": {"room_id": "5.WC2", "building_id": "B3", "floor": 5}}, {"type": "Feature", "geometry": {"type": "Polygon", "coordinates": [[[-1.6399, 31.0203], [-4.3299, 31.0203], [-4.3299, 30.1203], [-1.6399, 30.1203], [-1.6399, 31.0203]]]}, "properties": {"room_id": "5.JC", "building_id": "B3", "floor": 5}}, {"type": "Feature", "geometry": {"type": "Polygon", "coordinates": [[[0.2001, 33.3403], [-1.4999, 33.3403], [-1.4999, 31.1603], [0.2001, 31.1603], [0.2001, 33.3403]]]}, "properties": {"room_id": "5.WC5", "building_id": "B3", "floor": 5}}, {"type": "Feature", "geometry": {"type": "Polygon", "coordinates": [[[2.2301, 31.0303], [2.2301, 33.7578], [2.2301, 33.8653], [2.2301, 36.1603], [2.2301, 36.4253], [2.2301, 36.6753], [2.2301, 39.3703], [2.2301, 39.6603], [2.2301, 40.0753], [-1.3699, 40.0753], [-1.3699, 36.6053], [-1.3699, 33.8603], [0.4301, 33.8603], [0.4301, 33.4028], [0.4301, 31.0303], [-1.5099, 31.0303], [-1.5099, 29.5103], [0.0826, 29.5103], [0.4301, 29.5103], [0.4301, 28.7403], [0.8601, 28.7403], [0.8601, 28.6878], [0.8601, 27.9103], [0.8601, 27.7954], [2.2301, 27.7954], [2.2301, 27.9533], [2.2301, 28.1403], [2.2301, 29.5103], [3.5001, 29.5103], [3.5001, 30.7928], [3.5001, 30.8469], [3.5001, 31.0303], [2.2301, 31.0303]], [[0.0301, 36.1603], [0.0301, 36.6903], [0.8601, 36.6903], [0.8601, 36.1603], [0.0301, 36.1603]]]}, "properties": {"room_id": "5.CR2", "building_id": "B3", "floor": 5}}, {"type": "Feature", "geometry": {"type": "Polygon", "coordinates": [[[2.3501, 29.3903], [2.3501, 28.1403], [2.3501, 27.8053], [3.5001, 27.8053], [3.5001, 28.2443], [3.6201, 28.2443], [3.6201, 27.8053], [5.2301, 27.8053], [5.2301, 28.2553], [5.3701, 28.2553], [5.3701, 27.8053], [6.8301, 27.8053], [6.8301, 28.7203], [6.8301, 28.7403], [7.1401, 28.7403], [7.1401, 30.7403], [3.6201, 30.7403], [3.6201, 29.3903], [2.3501, 29.3903]]]}, "properties": {"room_id": "5.WC1", "building_id": "B3", "floor": 5}}, {"type": "Feature", "geometry": {"type": "Polygon", "coordinates": [[[-10.1574, 55.3453], [-9.9199, 55.3453], [-9.9199, 55.6403], [-9.3099, 55.6403], [-9.3099, 57.7187], [-9.3099, 57.7303], [-9.3099, 58.3653], [-13.5088, 58.3653], [-13.5088, 55.3453], [-10.1574, 55.3453]]]}, "properties": {"room_id": "B3-529", "building_id": "B3", "floor": 5}}, {"type": "Feature", "geometry": {"type": "Polygon", "coordinates": [[[-1.5899, 36.6553], [-1.5899, 40.0753], [-2.5298, 40.0753], [-2.5298, 48.3153], [-2.5298, 52.225], [-4.7298, 52.225], [-4.7298, 48.4253], [-4.7298, 41.4203], [-4.7298, 41.3103], [-4.7298, 41.2673], [-4.7298, 36.5903], [-13.0038, 36.5903], [-13.0038, 36.5753], [-13.5088, 36.5753], [-13.5088, 35.0403], [-10.1574, 35.0403], [-9.9199, 35.0403], [-9.9199, 35.4403], [-9.0899, 35.4403], [-9.0899, 34.9303], [-9.0899, 34.5228], [-9.0899, 33.8603], [-7.3874, 33.8603], [-1.5899, 33.8603], [-1.5899, 36.5553], [-2.5288, 36.5553], [-2.5288, 36.6553], [-1.5899, 36.6553]]]}, "properties": {"room_id": "5.CR5", "building_id": "B3", "floor": 5}}, {"type": "Feature", "geometry": {"type": "Polygon", "coordinates": [[[-9.0899, 27.7954], [-7.4899, 27.7954], [-7.4899, 30.7228], [-7.4899, 31.0903], [-7.4899, 33.6553], [-9.0899, 33.6553], [-9.0899, 31.1453], [-9.0899, 28.7403], [-9.0899, 27.9103], [-9.0899, 27.7954]]]}, "properties": {"room_id": "B3-535", "building_id": "B3", "floor": 5}}, {"type": "Feature", "geometry": {"type": "Polygon", "coordinates": [[[2.2301, 53.275], [2.2301, 54.8253], [0.8601, 54.8253], [0.8076, 54.8253], [0.8076, 54.8103], [0.0301, 54.8103], [0.0301, 55.165], [-5.8199, 55.165], [-5.8199, 57.7203], [-6.0149, 57.7203], [-6.0149, 57.7303], [-8.0149, 57.7303], [-8.0149, 57.7203], [-9.0899, 57.7203], [-9.0899, 55.6403], [-9.0899, 54.8253], [-9.0899, 54.8103], [-9.0899, 54.5703], [-10.2099, 54.5703], [-10.2099, 55.1253], [-13.7288, 55.1253], [-13.7288, 53.3253], [-9.1999, 53.3253], [-4.7298, 53.3253], [-4.7298, 52.345], [-2.5298, 52.345], [-2.5298, 53.275], [2.2301, 53.275]]]}, "properties": {"room_id": "5.CR3", "building_id": "B3", "floor": 5}}, {"type": "Feature", "geometry": {"type": "Polygon", "coordinates": [[[18.14, 40.3753], [3.0501, 40.3753], [3.0501, 39.3703], [2.4742, 39.3703], [2.4742, 36.6903], [3.0601, 36.6903], [4.5126, 36.6903], [4.7451, 36.6903], [7.2451, 36.6903], [9.4451, 36.6903], [11.7451, 36.6903], [16.3501, 36.6903], [18.1301, 36.6903], [18.7159, 36.6903], [18.7159, 39.3703], [18.14, 39.3703], [18.14, 40.3753]]]}, "properties": {"room_id": "ST-01", "building_id": "B3", "floor": 5}}, {"type": "Feature", "geometry": {"type": "Polygon", "coordinates": [[[2.9453, 33.6553], [2.4351, 33.6553], [2.4351, 31.2353], [3.4985, 31.2353], [3.5526, 31.2353], [3.6067, 31.2353], [7.0535, 31.2353], [7.0551, 31.2353], [7.0551, 33.6553], [6.5454, 33.6553], [5.3454, 33.6553], [4.1454, 33.6553], [2.9453, 33.6553]]]}, "properties": {"room_id": "EV-01", "building_id": "B3", "floor": 5}}, {"type": "Feature", "geometry": {"type": "Polygon", "coordinates": [[[-4.8049, 62.0203], [-4.8899, 62.0203], [-4.8899, 61.5203], [-4.8899, 59.0703], [-4.8899, 58.7603], [0.2101, 58.7603], [0.2101, 61.4103], [0.0301, 61.4103], [0.0301, 62.0203], [-4.8049, 62.0203]]]}, "properties": {"room_id": "ST-02", "building_id": "B3", "floor": 5}}, {"type": "Feature", "geometry": {"type": "Polygon", "coordinates": [[[-5.8049, 62.3703], [-9.1049, 62.3703], [-9.1049, 62.3687], [-9.1049, 62.2403], [-9.1049, 57.9353], [-8.0149, 57.9353], [-6.0149, 57.9353], [-5.8049, 57.9353], [-5.8049, 58.6503], [-5.8049, 62.3687], [-5.8049, 62.3703]]]}, "properties": {"room_id": "EV-02", "building_id": "B3", "floor": 5}}, {"type": "Feature", "geometry": {"type": "Polygon", "coordinates": [[[2.9453, 33.8703], [2.9453, 33.8603], [4.1454, 33.8603], [4.1454, 33.8703], [5.3454, 33.8703], [5.3454, 33.8603], [6.5454, 33.8603], [6.5454, 33.8703], [7.2451, 33.8703], [7.2451, 36.1603], [4.7451, 36.1603], [4.5126, 36.1603], [3.0601, 36.1603], [3.0451, 36.1603], [2.2301, 36.1603], [2.2301, 33.8703], [2.9453, 33.8703]]]}, "properties": {"room_id": "5.LB1", "building_id": "B3", "floor": 5}}]}